{"type": "FeatureCollection", "features": [{"type": "Feature", "properties": {"NAME": "Mandatory Palestine (GB)", "SUBJECTO": "United Kingdom", "BORDERPRECISION": 1, "DE": "Israel", "MAPA": "world_1945.geojson", "MOTIVO": "Israel se proclama el 14-5-1948: en 1945 es el Mandato británico de Palestina (como en world_1938)", "FUENTE": "https://es.wikipedia.org/wiki/Declaraci%C3%B3n_de_independencia_de_Israel", "AREA_KM2": 31141}, "geometry": {"type": "Polygon", "coordinates": [[[34.56028274020312, 30.203866563752932], [34.20194915255664, 31.078446947053713], [34.146304163542965, 31.20857962222461], [34.19527724703906, 31.238141618684573], [34.5006590219414, 31.621099077180666], [34.59913543185351, 31.817897401765627], [34.681338343230465, 32.045978151277346], [34.75850203951953, 32.30071981997852], [34.84289077242968, 32.670699678376955], [34.894969019499996, 32.66283377261524], [34.95658782443164, 32.704818330720705], [34.959082636443355, 32.79665716739063], [34.97200683077929, 32.93840750308399], [35.13920119723437, 32.961654268220705], [35.20756057223437, 32.951488100007815], [35.23912719210742, 32.906993471101565], [35.399138483611324, 32.93840368838672], [35.40285018405078, 33.01396521182422], [35.4331541391289, 33.10066183658008], [35.473032984343746, 33.11898382754688], [35.50439361056445, 33.10851248355274], [35.586558374968746, 32.952796541169924], [35.67710784396289, 32.89522513003711], [35.68643477877734, 32.81278570742969], [35.66515639742968, 32.75782736392383], [35.70218184908984, 32.719405733064455], [35.65637114962695, 32.69108923526172], [35.63999465426562, 32.63743933291797], [35.66946700533984, 32.45244940371875], [35.6572866769707, 32.327315889314455], [35.62980178317187, 32.24896963687305], [35.614714655486324, 31.867774568513674], [35.58311751803515, 31.530948244050784], [35.523413691130855, 31.403564058259768], [35.52509978732226, 31.2193675860918], [35.390410456267574, 30.818418107942385], [35.15767196139453, 30.327973924592776], [35.16422942599414, 29.959563814119143], [35.033171686736324, 29.545907579377932], [34.9846792550957, 29.467219911531252], [34.95425704440234, 29.43680914492969], [34.93554213961718, 29.418094240144534], [34.56028274020312, 30.203866563752932]]]}}, {"type": "Feature", "properties": {"NAME": "British Raj", "SUBJECTO": "United Kingdom", "BORDERPRECISION": 1, "DE": "Bangladesh", "MAPA": "world_1945.geojson", "MOTIVO": "partición de la India el 14/15-8-1947 y Bangladés en 1971: en 1945 todo es el Raj británico (con los principados)", "FUENTE": "https://es.wikipedia.org/wiki/Partici%C3%B3n_de_la_India", "AREA_KM2": 132618}, "geometry": {"type": "Polygon", "coordinates": [[[92.06685927828906, 21.115090928987307], [91.94604781588671, 21.362578950837893], [91.84590438326953, 21.908670030549807], [91.57107070407031, 22.543313585237307], [91.41017440280078, 22.720834337190432], [91.08137801608203, 22.561330400422854], [90.0, 22.560958467439455], [90.0, 22.325391374543948], [90.0, 22.134809099153323], [90.0, 22.05844648929004], [90.0, 22.0199046954668], [90.0, 21.930253587678713], [89.90268996676562, 22.107825838044924], [89.86968520602343, 22.13322790713672], [89.796336207, 21.832069002107424], [89.67017653903125, 21.719838701204104], [89.57895186862109, 21.70058210940723], [89.4566145273125, 21.94171293826465], [89.23388198336718, 21.65538176150684], [89.07225326022265, 21.77433928103809], [89.00561812838671, 22.013837419465823], [88.82471755465625, 22.812898240999026], [88.67818740328906, 23.44705542178516], [88.52015212496875, 23.649343095735354], [88.50229934176562, 23.763539873079104], [88.72954848727343, 24.107759080842776], [88.74261764010546, 24.228484712556643], [88.65543654879687, 24.323218904451174], [88.18670180758593, 24.51734884829883], [88.03428176364062, 24.66251715274219], [88.280711207, 24.93698652835254], [88.46103194674609, 25.071363054231448], [88.68677810153125, 25.129806123689455], [88.85833266696093, 25.17523344607715], [88.87958053073046, 25.245194993928713], [88.82313826998828, 25.295663438752932], [88.27240279635546, 25.717847429231448], [88.05002883395312, 25.824487291291994], [88.01253035983203, 25.894107423738284], [88.06852248629687, 26.021392427400393], [88.31817916354296, 26.257730089143557], [88.42344191989062, 26.33451994510059], [88.98709395846484, 26.198098741487307], [89.1394529672539, 26.07835730166797], [89.30673507174609, 25.958705507234377], [89.52707198580859, 25.98537977786426], [89.71444991549609, 25.961059175447268], [89.7726316781914, 25.815379701570315], [89.796336207, 25.599628053621096], [89.83188155612109, 25.276105485872073], [89.87472823580859, 25.231910310701174], [90.0, 25.182513795808596], [90.0, 25.186317048982424], [91.02613357028125, 25.187776170686526], [92.1385984750664, 25.09897383304004], [92.18869307955859, 25.054828248933596], [92.2140379281914, 24.997834764436526], [92.2088117929375, 24.64224012942676], [92.13728621920703, 24.489438615754885], [91.7148924203789, 24.144107423738284], [91.49085524996875, 24.08566626162891], [91.19761184176562, 23.925222001985354], [91.13882735690234, 23.797889314607424], [91.14279464205859, 23.562964998201174], [91.1431150766289, 23.391519151643557], [91.24684432467578, 23.265128694490237], [91.35910323580859, 23.145131669954104], [91.59738448580859, 22.943322740510744], [91.69781020602343, 23.102651201204104], [91.87523177584765, 23.62437018008594], [92.0020017953789, 23.675895296052737], [92.18227675875781, 23.695989213899416], [92.21104720553515, 23.43581350894336], [92.49318984469531, 22.31987913699512], [92.50995162448046, 22.110425554231448], [92.59760573825, 21.387023530916018], [92.23697188815234, 21.149966798738284], [92.12366774996875, 20.996430955842776], [92.06685927828906, 21.115090928987307]]]}}, {"type": "Feature", "properties": {"NAME": "British Raj", "SUBJECTO": "United Kingdom", "BORDERPRECISION": 1, "DE": "Pakistan", "MAPA": "world_1945.geojson", "MOTIVO": "partición de la India el 14/15-8-1947 y Bangladés en 1971: en 1945 todo es el Raj británico (con los principados)", "FUENTE": "https://es.wikipedia.org/wiki/Partici%C3%B3n_de_la_India", "AREA_KM2": 818033}, "geometry": {"type": "Polygon", "coordinates": [[[67.69232467135546, 23.81415518374805], [67.48602584323046, 23.92806013675098], [67.31589034518359, 24.092885576204104], [67.20423415621875, 24.588166795686526], [67.15359786471484, 24.65159185977344], [66.99953750094531, 24.714782319978518], [66.70171645602343, 24.75227888675098], [66.65421584567187, 24.783935152009768], [66.64811233004687, 24.90462454409961], [66.70050338229296, 25.114379487947268], [66.62050918063281, 25.31748541446094], [66.43233016451953, 25.488610826448244], [66.30008986910937, 25.494687639192385], [65.76880172213671, 25.309339128450198], [65.21567061862109, 25.270059190706057], [64.85119155367968, 25.20576437564258], [64.4249754281914, 25.17311628909473], [64.23826125582812, 25.210826478914065], [64.12006667575, 25.312226854280276], [64.05922225436328, 25.40103491397266], [63.650332483855465, 25.336646638826174], [63.40352538546679, 25.164601884797854], [63.01806167086718, 25.157439790681643], [62.44957259616015, 25.1625991687334], [62.13830092867968, 25.104774080232424], [61.81326583346484, 25.05325659366016], [61.56996444186328, 25.03957136721973], [61.65140822848437, 25.468776308015627], [61.67348006686328, 25.627675615266604], [61.81273940524218, 25.9841323718584], [61.94130996188281, 26.15635260196094], [62.29843429049609, 26.36798246951465], [62.61229232272265, 26.48410566897754], [63.06232360324023, 26.51845511050586], [63.15620330294726, 26.550750337556643], [63.240542444792965, 26.665551744416994], [63.25704101046679, 27.10381468387012], [63.17317107638476, 27.230338655427737], [62.87982848605273, 27.254054628328127], [62.79671004733203, 27.43137701602344], [62.74660018405078, 28.03434904666309], [62.67098144015429, 28.205365739778323], [62.486819300261715, 28.305913530305666], [61.97238448580859, 28.480758272126955], [61.65926650485156, 28.656762681916994], [61.50095656832812, 28.86539801211719], [61.18114760836718, 29.346154771760744], [60.82045653781054, 29.833345018342776], [61.2195425363457, 29.68925818057422], [61.50305083712695, 29.601979814485354], [61.98402694186328, 29.490441881135744], [62.36863997897265, 29.384700380281252], [62.612090143767574, 29.36703260989551], [62.94639495333789, 29.356259904817385], [63.479983362761715, 29.45455130191211], [63.63710311373828, 29.4554458484209], [64.08925918063281, 29.3945327624834], [64.64487746676562, 29.448518358186526], [65.07828048190234, 29.52718123050098], [65.61050704440234, 29.612763963655276], [66.09057143649218, 29.736140809968752], [66.2015867563164, 29.80660780520801], [66.23276809176562, 29.88932951541309], [66.27732375582812, 30.2959056720293], [66.38170913180468, 30.690103136018557], [66.46658614596484, 30.842952333406252], [66.65230086764453, 31.009072862581057], [66.92075637301562, 31.207393251375002], [67.04813674410937, 31.239852510408205], [67.33748153170703, 31.222463212922854], [67.5698957773125, 31.18569143863086], [67.68370345553515, 31.224425874666018], [67.82870772799609, 31.53630217166309], [67.9917707773125, 31.6578384265459], [68.24271682223437, 31.76717909427051], [68.49619582614062, 31.755920015291018], [68.94655898532031, 31.587081514314455], [69.05334762057421, 31.625777803376955], [69.20640853366015, 31.798038087800784], [69.21534255465625, 31.836165986970705], [69.27774337252734, 32.38241537661914], [69.407420191375, 32.75763662906055], [69.50792220553515, 32.94862326236133], [69.63955977877734, 33.050914369539065], [69.82672408541796, 33.10275229068164], [70.05731490573046, 33.11674841494922], [70.1991453500664, 33.168330751375], [70.28924087008593, 33.28308065982227], [70.24929336032031, 33.479598604158205], [70.19142440280078, 33.6062084064043], [70.02721694430468, 33.78934057803516], [69.86998275241015, 33.94076880069141], [70.02968123873828, 33.998797975496096], [70.47825149020312, 33.94420202823047], [70.79246047457812, 33.92692907901172], [71.02349379977343, 34.02341803164844], [71.15353682955859, 34.138385377839846], [71.13860610446093, 34.27792318911914], [71.0383787485039, 34.49313315005664], [71.09665969332812, 34.62038763614063], [71.27683547457812, 34.773692689851565], [71.51278975924609, 34.93367727847461], [71.65887740573046, 35.12511023135547], [71.56948379000781, 35.33958777041797], [71.62324813326953, 35.55721624942188], [71.51839736422656, 35.634044252351565], [71.51419356783984, 35.7855296954668], [71.32899764498828, 35.90752752871875], [71.32484725436328, 36.05156668277149], [71.53341964205859, 36.23719748111133], [71.64950850924609, 36.3336139545], [71.76033309420703, 36.32309301944141], [72.01185897311328, 36.500682435945315], [72.13431838473437, 36.586165986970705], [72.37272170504687, 36.717723451570315], [72.88985732516406, 36.786136232332034], [73.49485305270312, 36.79139669986133], [73.78628066500781, 36.72689016909961], [73.93819716891406, 36.80718954654102], [74.08755019625781, 36.80492361636524], [73.79606435395588, 36.26407222797173], [74.42892279087346, 35.94764300951294], [74.0597553693382, 35.78942840028354], [74.2179699785676, 35.15656996336596], [74.04361828283035, 34.68366288104338], [73.95901015719531, 34.65859945865039], [73.78785232028125, 34.3833080157793], [73.82828811129687, 34.308902345613284], [73.97976211032031, 34.308902345613284], [74.00055221041796, 34.16753729434375], [73.90973189791796, 34.10057791324024], [73.95493606051562, 34.01129110904102], [74.22410109957812, 34.01872976870899], [74.22317031344531, 33.86248358340625], [74.05018142184375, 33.81784018130664], [73.98794845065234, 33.631839357332034], [74.16263869723437, 33.52767141909961], [74.11049178561328, 33.311900697664065], [74.01391890963671, 33.252383790925784], [74.05373671969531, 33.14077719302539], [74.32687667330859, 33.00685080142383], [74.32528975924609, 32.767379365876955], [74.6775617929375, 32.76876410098438], [74.65996840914843, 32.57531698794727], [74.74466994723437, 32.46371420474414], [75.06043532809375, 32.486033998445315], [75.36138442477343, 32.316279970125], [75.36656478366015, 32.221114717439455], [75.27630904635546, 32.10636480899219], [75.04944137057421, 32.016219697908205], [74.76049331149218, 31.92800673098926], [74.5281248422539, 31.8164077624834], [74.542429957, 31.651568971589846], [74.62667373141406, 31.481593690828127], [74.52009871920703, 31.042111955598635], [73.83987716158984, 30.365550600007815], [73.95731643160937, 30.19441946597461], [73.79587081393359, 30.06793364138965], [73.52152541598437, 30.008096300081057], [73.36312392672656, 29.79770239444141], [73.13401320895312, 29.250440202668948], [72.91933730563281, 29.003978334382815], [72.38216689547656, 28.780770860627932], [72.30265334567187, 28.617164216951174], [72.17764571627734, 28.400582872346682], [71.9242430063164, 28.12602385135059], [71.88997176608203, 27.95489653201465], [71.57028487643359, 27.83837278933887], [71.24001601657031, 27.84328993411426], [70.83761886080859, 27.701928697541994], [70.67491439303515, 27.744340501741213], [70.6034422250664, 27.977218233064455], [70.51043227633593, 28.03673704715137], [70.32867721041796, 27.999541841462893], [70.08770278414843, 27.791207872346682], [70.02317336520312, 27.590322099641604], [69.58228591403125, 27.18854483218555], [69.49874404391406, 26.94388350100879], [69.46309951266406, 26.82303389163379], [69.51548293551562, 26.651887498811526], [69.75894454440234, 26.57844503970508], [69.98595717867968, 26.54029806704883], [70.17682174166796, 26.53379973025684], [70.12540725192187, 26.22360762210254], [70.0562010141289, 25.89300688357715], [70.24176314791796, 25.70792730899219], [70.3903074594414, 25.663287721589846], [70.63199904879687, 25.70792730899219], [70.68247512301562, 25.509259782747073], [70.77940658053515, 25.281207643464846], [71.07409957369921, 24.681169115022463], [70.96929458102343, 24.614205919221682], [71.07779220065234, 24.405879579500002], [70.93518355807421, 24.376115404084963], [70.86742690524218, 24.264508806184573], [70.62012008151171, 24.227311693147463], [70.55507949313281, 24.37807997317676], [70.47249892672656, 24.405879579500002], [70.12162307223437, 24.309152208284182], [70.03158858737109, 24.160350404695315], [69.70073989352343, 24.20499189944629], [69.5977049203789, 24.271951280549807], [69.22183516940234, 24.281446062043948], [68.84617904147265, 24.28561934085254], [68.72971633395312, 24.309152208284182], [68.73662856539843, 23.98178442569141], [68.34683516940234, 23.974343858674807], [68.21361068209765, 23.78019293399219], [68.04699996432421, 23.764070115999026], [67.69232467135546, 23.81415518374805]]]}}, {"type": "Feature", "properties": {"NAME": "British Raj", "SUBJECTO": "United Kingdom", "BORDERPRECISION": 1, "DE": "India", "MAPA": "world_1945.geojson", "MOTIVO": "partición de la India el 14/15-8-1947 y Bangladés en 1971: en 1945 todo es el Raj británico (con los principados)", "FUENTE": "https://es.wikipedia.org/wiki/Partici%C3%B3n_de_la_India", "AREA_KM2": 3204748}, "geometry": {"type": "Polygon", "coordinates": [[[74.45376876315234, 36.94058569522266], [74.52053359469531, 37.004581056550784], [74.66170791110156, 36.94174536319141], [74.70906356295703, 36.89139135928516], [74.83580306491015, 36.98612555117969], [74.96863082369921, 36.96506842227344], [75.21800521334765, 36.91244467349414], [75.21973708590625, 36.707198701814455], [75.34684279879687, 36.76508291812305], [75.62776473483203, 36.76897390933399], [75.79564956149218, 36.62358816714649], [75.89146712741015, 36.512496553376955], [75.8946028085625, 36.2869945392168], [75.75437453707812, 36.05480154605274], [75.88974288424609, 36.023238740876955], [75.97902205905078, 35.92497595401172], [76.0923338266289, 35.79842337222461], [76.326365503875, 35.886485658601565], [76.4339094491875, 35.886485658601565], [76.48086074313281, 35.79707296939258], [76.56105330905078, 35.75654562564258], [76.81541732272265, 35.560428224519534], [77.41709426364062, 35.513377748445315], [77.55409530123828, 35.46328695865039], [77.62022689303515, 35.406436525300784], [77.84622481783984, 35.47484167666797], [77.84622481783984, 35.24300345034961], [78.04494765719531, 34.77933081241016], [78.14430526217578, 34.5474925860918], [78.5086164804375, 34.497813783601565], [78.70733931979296, 34.31565435977344], [78.80669692477343, 34.19973715396289], [78.65765670260546, 34.100379548982424], [78.57485488375781, 34.017581544832034], [78.60797408541796, 33.75262411685352], [78.62453750094531, 33.50422628970508], [78.75701430758593, 33.40486868472461], [79.07998183688281, 33.36180456729297], [79.12105849703906, 33.3267894610918], [79.14090255221484, 33.244945131257815], [79.44696334323046, 33.20030554385547], [79.40037826022265, 33.01429709048633], [79.56532576998828, 32.70180853457813], [79.30527022799609, 32.53811987491016], [79.13616469821093, 32.41163595767383], [78.97054580172656, 32.38931616397266], [78.81878951510546, 32.50836142154102], [78.80396560153125, 32.67204626651172], [78.45068648776171, 32.5827594623125], [78.52110579928515, 32.2702709064043], [78.78180221041796, 32.002418123201174], [78.73491958102343, 31.80152853579883], [78.85763076266406, 31.637843690828127], [78.76067641696093, 31.54111822696094], [78.80533126315234, 31.347673021272463], [78.89426711520312, 31.31791266055469], [79.10879043063281, 31.45927771182422], [79.28126052340625, 31.347673021272463], [79.6285887094414, 30.968219362214846], [79.79214004000781, 31.020301423982424], [80.27717879733203, 30.759891115144534], [80.22518447360156, 30.596202455476565], [80.56510451754687, 30.484597764924807], [80.63441756686328, 30.514360032991213], [81.02130416354296, 30.246511064485354], [80.53981307467578, 29.837293230012698], [80.41290572604296, 29.785207353547854], [80.41650680026171, 29.621524415925784], [80.31736281832812, 29.502481065706057], [80.33550551852343, 29.323911272004885], [80.19650557955859, 29.14534720034961], [80.09826949557421, 28.951900087312502], [80.11586287936328, 28.840295396760744], [80.39947799166796, 28.669168077424807], [80.60916427096484, 28.70636709781055], [80.90857985934375, 28.4906020984209], [81.22500899752734, 28.423640809968752], [81.3623762460625, 28.185552202180666], [81.92122939547656, 27.8805003985918], [82.02530959567187, 27.954904161409182], [82.48791030367968, 27.68705328555469], [82.72996047457812, 27.716809831575198], [82.81183150729296, 27.53824385257129], [83.18719771823046, 27.46384008975391], [83.32403853854296, 27.374557100251955], [83.39164260348437, 27.404315553621096], [83.43074325045703, 27.50103911013965], [83.65725234469531, 27.50103911013965], [83.87434676608203, 27.382001481965823], [84.13611129244921, 27.53824385257129], [84.35837081393359, 27.404315553621096], [84.64774611910937, 27.374557100251955], [84.71129897555468, 27.270391069368166], [84.66636184176562, 27.069509111360354], [84.96470931491015, 27.00254400821094], [85.09327987155078, 26.876056276277346], [85.37141707858203, 26.757009111360354], [85.63416579684375, 26.883494935945315], [85.77540114840625, 26.85373457522754], [85.75989058932421, 26.704934678987307], [85.90053847750781, 26.59332426638965], [86.07120803317187, 26.697492204622073], [86.39541915377734, 26.63052710147266], [86.7765379281914, 26.46684416385059], [87.0493879648125, 26.600764833406252], [87.16964248141406, 26.437078081086916], [87.349314722625, 26.38499792666797], [87.51009658297656, 26.444518648103518], [87.63218978366015, 26.407317720369143], [87.94073775729296, 26.46684416385059], [88.09216597994921, 26.444518648103518], [88.23191359957812, 26.757009111360354], [88.03892806491015, 27.1290298327959], [88.07058242282031, 27.523368440583987], [88.21383956393359, 27.865617357209963], [88.19726088961718, 27.87575491519336], [88.35230544528125, 27.93377836795215], [88.56406691989062, 27.979426942781252], [88.66831496676562, 27.948281846956057], [88.73070052584765, 27.86612280459766], [88.7072019906914, 27.478784166291994], [88.80257705172656, 27.18099173159961], [88.76133254489062, 27.129973970369143], [88.86752608737109, 26.908403001741213], [89.153758082, 26.827533327058596], [89.40531447848437, 26.790891252473635], [89.79632857760546, 26.69479902835254], [89.83439162692187, 26.685449205354494], [90.0, 26.71859510989551], [90.0, 26.778745256379885], [91.16184524020312, 26.750220857576174], [91.62820723971484, 26.778298936799807], [91.90890029391406, 26.805301271394534], [92.00631240328906, 27.066119752839846], [91.99893477877734, 27.19302710147266], [91.88308242282031, 27.30026777835254], [91.74180892428515, 27.331195436433596], [91.594920191375, 27.46365126223926], [91.57607558688281, 27.57144507022266], [91.60775283297656, 27.641450487092776], [91.69296554049609, 27.68637617679004], [92.0460691781914, 27.70109709353809], [92.36727431735156, 27.798141084626955], [92.54606154879687, 27.919770799592776], [93.05136397799609, 28.417733751252932], [93.2955808969414, 28.58414038272266], [93.66897109469531, 28.70051535220508], [93.9898966428631, 28.9112555429827], [94.16620162448046, 29.027028642610354], [94.41172316989062, 29.16170462222461], [94.57171157321093, 29.200709901765627], [94.70051864108203, 29.125276170686526], [95.13930800875781, 28.981837831453127], [95.30896285494921, 29.001842103914065], [95.92862990817187, 29.37979658694629], [96.13341811617968, 29.203286729768557], [96.45532515963671, 28.881480775789065], [96.47584060153125, 28.710242830232424], [96.31656936129687, 28.50626143069629], [96.2545652719414, 28.385312639192385], [96.30007461032031, 28.36019667239551], [96.4351072641289, 28.3355785235918], [96.73091414889453, 28.299193941072268], [97.0596418710625, 28.21858748050098], [97.34041884860156, 28.18211515994434], [97.33239272555468, 27.953584276155276], [97.28191665133593, 27.845408998445315], [97.01381972750781, 27.583655916169924], [96.98157790621875, 27.456534944490237], [97.06418899020312, 27.13331564517383], [96.93149093112109, 27.107160173372073], [96.54760268649218, 27.20649679751758], [96.29668715914843, 27.243146501497073], [96.15614608248828, 27.185210786775393], [95.8326902719414, 26.95484884829883], [95.18182662448046, 26.557555757478518], [95.09292891940234, 26.398360811189455], [95.11836532076953, 26.055722795442385], [95.05756667575, 25.883988939241213], [94.63519576510546, 25.37369307132129], [94.61484816989062, 25.27835615725879], [94.70160201510546, 25.09475477786426], [94.701365503875, 24.948735795930666], [94.18484786471484, 23.93619879336719], [94.10823348483203, 23.878606401399416], [93.96919539889453, 23.884151063875002], [93.79378035983203, 23.93392141909961], [93.42865279635546, 24.07785376162891], [93.36920455416796, 23.950511537507815], [93.43508437594531, 23.23337896914844], [93.34874251803515, 23.074142061189455], [93.1684065195, 23.009591661409182], [93.06589797457812, 22.926452241853518], [93.13464644869921, 22.507768236116213], [93.12766555270312, 22.202924333528323], [93.00463393649218, 22.037112794832034], [92.892283472625, 21.97929724307422], [92.77779677828906, 22.04213484378223], [92.50995162448046, 22.110425554231448], [92.49318984469531, 22.31987913699512], [92.21104720553515, 23.43581350894336], [92.18227675875781, 23.695989213899416], [92.0020017953789, 23.675895296052737], [91.87523177584765, 23.62437018008594], [91.69781020602343, 23.102651201204104], [91.59738448580859, 22.943322740510744], [91.35910323580859, 23.145131669954104], [91.24684432467578, 23.265128694490237], [91.1431150766289, 23.391519151643557], [91.14279464205859, 23.562964998201174], [91.13882735690234, 23.797889314607424], [91.19761184176562, 23.925222001985354], [91.49085524996875, 24.08566626162891], [91.7148924203789, 24.144107423738284], [92.13728621920703, 24.489438615754885], [92.2088117929375, 24.64224012942676], [92.2140379281914, 24.997834764436526], [92.18869307955859, 25.054828248933596], [92.1385984750664, 25.09897383304004], [91.02613357028125, 25.187776170686526], [90.0, 25.186317048982424], [90.0, 25.182513795808596], [89.87472823580859, 25.231910310701174], [89.83188155612109, 25.276105485872073], [89.796336207, 25.599628053621096], [89.7726316781914, 25.815379701570315], [89.71444991549609, 25.961059175447268], [89.52707198580859, 25.98537977786426], [89.30673507174609, 25.958705507234377], [89.1394529672539, 26.07835730166797], [88.98709395846484, 26.198098741487307], [88.42344191989062, 26.33451994510059], [88.31817916354296, 26.257730089143557], [88.06852248629687, 26.021392427400393], [88.01253035983203, 25.894107423738284], [88.05002883395312, 25.824487291291994], [88.27240279635546, 25.717847429231448], [88.82313826998828, 25.295663438752932], [88.87958053073046, 25.245194993928713], [88.85833266696093, 25.17523344607715], [88.68677810153125, 25.129806123689455], [88.46103194674609, 25.071363054231448], [88.280711207, 24.93698652835254], [88.03428176364062, 24.66251715274219], [88.18670180758593, 24.51734884829883], [88.65543654879687, 24.323218904451174], [88.74261764010546, 24.228484712556643], [88.72954848727343, 24.107759080842776], [88.50229934176562, 23.763539873079104], [88.52015212496875, 23.649343095735354], [88.67818740328906, 23.44705542178516], [88.82471755465625, 22.812898240999026], [89.00561812838671, 22.013837419465823], [89.07225326022265, 21.77433928103809], [88.99476912936328, 21.62947615237598], [89.02553847750781, 21.546960435823244], [88.88093856295703, 21.51488646121387], [88.7234602304375, 21.53995283694629], [88.65697768649218, 21.857440553621096], [88.56759932955859, 21.89536627383594], [88.45388320407031, 21.73631437869434], [88.37705520114062, 21.577336870149416], [88.29957107028125, 21.551770769075198], [88.24792769869921, 21.596122346833987], [88.12160781344531, 21.86265143008594], [88.05304244479296, 21.93874128909473], [87.86748794039843, 21.696960054353518], [87.64071944674609, 21.563081346467776], [87.19423964938281, 21.384255968049807], [86.93719771823046, 21.288428865388674], [86.81869796237109, 21.186534486726565], [86.7961912485039, 21.13566931338672], [86.84421065768359, 20.875316225007815], [86.92611220797656, 20.69125898929004], [86.77521041354296, 20.46860083194141], [86.63785079440234, 20.31910666079883], [86.63238051852343, 20.20364721866016], [86.38562301119921, 20.01674421878223], [86.11916640719531, 19.806542955354494], [85.90894607028125, 19.723508439973635], [85.71477797946093, 19.697682939485354], [85.37910750826953, 19.60537489505176], [85.1132078500664, 19.442306123689455], [84.90661910494921, 19.18141134829883], [84.65877059420703, 18.933131776765627], [84.26272872408984, 18.455840669587893], [83.98768142184375, 18.20749434085254], [83.68471816500781, 18.08344992251758], [83.3813963266289, 17.71067961306934], [83.0769758554375, 17.500392518953127], [82.74959090670703, 17.33451994510059], [82.54642013033984, 17.226087175325198], [82.35399917086718, 17.085914216951174], [82.26742080172656, 16.857019029573244], [82.23458388766406, 16.647302232698244], [82.08141616305468, 16.46274145694141], [81.78898147067187, 16.32870253177051], [81.59676650485156, 16.30287703128223], [81.36909774264453, 16.34686430545215], [81.2531004281914, 16.22591169925098], [81.08790114840625, 15.826792322114748], [80.96311477145312, 15.723398767427248], [80.73596480807421, 15.837270341829104], [80.45975783785937, 15.773146234468264], [80.3002195688164, 15.64574297519092], [80.16343215426562, 15.391318880037112], [80.0894041391289, 15.175155244783205], [80.08706954440234, 14.946433626130862], [80.16166213473437, 14.254099451020998], [80.16971877535937, 13.89198549838428], [80.07589248141406, 13.669416986421389], [80.17812636813281, 13.52351626010303], [80.31988051852343, 13.333213411287112], [80.31345656832812, 13.104481302217287], [80.22375777682421, 12.831091485933108], [79.92280868014453, 12.106162630037112], [79.76935103854296, 11.730975709871096], [79.71073440035937, 11.444942079500002], [79.73182967623828, 11.152719102815432], [79.82626632174609, 10.358728013948244], [79.78994277438281, 10.250633798555178], [79.50091842135546, 10.250013910249514], [79.30626967867968, 10.255945764497561], [79.2224836679375, 10.192222200349612], [79.07228377780078, 9.759851060823244], [78.92660811862109, 9.492679201082034], [78.93772414645312, 9.435519777253909], [79.15964797457812, 9.277156434968752], [78.79764846285937, 9.130231462434573], [78.66012862643359, 9.123585306123537], [78.31383803805468, 8.995764337495608], [78.18113234957812, 8.81121214480762], [78.13577559908984, 8.499774537996096], [78.06494430026171, 8.385257326082034], [77.89976027926562, 8.257814966157717], [77.66318038424609, 8.142932496980471], [77.61860946139453, 8.117421709016604], [77.58883956393359, 8.09830530734424], [77.48439315280078, 8.028187356904787], [77.41947463473437, 8.028042398408694], [77.34137252291796, 8.053283296541018], [76.70353225192187, 8.706356607393069], [76.66238692721484, 8.884175859407229], [76.53785994967578, 9.11899908633594], [76.38528731783984, 9.747702203706545], [76.07506087741015, 10.553955636934084], [75.65175155123828, 11.423489175752444], [75.21094039401171, 12.102367959932131], [74.9617414804375, 12.876961313203616], [74.73362258395312, 13.683358751252932], [74.40150741061328, 14.419635377839846], [74.03218368014453, 15.058832727388186], [73.84143355807421, 15.390475831941409], [73.57273391207812, 16.037927232698244], [73.40928939303515, 16.558538042024416], [73.06422713717578, 18.031716905549807], [72.85335067233203, 19.244680009797854], [72.78251174410937, 19.94968756289844], [72.75949386080859, 20.057649217561526], [72.86443618258593, 20.311982713655276], [73.10968306979296, 20.687320314363284], [73.1128645273125, 20.827090822175784], [72.93113234957812, 20.95375784488086], [72.76573470553515, 21.150355897859377], [72.71466353854296, 21.436120592073244], [72.6659422250664, 21.848943315461916], [72.69562056979296, 22.128535829500002], [72.31904891451953, 22.11503180117969], [72.2329817148125, 22.01955183596973], [72.12713912448046, 21.8287425860918], [72.13103774508593, 21.746179185823244], [72.25569442233203, 21.632083497957034], [72.28899672946093, 21.549569688752932], [72.25619796237109, 21.352563463166994], [72.12086013278125, 21.155339799836916], [71.89442733248828, 20.989677034333987], [71.52892592867968, 20.823730073884768], [71.30259231051562, 20.772426210359377], [71.02444747408984, 20.657476030305666], [70.8550520273125, 20.650762163118166], [70.467478785125, 20.77700003238086], [70.20994857272265, 20.94797857852344], [69.75222304782031, 21.398070894197268], [69.12606337985156, 21.9685073718584], [68.89417556246875, 22.285655580476565], [69.0142317148125, 22.30496748538379], [69.49224379977343, 22.248809419587893], [69.76916793307421, 22.287507615999026], [69.96852401217578, 22.351457200959963], [70.17620376071093, 22.478955827668948], [70.41056350192187, 22.752622209504885], [70.38064864596484, 22.860560975984377], [70.31022170504687, 22.828643403962893], [70.0459471078789, 22.777261339143557], [69.66488936862109, 22.789163194612307], [69.39181807955859, 22.83940466494922], [69.10719588717578, 22.898904405549807], [68.88241103610156, 22.997148118928713], [68.79081252535937, 23.028724275544924], [68.37294295748828, 23.326415620759768], [68.07217696627734, 23.675187669709963], [68.04699996432421, 23.764070115999026], [68.21361068209765, 23.78019293399219], [68.34683516940234, 23.974343858674807], [68.73662856539843, 23.98178442569141], [68.72971633395312, 24.309152208284182], [68.84617904147265, 24.28561934085254], [69.22183516940234, 24.281446062043948], [69.5977049203789, 24.271951280549807], [69.70073989352343, 24.20499189944629], [70.03158858737109, 24.160350404695315], [70.12162307223437, 24.309152208284182], [70.47249892672656, 24.405879579500002], [70.55507949313281, 24.37807997317676], [70.62012008151171, 24.227311693147463], [70.86742690524218, 24.264508806184573], [70.93518355807421, 24.376115404084963], [71.07779220065234, 24.405879579500002], [70.96929458102343, 24.614205919221682], [71.07409957369921, 24.681169115022463], [70.77940658053515, 25.281207643464846], [70.68247512301562, 25.509259782747073], [70.63199904879687, 25.70792730899219], [70.3903074594414, 25.663287721589846], [70.24176314791796, 25.70792730899219], [70.0562010141289, 25.89300688357715], [70.12540725192187, 26.22360762210254], [70.17682174166796, 26.53379973025684], [69.98595717867968, 26.54029806704883], [69.75894454440234, 26.57844503970508], [69.51548293551562, 26.651887498811526], [69.46309951266406, 26.82303389163379], [69.49874404391406, 26.94388350100879], [69.58228591403125, 27.18854483218555], [70.02317336520312, 27.590322099641604], [70.08770278414843, 27.791207872346682], [70.32867721041796, 27.999541841462893], [70.51043227633593, 28.03673704715137], [70.6034422250664, 27.977218233064455], [70.67491439303515, 27.744340501741213], [70.83761886080859, 27.701928697541994], [71.24001601657031, 27.84328993411426], [71.57028487643359, 27.83837278933887], [71.88997176608203, 27.95489653201465], [71.9242430063164, 28.12602385135059], [72.17764571627734, 28.400582872346682], [72.30265334567187, 28.617164216951174], [72.38216689547656, 28.780770860627932], [72.91933730563281, 29.003978334382815], [73.13401320895312, 29.250440202668948], [73.36312392672656, 29.79770239444141], [73.52152541598437, 30.008096300081057], [73.79587081393359, 30.06793364138965], [73.95731643160937, 30.19441946597461], [73.83987716158984, 30.365550600007815], [74.52009871920703, 31.042111955598635], [74.62667373141406, 31.481593690828127], [74.542429957, 31.651568971589846], [74.5281248422539, 31.8164077624834], [74.76049331149218, 31.92800673098926], [75.04944137057421, 32.016219697908205], [75.27630904635546, 32.10636480899219], [75.36656478366015, 32.221114717439455], [75.36138442477343, 32.316279970125], [75.06043532809375, 32.486033998445315], [74.74466994723437, 32.46371420474414], [74.65996840914843, 32.57531698794727], [74.6775617929375, 32.76876410098438], [74.32528975924609, 32.767379365876955], [74.32687667330859, 33.00685080142383], [74.05373671969531, 33.14077719302539], [74.01391890963671, 33.252383790925784], [74.11049178561328, 33.311900697664065], [74.16263869723437, 33.52767141909961], [73.98794845065234, 33.631839357332034], [74.05018142184375, 33.81784018130664], [74.22317031344531, 33.86248358340625], [74.22410109957812, 34.01872976870899], [73.95493606051562, 34.01129110904102], [73.90973189791796, 34.10057791324024], [74.00055221041796, 34.16753729434375], [73.97976211032031, 34.308902345613284], [73.82828811129687, 34.308902345613284], [73.78785232028125, 34.3833080157793], [73.95901015719531, 34.65859945865039], [74.04361828283035, 34.68366288104338], [74.2179699785676, 35.15656996336596], [74.0597553693382, 35.78942840028354], [74.42892279087346, 35.94764300951294], [73.79606435395588, 36.26407222797173], [74.08755019625781, 36.80492361636524], [74.29262832125781, 36.938758455232424], [74.45376876315234, 36.94058569522266]]]}}]}