{"type": "FeatureCollection", "features": [{"type": "Feature", "properties": {"NAME": "Turkey", "SUBJECTO": "Turkey", "BORDERPRECISION": 1, "DE": "Armenia", "MAPA": "world_1938.geojson", "MOTIVO": "Anatolia oriental (Erzurum, Van, Kars), turca desde el Tratado de Kars (1921) y Lausana (1923): el mapa la da a la RSS de Armenia (Armenia wilsoniana de Sèvres). Geometría de Turkey en world_1960", "FUENTE": "https://en.wikipedia.org/wiki/Treaty_of_Kars", "AREA_KM2": 147892}, "geometry": {"type": "Polygon", "coordinates": [[[41.356782173498786, 37.82924506718273], [40.86165401149918, 38.05558936981112], [40.196767622528284, 38.26778715352524], [39.35078980078583, 39.07146608418057], [39.347976487671815, 39.07413873163889], [38.87874702483161, 40.97887310348781], [39.13864425143359, 41.0443187579668], [39.3701773019707, 41.06399878116016], [39.66300490817187, 41.0004955157793], [40.00671294650195, 40.95632895083789], [40.36101439913867, 40.963443361238284], [40.609892878142574, 41.028026185945315], [41.29311660250781, 41.28582342715625], [41.48396209200976, 41.436542116121096], [42.02903655490039, 41.39981039615039], [42.25010970553515, 41.368968568757815], [42.35151961764453, 41.40158041568164], [42.69377807101367, 41.5637164935625], [42.87842467745898, 41.54550512881641], [43.47533706149218, 41.08736761660938], [43.489268335906246, 41.07472952456836], [43.84727004489062, 40.74996527285938], [43.85885909518359, 40.66039236636524], [43.66971877535937, 40.2945514545], [43.68453124484179, 40.109115205720705], [43.81239226779101, 40.01388128848438], [44.44808104952929, 39.95989187808399], [44.669585260955074, 39.75698813052539], [44.637278589812496, 39.66220434756641], [44.45294860324023, 39.67275198550586], [44.34892943820117, 39.609481416658205], [44.344885859099605, 39.41442068667774], [44.08210662325976, 39.29454763980274], [44.06482604464648, 39.173289857820315], [44.18318465670703, 38.871539674714846], [44.12827971896289, 38.702918611482424], [44.229075464812496, 38.481631837800784], [44.26924041232226, 38.42894323916797], [44.31755736788867, 38.476363740876955], [44.44704345187304, 38.384933076814455], [44.46447661837695, 38.29198034854297], [44.361460718718746, 38.16555746646289], [44.23192122897265, 37.92491491885547], [44.20520690402148, 37.8674274310625], [41.356782173498786, 37.82924506718273]]]}}]}