{"type": "FeatureCollection", "features": [{"type": "Feature", "properties": {"NAME": "Turkey", "SUBJECTO": "Turkey", "BORDERPRECISION": 1, "DE": "Armenia", "MAPA": "world_1930.geojson", "MOTIVO": "Tratado de Lausana (24-7-1923) y República de Turquía (29-10-1923): Anatolia y Tracia oriental enteras; el mapa conserva Sèvres (1920, nunca ratificado). Geometría de Turkey en world_1938", "FUENTE": "https://en.wikipedia.org/wiki/Treaty_of_Lausanne", "AREA_KM2": 147892}, "geometry": {"type": "Polygon", "coordinates": [[[41.35678217349879, 37.82924506718273], [40.86165401149919, 38.05558936981113], [40.19676762252829, 38.26778715352524], [39.35078980078584, 39.07146608418057], [39.34797648767182, 39.07413873163889], [38.87874702483161, 40.97887310348781], [39.13864425143359, 41.0443187579668], [39.3701773019707, 41.06399878116016], [39.66300490817187, 41.0004955157793], [40.00671294650195, 40.95632895083789], [40.36101439913867, 40.963443361238284], [40.609892878142574, 41.028026185945315], [41.29311660250781, 41.28582342715625], [41.48396209200976, 41.436542116121096], [42.02903655490039, 41.39981039615039], [42.25010970553515, 41.368968568757815], [42.35151961764453, 41.40158041568164], [42.69377807101367, 41.5637164935625], [42.87842467745898, 41.54550512881641], [43.47533706149218, 41.08736761660938], [43.489268335906246, 41.07472952456836], [43.84727004489062, 40.74996527285938], [43.85885909518359, 40.66039236636524], [43.66971877535937, 40.2945514545], [43.68453124484179, 40.109115205720705], [43.81239226779101, 40.01388128848438], [44.44808104952929, 39.95989187808399], [44.669585260955074, 39.75698813052539], [44.637278589812496, 39.66220434756641], [44.45294860324023, 39.67275198550586], [44.34892943820117, 39.609481416658205], [44.344885859099605, 39.41442068667774], [44.08210662325976, 39.29454763980274], [44.06482604464648, 39.173289857820315], [44.18318465670703, 38.871539674714846], [44.12827971896289, 38.702918611482424], [44.229075464812496, 38.481631837800784], [44.26924041232226, 38.42894323916797], [44.31755736788867, 38.476363740876955], [44.44704345187304, 38.384933076814455], [44.46447661837695, 38.29198034854297], [44.361460718718746, 38.16555746646289], [44.23192122897265, 37.92491491885547], [44.20520690402148, 37.8674274310625], [41.35678217349879, 37.82924506718273]]]}}, {"type": "Feature", "properties": {"NAME": "Turkey", "SUBJECTO": "Turkey", "BORDERPRECISION": 1, "DE": null, "MAPA": "world_1930.geojson", "MOTIVO": "Tratado de Lausana (24-7-1923) y República de Turquía (29-10-1923): Anatolia y Tracia oriental enteras; el mapa conserva Sèvres (1920, nunca ratificado). Geometría de Turkey en world_1938", "FUENTE": "https://en.wikipedia.org/wiki/Treaty_of_Lausanne", "AREA_KM2": 14497}, "geometry": {"type": "Polygon", "coordinates": [[[27.03391755193366, 41.31907451527899], [28.07004130722517, 41.6247813652632], [28.104397806731445, 41.59297140689258], [28.37145713290332, 41.43312796206836], [28.740222010222656, 41.32482870669727], [29.01236823519824, 41.254832826570315], [29.081099543181637, 41.200511537507815], [28.96445373019336, 40.98923834414844], [28.827807459441406, 40.91469915957813], [28.59615043124317, 40.94698675723438], [28.17331412753223, 41.05789526553516], [28.173314127532226, 41.05789526553516], [28.026368174163085, 41.02620657534961], [27.972351878546558, 40.98683090550327], [27.93218329867481, 40.9575496539629], [27.47416976412891, 40.96283300967579], [27.31304648837207, 40.789912782625], [27.26375678500293, 40.66717108340625], [26.88892653903125, 40.5246768817461], [26.61357215365528, 40.39804037661915], [26.613572153655273, 40.39804037661914], [26.51393989047168, 40.28197439761524], [26.37586310824512, 40.2134090289629], [26.25515845736621, 40.0815616473711], [26.14088538607715, 40.04465445132618], [26.156283411589847, 40.06899041348765], [26.21428969821094, 40.16066702456836], [26.220994173171974, 40.21054771698028], [26.22279647311328, 40.223956666902346], [26.22279647311328, 40.22395666690235], [26.19482139071582, 40.30307348819141], [26.457545313445312, 40.434974275544924], [26.52417324565601, 40.47761594663298], [26.55647757968067, 40.49829062075977], [26.45483878573535, 40.58430822940235], [26.41806128939746, 40.57782324405079], [26.12404159030078, 40.60284765811329], [26.02981438301413, 40.66347398045036], [27.03391755193366, 41.31907451527899]]]}}, {"type": "Feature", "properties": {"NAME": "Turkey", "SUBJECTO": "Turkey", "BORDERPRECISION": 1, "DE": "Greece", "MAPA": "world_1930.geojson", "MOTIVO": "Tratado de Lausana (24-7-1923) y República de Turquía (29-10-1923): Anatolia y Tracia oriental enteras; el mapa conserva Sèvres (1920, nunca ratificado). Geometría de Turkey en world_1938", "FUENTE": "https://en.wikipedia.org/wiki/Treaty_of_Lausanne", "AREA_KM2": 35537}, "geometry": {"type": "MultiPolygon", "coordinates": [[[[27.18399270013948, 37.35644841518752], [27.16040709933399, 37.36008032412891], [27.12256148776172, 37.49385031314258], [27.1410856576836, 37.64686544986133], [27.17978385409473, 37.77442892642383], [27.13977340182422, 37.88909109683399], [26.961377176848632, 37.94610556216602], [26.89940935015513, 37.981002458827845], [26.67933181246875, 38.10493811221485], [26.51232055148242, 38.06634863467579], [26.40960533479599, 38.09913078675215], [26.393214258757812, 38.10436209292774], [26.391642971795296, 38.21598468623904], [26.39159873446582, 38.219127260164065], [26.422906858308956, 38.31073540822975], [26.4687109323418, 38.44475897403125], [26.527411493865234, 38.41824301333789], [26.742451700774414, 38.27838858218555], [26.742451700774417, 38.27838858218555], [26.74245170077442, 38.27838858218555], [26.99743178805469, 38.40005835147266], [26.8196745248711, 38.5272518024004], [26.825398132785203, 38.562109004225945], [26.828822168914062, 38.58296164126758], [26.805075594506725, 38.59327260011893], [26.69569686373828, 38.6407657489336], [26.698347599798197, 38.651889884699855], [26.70947173556446, 38.69857367129688], [26.9663801523125, 38.76993139834766], [27.03491309603809, 38.82109793277149], [27.00422004183887, 38.88482626529102], [26.93680289706348, 38.92456396670704], [26.78533652743457, 38.94033392520313], [26.78984740695117, 39.024425111726565], [26.87075141390918, 39.05596884341602], [26.79713920077442, 39.12955816836719], [26.70794394930957, 39.18212851138477], [26.70405486544727, 39.25047262759571], [26.60224250277637, 39.25572928042774], [26.632532280764494, 39.276669805017896], [26.7201586099541, 39.33724936099414], [26.85351279696582, 39.46076925845508], [26.92615226229785, 39.476546846345705], [26.937755327500142, 39.5031001911814], [26.94473127798084, 39.5190644916004], [27.39223195549874, 39.65463710848567], [27.51285001852148, 39.5638428867787], [28.36274002728768, 38.92409540660316], [28.38932928952847, 38.00809181283531], [27.18399270013948, 37.35644841518752]]], [[[26.0207243295586, 40.66932257266407], [26.0207243295586, 40.66932257266408], [26.167601618376953, 40.91526373477344], [26.341559443083984, 41.16616400332813], [26.646456751433593, 41.4499584064043], [26.58956244906543, 41.55226095767383], [26.39710524996875, 41.641009889558596], [26.34987548312305, 41.6407543048418], [26.57383635958789, 41.84088095279102], [26.8571215005791, 42.00929983706836], [27.08068564852832, 42.02978476138477], [27.317938837615234, 41.97972830386524], [27.91795257052539, 41.977672182039065], [28.02620223483203, 41.88238485904102], [28.01817801913379, 41.75320776553516], [28.069838556853515, 41.62496908755664], [28.07004130722517, 41.6247813652632], [27.03391755193366, 41.31907451527899], [26.02981438301413, 40.66347398045036], [26.0207243295586, 40.66932257266407]]]]}}, {"type": "Feature", "properties": {"NAME": "Turkey", "SUBJECTO": "Turkey", "BORDERPRECISION": 1, "DE": null, "MAPA": "world_1930.geojson", "MOTIVO": "Tratado de Lausana (24-7-1923) y República de Turquía (29-10-1923): Anatolia y Tracia oriental enteras; el mapa conserva Sèvres (1920, nunca ratificado). Geometría de Turkey en world_1938", "FUENTE": "https://en.wikipedia.org/wiki/Treaty_of_Lausanne", "AREA_KM2": 25151}, "geometry": {"type": "Polygon", "coordinates": [[[30.32059342227628, 40.81679599165823], [29.59515595539886, 40.17507684515804], [28.55605946844283, 40.03745644503963], [28.05545194406718, 39.97115479868465], [27.51285001852148, 39.5638428867787], [27.39223195549874, 39.65463710848567], [26.94473127798084, 39.5190644916004], [26.95751861056446, 39.54832800479297], [26.8042650552666, 39.56715353579883], [26.546177897063476, 39.51334723086719], [26.138976130095706, 39.43973883242969], [26.06405738314746, 39.45551260562305], [26.08488753756641, 39.604007326082034], [26.14190391024707, 39.66058310122852], [26.14070609530567, 39.74998053164844], [26.131313177328437, 39.8419612676567], [26.127575907317382, 39.878558717683596], [26.185573537151527, 39.996310792878916], [26.186009440032226, 39.997195802644534], [26.320334467498046, 39.99192389102344], [26.32033446749805, 39.99192389102344], [26.363954045904325, 40.08925123201362], [26.40305236300586, 40.176490388826174], [26.476768975575634, 40.186375278921005], [26.48171142062305, 40.18703802676563], [26.76528266390918, 40.37694128604297], [26.996474299041015, 40.371661745027346], [27.01708318784802, 40.391711820196555], [27.0561247201836, 40.4296947345293], [27.07453498283381, 40.43149745900598], [27.271754297820312, 40.450809083894534], [27.32923415621875, 40.35583456607227], [27.44961074313281, 40.30979498477344], [27.45467945683727, 40.3089550720673], [27.525994333831054, 40.297137819246096], [27.76389411410449, 40.28725393863086], [27.830164942351562, 40.34528311343555], [27.79984382113574, 40.40331991763477], [27.6792879434502, 40.46135290713672], [27.697419178453057, 40.467307691769676], [27.80783179720996, 40.50357016177539], [27.953805002776367, 40.48773916812305], [28.006459269133785, 40.450809083894534], [27.90821746310352, 40.35055502505665], [27.908217463103522, 40.35055502505665], [27.908217463103515, 40.35055502505664], [28.00399116000293, 40.36212881656055], [28.47771933993457, 40.39510305972461], [28.75644019564746, 40.37645300479297], [28.926756891814453, 40.35583456607227], [29.052424463835937, 40.33473166079883], [29.05242446383594, 40.33473166079883], [29.1222868295586, 40.41387137027149], [29.08352759799121, 40.45607718081836], [28.87321570834278, 40.47190817447071], [28.777958902922858, 40.5246768817461], [28.90162185153125, 40.62010534854297], [29.52519706210254, 40.68828924746875], [29.713147196379882, 40.693561159089846], [29.882718119231445, 40.746356569246096], [29.882718119231427, 40.746356569246096], [29.88271811923145, 40.7463565692461], [29.68344596346973, 40.75163611026172], [29.683445963469726, 40.75163611026172], [29.678267233531862, 40.75143067340894], [29.41717246493457, 40.74107321353321], [29.32035544833301, 40.74107321353321], [29.28964332064746, 40.80668600650196], [29.01453307589649, 40.97867163272266], [29.16120818575977, 41.21636541934375], [29.577780756560546, 41.153365694001955], [30.13762381991504, 41.13183554263477], [30.25608733615039, 41.18466528506641], [30.30467947850868, 41.17031383005895], [30.32059342227628, 40.81679599165823]]]}}, {"type": "Feature", "properties": {"NAME": "Turkey", "SUBJECTO": "Turkey", "BORDERPRECISION": 1, "DE": "Ottoman Sultanate", "MAPA": "world_1930.geojson", "MOTIVO": "Tratado de Lausana (24-7-1923) y República de Turquía (29-10-1923): Anatolia y Tracia oriental enteras; el mapa conserva Sèvres (1920, nunca ratificado). Geometría de Turkey en world_1938", "FUENTE": "https://en.wikipedia.org/wiki/Treaty_of_Lausanne", "AREA_KM2": 249115}, "geometry": {"type": "Polygon", "coordinates": [[[29.31366959336815, 39.52800210612833], [28.55605946844283, 40.03745644503963], [29.59515595539886, 40.17507684515804], [30.32059342227628, 40.81679599165823], [30.30467947850868, 41.17031383005895], [30.744805368987304, 41.04032476992969], [30.74480536898731, 41.04032476992969], [31.21768287142871, 41.05409201236133], [31.404126200286132, 41.16353949160938], [31.39797309359668, 41.20404013247852], [31.38566688021778, 41.2850414142168], [31.495438608733405, 41.32796589746191], [31.666388544646484, 41.394813142732424], [31.871287378875, 41.49144323916797], [32.41898253878711, 41.74916800113086], [32.68791106661914, 41.84597357364063], [33.15546325167773, 41.94960745425586], [33.55554107150195, 41.982501588777346], [33.8966551156914, 41.95108374209766], [34.30390075167773, 41.89411886783008], [34.66290954074023, 41.87558325381641], [35.001868280974605, 42.043162904695315], [35.09883025607226, 41.80586203189258], [35.286074671355465, 41.67147787661914], [35.4114370675957, 41.626815401033205], [35.67785552462695, 41.62093313784961], [35.957793268767574, 41.685645662263674], [36.16136840304492, 41.35250052066211], [36.38289550265429, 41.23751791568164], [36.563780817595706, 41.29175546592919], [36.64124587496875, 41.31498297305469], [36.81701186617968, 41.289683900789065], [37.25282576998828, 41.027721010164065], [37.821841272917965, 41.00963171573047], [38.31396392306445, 40.920901857332034], [38.6511831613457, 40.92156942935352], [38.87874702483161, 40.97887310348781], [39.34797648767182, 39.07413873163889], [39.35078980078584, 39.07146608418057], [36.93394489858057, 38.72535527429905], [36.73979464590442, 38.32942047428863], [34.74758476056047, 38.28344712268784], [33.21722257781126, 38.31053118669922], [29.31366959336815, 39.52800210612833]]]}}, {"type": "Feature", "properties": {"NAME": "Turkey", "SUBJECTO": "Turkey", "BORDERPRECISION": 1, "DE": "Italy", "MAPA": "world_1930.geojson", "MOTIVO": "Tratado de Lausana (24-7-1923) y República de Turquía (29-10-1923): Anatolia y Tracia oriental enteras; el mapa conserva Sèvres (1920, nunca ratificado). Geometría de Turkey en world_1938", "FUENTE": "https://en.wikipedia.org/wiki/Treaty_of_Lausanne", "AREA_KM2": 199762}, "geometry": {"type": "Polygon", "coordinates": [[[36.73979464590442, 38.32942047428863], [35.96168002345125, 36.74259453314459], [35.95679381808398, 36.74749334903125], [35.89087584933398, 36.7711139545], [35.67174056491015, 36.60578497500782], [35.56761458834765, 36.58741720767383], [35.50617125949023, 36.55855520816211], [35.54760268649218, 36.54018362613086], [35.4945898385918, 36.44309958072071], [35.427577051726566, 36.434026238036076], [35.41708281954883, 36.43260534854297], [35.38869765719531, 36.45359381289844], [35.35417846163867, 36.41423758120899], [35.22052672824023, 36.38800390811329], [35.0713720651543, 36.48770865054493], [34.86991027316211, 36.5769229754961], [34.66238311251758, 36.64777334781055], [34.662383112517574, 36.64777334781055], [34.64139083346485, 36.64528721791714], [34.48512938937305, 36.62678106875782], [34.34967711886524, 36.53936994314529], [34.103220972624996, 36.38032492251758], [33.95171264132617, 36.25157888980274], [33.95405486544726, 36.15975912661915], [33.89098266085742, 36.13877447696094], [33.8358755441582, 36.107295595125], [33.83369735201953, 36.07057150454883], [33.75317672213672, 36.14664038272266], [33.753176722136715, 36.14664038272266], [33.481699976531246, 36.05428274722461], [33.171336207, 35.97088202090625], [32.90411666354297, 35.97669561953907], [32.6403417917168, 36.00799902530079], [32.33497909030078, 36.12836798282032], [31.90200713595508, 36.49686392398243], [31.37069037875293, 36.71234472842579], [30.90531066378711, 36.79421576114063], [30.59359076937793, 36.76173361392383], [30.540066752043945, 36.64696081729297], [30.496651682463867, 36.37298163028125], [30.472832712737304, 36.18825491519336], [30.442965142647157, 36.16136029313758], [30.39486220797656, 36.11804541201954], [30.280132529171855, 36.11780558688674], [30.27989295443653, 36.1178050860918], [30.16613105258106, 36.18761786075], [30.166131052581058, 36.18761786075], [30.166131052581054, 36.18761786075], [30.067542774911928, 36.16625040974061], [29.66195586642383, 36.07834585757618], [29.47193244418262, 36.090694032625], [29.29818824252246, 36.17311819644336], [29.00225165804981, 36.69479712100391], [29.002251658049808, 36.6947971210039], [29.002251658049804, 36.69479712100391], [28.81352714022754, 36.53515585513477], [28.46984580477832, 36.73830755801563], [28.266922983733398, 36.7124095782793], [28.174300226775394, 36.64452000881946], [28.01418975314258, 36.52716406436329], [27.911902460662112, 36.69894369693165], [27.927199434906267, 36.72825575430271], [27.9418554635918, 36.75633963199024], [28.05103972872852, 36.8330150470293], [27.99880889376758, 36.90936621280079], [27.55347732028125, 36.9148250445879], [27.30811027011035, 36.92070730777149], [27.26863006075977, 37.04168280215625], [27.30682691298881, 37.0550184067802], [27.52563956698535, 37.131412111238284], [27.525639566985348, 37.13141211123829], [27.52563956698535, 37.13141211123829], [27.49252418002246, 37.23967321963672], [27.36463263949512, 37.3286319598711], [27.18399270013948, 37.35644841518752], [28.38932928952847, 38.00809181283531], [28.36274002728768, 38.92409540660316], [27.51285001852148, 39.5638428867787], [28.05545194406718, 39.97115479868465], [28.55605946844283, 40.03745644503963], [29.31366959336815, 39.52800210612833], [33.21722257781126, 38.31053118669922], [34.74758476056047, 38.28344712268784], [36.73979464590442, 38.32942047428863]]]}}, {"type": "Feature", "properties": {"NAME": "Ireland", "SUBJECTO": "Ireland", "BORDERPRECISION": 1, "DE": "United Kingdom of Great Britain and Ireland", "MAPA": "world_1930.geojson", "MOTIVO": "Estado Libre Irlandés (6-12-1922); geometría de world_1938", "FUENTE": "https://es.wikipedia.org/wiki/Estado_Libre_Irland%C3%A9s", "AREA_KM2": 67844}, "geometry": {"type": "Polygon", "coordinates": [[[-6.33498045483472, 53.78598364444141], [-6.28072481035433, 53.67038814476693], [-6.172213521393555, 53.43919714541797], [-6.043061223419922, 52.89308889956836], [-6.070682969483155, 52.766604982332034], [-6.232112851532715, 52.61333426089649], [-6.340896096619385, 52.42706259341602], [-6.405971017273682, 52.21443899722461], [-6.4392426160896, 52.20640677066211], [-6.489150014313479, 52.19435843081836], [-6.5849034456336675, 52.214088045076174], [-6.61682125607373, 52.22066458316211], [-6.616821256073731, 52.22066458316211], [-6.618573155792968, 52.22057596761399], [-6.89389702359082, 52.20664938540821], [-6.923603801643151, 52.16481789508686], [-6.961679425629395, 52.111201845125], [-7.372407880219239, 52.092113100007815], [-7.750648942383545, 52.03270681949024], [-7.86164948025586, 51.96809347720508], [-8.15881392041089, 51.83964499087696], [-8.56523129025342, 51.61545141787891], [-8.84775730648877, 51.59982260318164], [-9.243309941681641, 51.47262915225391], [-9.25298856358482, 51.47198915804939], [-9.81910988369824, 51.43455465884571], [-9.810525913127295, 51.49572809787159], [-9.795244183930176, 51.604632936433596], [-9.835420575531739, 51.80326422305469], [-9.83542057553174, 51.80326422305469], [-9.962582873098471, 51.78829280785287], [-10.21690746823193, 51.75834997744922], [-10.268323229543784, 51.904534262930994], [-10.294031110199708, 51.97762640567188], [-10.26769210618319, 51.98675708394174], [-9.96377464810254, 52.09211310000781], [-9.963774648102559, 52.09211310000781], [-9.96377464810254, 52.092113100007815], [-10.497328725250977, 52.10165365786914], [-10.483032128645863, 52.15508922616886], [-10.469237294586911, 52.206649385408205], [-9.890640225800293, 52.19443091006641], [-9.89064022580029, 52.19443091006641], [-9.80160614529492, 52.241084657625], [-9.795738505117514, 52.27429159732227], [-9.784003224762696, 52.3407054767168], [-9.735718694123047, 52.48028143496875], [-9.619853463562745, 52.51041563601856], [-9.50398823300244, 52.54054983706836], [-9.19263454953076, 52.55445822329883], [-9.163461652191895, 52.6176772937334], [-9.134288754853028, 52.68089636416797], [-9.13428875485303, 52.68089636416797], [-9.144640409239589, 52.67994459255903], [-9.615690198334462, 52.636634431794924], [-9.44156452694775, 52.83327826114063], [-9.52575680294873, 52.90455587954883], [-9.30934998074414, 53.11526831241016], [-8.9969987539375, 53.12044485659961], [-8.92358299771191, 53.16057547183399], [-9.00167080441357, 53.30037649722461], [-9.001670804413573, 53.30037649722461], [-9.001670804413575, 53.30037649722461], [-9.095563855561036, 53.25256994815235], [-9.158159222992678, 53.2206989154375], [-9.177465034716976, 53.228896233831506], [-9.29735943356396, 53.2798038348711], [-9.43370227614124, 53.26686883541159], [-9.44066521206738, 53.26620825381641], [-9.61670395413281, 53.34587820620899], [-9.616703954132813, 53.34587820620899], [-9.802919354828614, 53.34535177798633], [-9.857515937877116, 53.313382071768885], [-9.88481422940137, 53.29739721866016], [-10.159825292023434, 53.374122224763674], [-10.02107330838086, 53.51185568423633], [-10.15142532864452, 53.575641237214846], [-9.80959984341504, 53.63241537661914], [-9.872389760407227, 53.767718873933596], [-9.696483579071778, 53.8734203204668], [-9.912850346955079, 53.96955832095508], [-9.91285034695508, 53.96955832095508], [-9.97927209416272, 53.955136857942385], [-10.17853733578564, 53.9118724689043], [-10.15967556515576, 54.13307150454883], [-9.98878761807324, 54.25371512027149], [-9.940381017121094, 54.289649568513674], [-9.891974416168946, 54.32558401675586], [-9.4742936758125, 54.24130972476367], [-9.39859959164502, 54.258189760164065], [-9.32290550747754, 54.275069795564455], [-9.20437523404004, 54.26662977786426], [-9.08584496060254, 54.25818976016406], [-8.60354434583559, 54.20435236327482], [-8.590084996613282, 54.20284994693164], [-8.59008499661328, 54.20284994693164], [-8.61206384454077, 54.239523507180174], [-8.686731305512204, 54.36411245913867], [-8.30057999173047, 54.48934897036914], [-8.21147915402295, 54.6339183673418], [-8.82935806790234, 54.6339183673418], [-8.76004215756299, 54.70142706485156], [-8.50373932400586, 54.74964483828906], [-8.47625347653271, 54.87985190005664], [-8.397729840668458, 55.00911062808399], [-8.345380750092286, 55.09528311343555], [-8.11831804791333, 55.176631532625], [-7.756225076111573, 55.25272711367969], [-7.657281365784424, 55.1168285235918], [-7.497830834778565, 55.04973944278125], [-7.427515473755616, 55.06380423159961], [-7.414515462311524, 54.95790060611133], [-7.587795701416749, 54.739993654207034], [-7.955719437989014, 54.691775880769534], [-7.738254037293213, 54.57607611270313], [-8.125245538147706, 54.45079763980274], [-8.080057588013428, 54.32558401675586], [-7.899549451264161, 54.20043905825977], [-7.549550977143067, 54.113833986238284], [-7.211673226746338, 54.229312501863284], [-7.097825971039551, 54.39300497622852], [-6.947142568024415, 54.34484823794727], [-6.829872098358887, 54.229312501863284], [-6.666179623993653, 54.161937318757815], [-6.721553292664307, 54.04649695010547], [-6.286373105438965, 54.079043947175784], [-6.206393208893555, 53.95674856753711], [-6.343146768006104, 53.93964346499805], [-6.443396058472413, 53.89937933535938], [-6.389188256653565, 53.84268148990039], [-6.33498045483472, 53.78598364444141]]]}}]}