{"type": "FeatureCollection", "features": [{"type": "Feature", "properties": {"NAME": "North Vietnam", "SUBJECTO": "North Vietnam", "BORDERPRECISION": 2, "DE": "Vietnam", "MAPA": "world_1960.geojson", "MOTIVO": "Acuerdos de Ginebra (1954): dos Vietnam separados por el paralelo 17 (río Ben Hai) hasta la reunificación de 1976", "FUENTE": "https://es.wikipedia.org/wiki/Acuerdos_de_Ginebra_(1954)", "AREA_KM2": 160892}, "geometry": {"type": "Polygon", "coordinates": [[[102.18545058688281, 22.636575303987307], [102.41698745211718, 22.695058427766604], [102.5703611703789, 22.689601503328127], [102.83884719332812, 22.513383470491213], [102.985056910125, 22.469791017488284], [103.24778274020312, 22.655440889314455], [103.39727309664843, 22.707110963777346], [104.11500075778125, 22.730329118684573], [104.47811416110156, 22.78323134036426], [104.63144210299609, 22.85396345706348], [104.94455245455859, 23.103391252473635], [105.17943099459765, 23.25078161807422], [105.31343368014453, 23.296004854158205], [105.59397414645312, 23.037318788484377], [105.94114211520312, 22.9314037189043], [106.23813918551562, 22.90773542971973], [106.58803084811328, 22.928811632112307], [106.694529566375, 22.834197603181643], [106.71983626803515, 22.662929140046877], [106.5073957773125, 22.325194917634768], [106.55055526217578, 22.09053763003711], [106.67344191989062, 21.92616995425586], [107.09811690768359, 21.649287782625002], [107.37752822360156, 21.574723802522463], [107.78662398776171, 21.526309572175784], [107.87561324557421, 21.462068162874026], [107.78977492770312, 21.402537904695315], [107.41781142672656, 21.185786806062502], [107.46579268893359, 20.976270280793948], [107.3743391366875, 20.88079222293262], [106.80704024752734, 20.905006013826174], [106.74624923190234, 20.815949998811526], [106.77157119235156, 20.638139329866213], [106.64429000338671, 20.466365419343752], [106.38092330416796, 20.11008795352344], [106.28142837008593, 20.046357713655276], [106.0416746469414, 19.937850557283205], [105.96486953219531, 19.880523286775393], [105.84338668307421, 19.702409349397463], [105.70696547946093, 19.282880388215823], [105.53258040866015, 18.84421118350391], [105.65331557711718, 18.742835603669924], [105.86413100680468, 18.489196382478518], [106.36444381198046, 18.007497392610354], [106.375193628875, 17.899535737947268], [106.39383986910937, 17.66453894229297], [106.43306258639453, 17.55027922244434], [106.62225631198046, 17.32835539431934], [107.05513244814861, 17.0], [106.2504527925501, 17.0], [106.16977218112109, 17.129317842439455], [105.41265395602343, 18.083745561555666], [105.09863570651171, 18.431155763582034], [104.81215957125781, 18.721570573762698], [104.52772048434375, 18.935790620759768], [103.9719953866875, 19.269073091462893], [103.89931014498828, 19.313087068513674], [103.88008407076953, 19.535207353547854], [104.00476363619921, 19.70102270694141], [104.1445799203789, 19.746285997346682], [104.3584699960625, 19.715789400056643], [104.48754409274218, 19.7419448718584], [104.60505965670703, 19.825173936799807], [104.71968368014453, 19.97187765689258], [104.71581557711718, 20.200439058259768], [104.32407668551562, 20.63627775760059], [104.12909224948046, 20.939910493806643], [104.01119521578906, 20.977319322541994], [103.83613875826953, 20.900102220491213], [103.60706618746875, 20.68288382144336], [103.47791579684375, 20.65673216433887], [103.26622298678515, 20.744395814851565], [102.99293807467578, 20.939632020906252], [102.84287551364062, 21.249883256868166], [102.69068435153125, 21.668059907869143], [102.44640639742968, 21.939666353181643], [102.17058852633593, 22.198381029084963], [101.96785262545703, 22.533715806916994], [102.18545058688281, 22.636575303987307]]]}}, {"type": "Feature", "properties": {"NAME": "South Vietnam", "SUBJECTO": "South Vietnam", "BORDERPRECISION": 2, "DE": "Vietnam", "MAPA": "world_1960.geojson", "MOTIVO": "República de Vietnam (1955-1975), al sur del paralelo 17", "FUENTE": "https://es.wikipedia.org/wiki/Acuerdos_de_Ginebra_(1954)", "AREA_KM2": 172306}, "geometry": {"type": "Polygon", "coordinates": [[[107.11497024020312, 16.95461042971973], [107.69201949557421, 16.37142714114551], [107.80916884860156, 16.28274305911426], [108.09534743746875, 16.2515884265459], [108.23614791354296, 16.080380998567385], [108.36306289157031, 15.623269639924807], [108.49894240817187, 15.363107286409182], [108.78612044772265, 15.090558610872073], [108.91776565035937, 14.792262636140627], [109.07114699801562, 14.170025430635256], [109.30712417086718, 12.906332574800295], [109.17454055270312, 12.709093652681155], [109.0684309335625, 12.48651274295215], [109.09094527682421, 12.118089281038088], [109.04842666110156, 11.933768831208987], [109.07335189303515, 11.635222040132327], [109.06130507907031, 11.590727411226077], [108.89730361422656, 11.342598520234866], [108.69589522799609, 11.145221315339846], [108.58152297457812, 11.087793909028811], [108.35281661471484, 11.042831026033205], [108.16427901705859, 10.966188989595217], [107.93872359713671, 10.806869111970705], [107.67287734469531, 10.526755891755862], [107.41204360446093, 10.367358766511721], [107.26571944674609, 10.347982011750979], [107.03562453707812, 10.436424814180178], [106.85380080660937, 10.575815759614748], [106.77315810641406, 10.639172159150881], [106.7043943735039, 10.448421083406252], [106.72699264010546, 10.226109109834475], [106.7486067148125, 10.067325197175784], [106.65627578219531, 9.743097864106936], [106.48202804049609, 9.552120767549319], [106.33506301364062, 9.520029626802248], [106.22927382907031, 9.55157621951465], [106.11839583834765, 9.335317216829104], [105.92659285983203, 9.188765130952639], [105.69075301608203, 9.124719224885744], [105.50307754000781, 9.029017053560061], [105.29658797701953, 8.774433694795412], [105.2084226938164, 8.653525911287112], [105.0256834360039, 8.51970537753467], [104.90707686862109, 8.474970422700686], [104.7424803110039, 8.493669115022463], [104.77762130221484, 8.881320558503909], [104.82237533053515, 9.4722972735918], [104.89044478854296, 9.694809518770022], [104.98728469332812, 9.822088800386233], [104.97852614840625, 9.980911813691897], [104.76486495455859, 10.177400194124026], [104.4278059335625, 10.284679017976565], [104.38717940768359, 10.314412675813479], [104.52181533297656, 10.444123826936526], [104.81260207614062, 10.547488771394534], [105.22408584078906, 10.784976564363284], [105.49370864352343, 10.888218484834475], [105.71722701510546, 10.883181177095217], [106.02707961520312, 10.796079240754885], [106.10337356051562, 10.917234979585452], [106.09004500826953, 11.00609739871387], [105.83406356295703, 11.201510988191409], [105.73684981783984, 11.391499124482912], [105.84254744967578, 11.5827070102251], [106.28805068453906, 11.83942373843555], [106.52295211276171, 11.942454896882815], [106.94189742526171, 12.14185007663135], [107.21138289889453, 12.226013742402834], [107.38450149020312, 12.354075990632815], [107.48226455172656, 12.583323083833498], [107.45781997164843, 13.065914712861819], [107.4802961679375, 13.256602846101565], [107.51459029635546, 13.421952806428713], [107.30970290621875, 13.878046594575686], [107.29674819430468, 14.176478944734377], [107.39329055270312, 14.583531938508791], [107.46341231783984, 14.996761880830569], [107.43399337252734, 15.256977640107912], [107.33807662448046, 15.45328577609424], [107.09975722750781, 15.667821489290041], [107.06714156588671, 15.79464491458301], [107.16857436617968, 15.992103181794924], [107.10751632174609, 16.169568620637698], [106.94634536227343, 16.30833014102344], [106.63819411715625, 16.484338365510744], [106.42635634860156, 16.718055330232424], [106.2504527925501, 17.0], [107.05513244814861, 17.0], [107.11497024020312, 16.95461042971973]]]}}, {"type": "Feature", "properties": {"NAME": "China", "SUBJECTO": "China", "BORDERPRECISION": 1, "DE": "Tibet", "MAPA": "world_1960.geojson", "MOTIVO": "el Tíbet se incorpora a la RPC en 1950-1951 (Acuerdo de los Diecisiete Puntos); conflicto liberacion-tibet de la propia aplicación", "FUENTE": "https://es.wikipedia.org/wiki/Anexi%C3%B3n_del_T%C3%ADbet_por_la_Rep%C3%BAblica_Popular_China", "AREA_KM2": 1136113}, "geometry": {"type": "Polygon", "coordinates": [[[93.66897109469531, 28.70051535220508], [93.2955808969414, 28.58414038272266], [93.05136397799609, 28.417733751252932], [92.54606154879687, 27.919770799592776], [92.36727431735156, 27.798141084626955], [92.0460691781914, 27.70109709353809], [91.69296554049609, 27.68637617679004], [91.60775283297656, 27.641450487092776], [91.45962050875781, 27.919879518464846], [91.31903365573046, 28.014272294954104], [91.15224746188281, 28.032367311433596], [90.0, 28.0534683093584], [90.0, 28.14744146914844], [90.0, 28.279931627229494], [89.86340621432421, 28.27251013369922], [89.79632857760546, 28.226445756868166], [89.63973525485156, 28.118888460115237], [89.36553481539843, 27.876128755525393], [88.80257705172656, 27.18099173159961], [88.7072019906914, 27.478784166291994], [88.73070052584765, 27.86612280459766], [88.66831496676562, 27.948281846956057], [88.56406691989062, 27.979426942781252], [88.35230544528125, 27.93377836795215], [88.19726088961718, 27.87575491519336], [87.90232375582812, 27.947461687043948], [87.74962142428515, 27.820973955110354], [87.5965071054375, 27.873056016877932], [87.21436599215625, 27.843293748811526], [87.07065871676562, 28.006982408479494], [86.78721145114062, 28.133468233064455], [86.60393813571093, 28.133468233064455], [86.56804946383593, 27.984662614778323], [86.44574264010546, 27.947461687043948], [86.13785079440234, 28.11858519168262], [86.14223769625781, 27.954904161409182], [86.03566268405078, 27.910255037263674], [85.97204879244921, 28.11858519168262], [85.72918990573046, 28.341794572786135], [85.56481460055468, 28.312036119416994], [85.14416793307421, 28.341794572786135], [85.13804915866015, 28.46083792300586], [85.21659377535937, 28.639407716707034], [85.06985000094531, 28.646850191072268], [84.92027572116015, 28.535241685823244], [84.26696303805468, 28.937020860627932], [84.29831222018359, 29.06350477786426], [84.21853927096484, 29.234632097200198], [84.08839705905078, 29.309030137971682], [83.76889327487109, 29.25694616885547], [83.69781020602343, 29.182548128083987], [83.40201095065234, 29.539681993440432], [83.19741347750781, 29.666164003328127], [83.12975600680468, 29.606641374543948], [82.91757491549609, 29.703366838411135], [82.59117415866015, 29.97121962161426], [82.20093825778125, 30.090262971833987], [82.14168075045703, 30.36555441470508], [81.65574935397265, 30.454833589509768], [81.57261184176562, 30.372994981721682], [81.448679957, 30.40275152774219], [81.38832381686328, 30.17210539431934], [81.2639875741875, 30.03074225039844], [81.12931350192187, 30.05306204409961], [81.02130416354296, 30.246511064485354], [80.63441756686328, 30.514360032991213], [80.56510451754687, 30.484597764924807], [80.22518447360156, 30.596202455476565], [80.27717879733203, 30.759891115144534], [79.79214004000781, 31.020301423982424], [79.6285887094414, 30.968219362214846], [79.28126052340625, 31.347673021272463], [79.10879043063281, 31.45927771182422], [78.89426711520312, 31.31791266055469], [78.80533126315234, 31.347673021272463], [78.76067641696093, 31.54111822696094], [78.85763076266406, 31.637843690828127], [78.73491958102343, 31.80152853579883], [78.78180221041796, 32.002418123201174], [78.52110579928515, 32.2702709064043], [78.45068648776171, 32.5827594623125], [78.80396560153125, 32.67204626651172], [78.81878951510546, 32.50836142154102], [78.97054580172656, 32.38931616397266], [79.13616469821093, 32.41163595767383], [79.30527022799609, 32.53811987491016], [79.56532576998828, 32.70180853457813], [79.40037826022265, 33.01429709048633], [79.44696334323046, 33.20030554385547], [79.14090255221484, 33.244945131257815], [79.12105849703906, 33.3267894610918], [79.07998183688281, 33.36180456729297], [78.75701430758593, 33.40486868472461], [78.62453750094531, 33.50422628970508], [78.60797408541796, 33.75262411685352], [78.57485488375781, 34.017581544832034], [78.65765670260546, 34.100379548982424], [78.80669692477343, 34.19973715396289], [79.83720520687247, 34.50647205116811], [80.4470681468025, 35.424481512339725], [81.69217848547466, 35.257227884756894], [82.58687285875473, 35.749077741967945], [83.15919498239413, 35.38076645509092], [83.52125736060081, 35.39716188179652], [83.5526618461774, 35.33633998592126], [83.894185626823, 35.36835722268628], [83.89026006612593, 35.413160025655664], [84.08653810097974, 35.40356152035473], [84.09831478307095, 35.355551851087746], [84.4790941706873, 35.49629917158538], [84.45554080650486, 35.55380669735774], [85.04830047176331, 35.75475821716659], [85.29040653530996, 35.76100463964198], [86.14060583413259, 35.85601504893767], [86.24796657894365, 36.158577147950666], [88.52206235539614, 36.50017951780404], [89.51380204996416, 36.17842987579359], [89.68372078291482, 36.08609160656327], [89.43943192100569, 36.02650676287062], [89.42109990978267, 35.88901667869797], [89.79690613985457, 35.834020645028914], [89.8152381510776, 35.476546426180036], [89.53109197712078, 35.37572036445343], [89.59525401640136, 34.91742008387794], [89.8335701623006, 34.89908807265492], [89.8244041566891, 34.193305640568674], [89.71605093348751, 34.0416264542208], [90.41952531096003, 33.2414243498458], [92.95203306986112, 32.69623170730459], [95.27570320469631, 32.424812714209594], [95.52630879884, 31.735647330314432], [97.70344489796338, 32.55011551128145], [98.92514716941389, 31.09347049532121], [98.95472929198131, 28.960549849683318], [98.62619093383994, 28.960549849683318], [98.70688456566413, 28.188196516508874], [98.4071653617457, 28.10173905384009], [98.29188874485398, 28.37840293438019], [98.18237595880686, 28.35534761100185], [98.25154192894189, 28.23430716326556], [98.00866225680468, 28.090755067781252], [97.82999709567187, 28.28646048159961], [97.60302260836718, 28.41209562869434], [97.47846511325, 28.392329774812502], [97.34068587741015, 28.23923262210254], [97.34041884860156, 28.18211515994434], [97.0596418710625, 28.21858748050098], [96.73091414889453, 28.299193941072268], [96.4351072641289, 28.3355785235918], [96.30007461032031, 28.36019667239551], [96.2545652719414, 28.385312639192385], [96.31656936129687, 28.50626143069629], [96.47584060153125, 28.710242830232424], [96.45532515963671, 28.881480775789065], [96.13341811617968, 29.203286729768557], [95.92862990817187, 29.37979658694629], [95.30896285494921, 29.001842103914065], [95.13930800875781, 28.981837831453127], [94.70051864108203, 29.125276170686526], [94.57171157321093, 29.200709901765627], [94.41172316989062, 29.16170462222461], [94.16620162448046, 29.027028642610354], [93.9898966428631, 28.9112555429827], [93.66897109469531, 28.70051535220508]]]}}, {"type": "Feature", "properties": {"NAME": "East Pakistan", "SUBJECTO": "Pakistan", "BORDERPRECISION": 1, "DE": "Pakistan", "MAPA": "world_1960.geojson", "MOTIVO": "Pakistán Oriental hasta el 16-12-1971 (NAME explícito para distinguirlo del Pakistán occidental)", "FUENTE": "https://es.wikipedia.org/wiki/Guerra_de_Liberaci%C3%B3n_de_Banglad%C3%A9s", "AREA_KM2": 139144}, "geometry": {"type": "Polygon", "coordinates": [[[91.94604781588671, 21.362578950837893], [91.84590438326953, 21.908670030549807], [91.57107070407031, 22.543313585237307], [91.41017440280078, 22.720834337190432], [91.08137801608203, 22.561330400422854], [90.73717346435909, 22.009803718574947], [90.35263157024916, 21.86606025107508], [90.11157545752351, 21.83409755819119], [90.0, 22.134809099153323], [90.0, 22.05844648929004], [90.0, 22.0199046954668], [90.0, 21.930253587678713], [89.90268996676562, 22.107825838044924], [89.86968520602343, 22.13322790713672], [89.796336207, 21.832069002107424], [89.67017653903125, 21.719838701204104], [89.57895186862109, 21.70058210940723], [89.4566145273125, 21.94171293826465], [89.23388198336718, 21.65538176150684], [89.07225326022265, 21.77433928103809], [89.00561812838671, 22.013837419465823], [88.82471755465625, 22.812898240999026], [88.67818740328906, 23.44705542178516], [88.52015212496875, 23.649343095735354], [88.50229934176562, 23.763539873079104], [88.72954848727343, 24.107759080842776], [88.74261764010546, 24.228484712556643], [88.65543654879687, 24.323218904451174], [88.18670180758593, 24.51734884829883], [88.03428176364062, 24.66251715274219], [88.280711207, 24.93698652835254], [88.46103194674609, 25.071363054231448], [88.68677810153125, 25.129806123689455], [88.85833266696093, 25.17523344607715], [88.87958053073046, 25.245194993928713], [88.82313826998828, 25.295663438752932], [88.27240279635546, 25.717847429231448], [88.05002883395312, 25.824487291291994], [88.01253035983203, 25.894107423738284], [88.06852248629687, 26.021392427400393], [88.31817916354296, 26.257730089143557], [88.42344191989062, 26.33451994510059], [88.98709395846484, 26.198098741487307], [89.1394529672539, 26.07835730166797], [89.30673507174609, 25.958705507234377], [89.52707198580859, 25.98537977786426], [89.71444991549609, 25.961059175447268], [89.7726316781914, 25.815379701570315], [89.796336207, 25.599628053621096], [89.83188155612109, 25.276105485872073], [89.87472823580859, 25.231910310701174], [90.0, 25.182513795808596], [90.0, 25.186317048982424], [91.02613357028125, 25.187776170686526], [92.1385984750664, 25.09897383304004], [92.18869307955859, 25.054828248933596], [92.2140379281914, 24.997834764436526], [92.2088117929375, 24.64224012942676], [92.13728621920703, 24.489438615754885], [91.7148924203789, 24.144107423738284], [91.49085524996875, 24.08566626162891], [91.19761184176562, 23.925222001985354], [91.13882735690234, 23.797889314607424], [91.14279464205859, 23.562964998201174], [91.1431150766289, 23.391519151643557], [91.24684432467578, 23.265128694490237], [91.35910323580859, 23.145131669954104], [91.59738448580859, 22.943322740510744], [91.69781020602343, 23.102651201204104], [91.87523177584765, 23.62437018008594], [92.0020017953789, 23.675895296052737], [92.18227675875781, 23.695989213899416], [92.21104720553515, 23.43581350894336], [92.49318984469531, 22.31987913699512], [92.50995162448046, 22.110425554231448], [92.59760573825, 21.387023530916018], [92.23697188815234, 21.149966798738284], [92.12366774996875, 20.996430955842776], [92.06685927828906, 21.115090928987307], [91.94604781588671, 21.362578950837893]]]}}]}