{"type": "FeatureCollection", "features": [{"type": "Feature", "properties": {"NAME": "Tasmania (UK)", "SUBJECTO": "United Kingdom of Great Britain and Ireland", "BORDERPRECISION": 1, "DE": "sin datos", "MAPA": "world_1880.geojson", "MOTIVO": "Tasmania (Van Diemen's Land), colonia británica desde 1803 (federada en Australia en 1901)", "FUENTE": "https://en.wikipedia.org/wiki/Van_Diemen%27s_Land", "ORIGEN_GEOMETRIA": "", "AREA_KM2": 59210}, "geometry": {"type": "Polygon", "coordinates": [[[145.3770246835625, -42.50653115658398], [145.5663099618828, -42.58340493588086], [145.6242933603203, -42.518917478605466], [145.53049758395312, -42.34531060604687], [145.21419814547656, -42.03065911678906], [144.93604567965625, -41.709705747648435], [144.8689222665703, -41.59412804989453], [144.70011428317187, -41.16398660091992], [144.69687941989062, -40.86219064144726], [144.77613357028125, -40.842762388273435], [145.22802260836718, -40.983108915373045], [145.89188674410937, -41.142315305753904], [146.38221267184375, -41.308346189542966], [146.74070266207812, -41.29478494076367], [146.94913772067187, -41.23012200741406], [147.12060073336718, -41.17839089779492], [147.28858474215625, -41.1523479595625], [147.59635451754687, -41.16458932308789], [147.73382094821093, -41.029442228361326], [148.05588820895312, -40.91965142635937], [148.26952651461718, -41.09258309750195], [148.26568129977343, -41.137554563566404], [148.32305434664843, -41.497234739347654], [148.31925490817187, -41.80580560116406], [147.98119643649218, -42.48201409725781], [147.92566970309375, -42.82340279965039], [147.81531814059375, -42.96535149960156], [147.39066604098437, -43.082176603361326], [147.14171889742968, -43.25668755917187], [146.92144301852343, -43.56659737972851], [146.83597854098437, -43.6893238201582], [146.71273330172656, -43.72180978207226], [146.49712661227343, -43.61904946713086], [145.96689895114062, -43.40729180721875], [145.72265151461718, -43.24016610531445], [145.49386123141406, -42.91843072323437], [145.2793684335625, -42.66767541317578], [145.18250564059375, -42.48116723446484], [145.30095962008593, -42.46162072567578], [145.3770246835625, -42.50653115658398]]]}}, {"type": "Feature", "properties": {"NAME": "Eastern Rumelia", "SUBJECTO": "Ottoman Empire", "BORDERPRECISION": 1, "DE": "Bulgaria", "MAPA": "world_1880.geojson", "MOTIVO": "Congreso de Berlín (1878): Rumelia Oriental (Plovdiv), provincia autónoma otomana hasta 1885; límite norte en los Balcanes (~42,6° N), aproximado", "FUENTE": "https://es.wikipedia.org/wiki/Congreso_de_Berl%C3%ADn", "AREA_KM2": 55604}, "geometry": {"type": "Polygon", "coordinates": [[[27.494702372161132, 42.40090139956836], [27.607871088591796, 42.41677816958789], [27.722533259001953, 42.31621512027149], [27.73771003207324, 42.24700125308399], [27.913407358733398, 42.078101716951174], [27.91795257052539, 41.977672182039065], [28.012033435886725, 41.89485701708644], [28.008, 41.892], [27.997, 41.894], [27.992, 41.894], [27.988, 41.893], [27.981, 41.889], [27.978, 41.886], [27.971, 41.876], [27.965, 41.865], [27.963, 41.857], [27.967, 41.832], [27.968, 41.825], [28.0294648294875, 41.72519013927259], [28.069838556853515, 41.62496908755664], [28.104397806731445, 41.59297140689258], [27.716772359481137, 41.576284781979965], [27.421978845369107, 41.34044997069034], [26.95030922278985, 41.34044997069034], [27.06822662843467, 41.458367376335154], [26.646456751433593, 41.4499584064043], [26.146112516292234, 41.413558762190114], [25.919711097454194, 41.33809162257744], [25.693309678616153, 41.45129233199646], [25.429174689971774, 41.602226611221816], [25.31597398055275, 41.45129233199646], [25.051838991908372, 41.413558762190114], [24.787704003263993, 41.26262448296476], [24.93863828248935, 41.18715734335208], [25.018929514495117, 41.01714666934375], [24.812115702239257, 40.933421693757815], [24.700663599578125, 40.878341279939455], [24.51912787875293, 40.873065553621096], [24.56412065282891, 41.14034541787623], [24.698738031395557, 41.37998422888557], [24.418063196746093, 41.47619589419727], [24.155411753264648, 41.449092470125], [23.795615229216796, 41.33168753238086], [22.960978540984375, 41.243732057527346], [22.920243296233398, 41.230689607576174], [22.899088892546875, 41.32034262271289], [22.946038279143554, 41.455272279695315], [22.948493036833984, 41.679812990144534], [22.847229990569335, 41.89104422183399], [22.686179194060546, 42.0634723529375], [22.38622191866992, 42.196666322664065], [22.326350245085937, 42.292674623445315], [22.326794811573404, 42.3], [23.6, 42.3], [23.6, 42.62], [27.596131228035507, 42.62], [27.50195029696582, 42.51634558291797], [27.494702372161132, 42.40090139956836]]]}}, {"type": "Feature", "properties": {"NAME": "Ottoman Empire", "SUBJECTO": "Ottoman Empire", "BORDERPRECISION": 1, "DE": "Bulgaria", "MAPA": "world_1880.geojson", "MOTIVO": "Macedonia y Tracia, otomanas tras el Congreso de Berlín (1878): la «Gran Bulgaria» de San Stefano se anuló", "FUENTE": "https://es.wikipedia.org/wiki/Tratado_de_San_Stefano", "AREA_KM2": 49791}, "geometry": {"type": "MultiPolygon", "coordinates": [[[[24.715638193694335, 35.03477057071094], [24.69006637057422, 35.09244116397266], [24.324357065764648, 35.20778997989063], [24.013197931853515, 35.21041449160938], [23.7855940195, 35.26285132022266], [23.567723307219726, 35.254981599763674], [23.513134989348632, 35.275958620027346], [23.466885599700195, 35.31790503116016], [23.529439005461914, 35.569625459626955], [23.67146590670703, 35.572249971345705], [23.669087442961914, 35.611583314851565], [23.665133509246093, 35.66665609927539], [23.696656260100585, 35.698123537019534], [23.733677897063476, 35.62731894107227], [23.742875132170898, 35.56175955386524], [23.87945273837207, 35.55241736026172], [23.956812891570312, 35.52767141909961], [24.03900435885547, 35.56175955386524], [24.033263239470703, 35.59847220034961], [24.081856760588867, 35.611583314851565], [24.152676615325195, 35.56438025088672], [24.135817560759765, 35.52242621035938], [24.091456446257812, 35.51980169864063], [24.073323282805664, 35.49620398135547], [24.11320403536914, 35.48571737857227], [24.17774489840625, 35.46998556704883], [24.21970275363086, 35.44900091739063], [24.22960380038379, 35.39131888003711], [24.38828376254199, 35.37296637149219], [24.768567118254882, 35.42802771182422], [24.99748137911914, 35.42102011294727], [25.01360038241504, 35.36247976870899], [25.100091013518554, 35.34674795718555], [25.374018702117187, 35.31790503116016], [25.51163581332324, 35.29476507754688], [25.67320731600879, 35.349368654207034], [25.713534388152343, 35.327010713533205], [25.66846755465625, 35.18682058902149], [25.741803202239257, 35.13700445742969], [25.788973841277343, 35.13700445742969], [25.935492548552734, 35.21303518863086], [26.0641527505791, 35.23924978824024], [26.099352869597656, 35.215648256257815], [26.16882613619922, 35.247108064607424], [26.2735090585625, 35.312659822419924], [26.236044916716796, 35.228763185457034], [26.24266723116992, 35.144874177888674], [26.16048530062793, 35.02428396792774], [25.898680719939453, 35.04525717349414], [25.74173644503711, 35.008853517488284], [25.590724024382812, 35.01641806216602], [24.693467173186523, 34.94047125430469], [24.715638193694335, 35.03477057071094]]], [[[22.636890524302604, 43.14930297328176], [22.31809142550586, 43.68145712466602], [22.91516402682422, 43.176402650789065], [22.927821192351562, 43.0864330157793], [22.792252573577148, 42.95067175479297], [22.44946578463672, 42.800941072419924], [22.636890524302604, 43.14930297328176]]], [[[28.02620223483203, 41.88238485904102], [28.01817801913379, 41.75320776553516], [28.0294648294875, 41.72519013927259], [27.968, 41.825], [27.967, 41.832], [27.963, 41.857], [27.965, 41.865], [27.971, 41.876], [27.978, 41.886], [27.981, 41.889], [27.988, 41.893], [27.992, 41.894], [27.997, 41.894], [28.008, 41.892], [28.012033435886725, 41.89485701708644], [28.02620223483203, 41.88238485904102]]], [[[24.504952463713867, 40.98406942935352], [24.354302439299804, 40.97096212954883], [24.21905806979297, 40.82968481631641], [24.025155100432617, 40.74636038394336], [23.885952982512695, 40.732894502595705], [23.748394999114257, 40.80443152041797], [23.634697947112304, 40.77275427432422], [23.632977518645507, 40.71316870303516], [22.599156954496266, 40.80982164528868], [22.701254877654296, 40.57744940371875], [22.492066416350585, 40.49829062075977], [22.335021965851883, 40.50795308683796], [22.259554826239206, 40.65888736606332], [22.033153407401162, 40.621153796256976], [22.033153407401162, 40.319285237806255], [21.39168272069338, 40.319285237806255], [21.16528130185534, 39.866482400130174], [20.473259501253033, 40.032825528791655], [20.60791495761035, 40.16091497989063], [20.78894523104785, 40.33477362246875], [20.99117377719043, 40.7137523517168], [21.031638178435546, 40.726790986970705], [20.7069750162041, 41.00056418033008], [20.572821650115234, 41.301143251375], [20.97661345282364, 41.4890259018028], [21.3162155810807, 41.8663615998662], [21.99541983759482, 41.97956230928522], [22.326350245085937, 42.292674623445315], [22.38622191866992, 42.196666322664065], [22.686179194060546, 42.0634723529375], [22.847229990569335, 41.89104422183399], [22.948493036833984, 41.679812990144534], [22.946038279143554, 41.455272279695315], [22.899088892546875, 41.32034262271289], [22.920243296233398, 41.230689607576174], [22.960978540984375, 41.243732057527346], [23.795615229216796, 41.33168753238086], [24.155411753264648, 41.449092470125], [24.418063196746093, 41.47619589419727], [24.698738031395557, 41.37998422888557], [24.56412065282891, 41.14034541787623], [24.51912787875293, 40.873065553621096], [24.504952463713867, 40.98406942935352]]]]}}, {"type": "Feature", "properties": {"NAME": "Ottoman Empire", "SUBJECTO": "Ottoman Empire", "BORDERPRECISION": 1, "DE": "Greece", "MAPA": "world_1880.geojson", "MOTIVO": "Tesalia y Arta, otomanas hasta la Convención de Constantinopla (1881); frontera griega de 1832 (línea Arta-Volos, ~39° N), aproximada", "FUENTE": "https://en.wikipedia.org/wiki/Convention_of_Constantinople_(1881)", "AREA_KM2": 59612}, "geometry": {"type": "MultiPolygon", "coordinates": [[[[23.7090559335625, 40.63003500552539], [23.78517440280078, 40.477191530183596], [23.92370322665332, 40.450809083894534], [24.29535201510547, 40.176490388826174], [24.220635447112304, 40.144847475007815], [24.054778132048828, 40.260882936433596], [24.047778162566406, 40.3083568439043], [23.923533472625, 40.34528311343555], [23.774773630706054, 40.392764650300784], [23.722168955413085, 40.348243318513674], [23.62723449191211, 40.34528311343555], [23.658801111785156, 40.28726156802539], [23.651745829192382, 40.22922857852344], [23.803664240447265, 40.15539129825], [23.868659052458984, 40.16067465396289], [23.9201097818291, 40.05519827456836], [23.906617197600585, 39.997195802644534], [23.796032938567382, 39.986651979402346], [23.595772776213867, 40.19231756778125], [23.442486795989257, 40.25560721011524], [23.34907821139453, 40.2819782123125], [23.291760477629882, 40.28726156802539], [23.293139490691406, 40.24505575747852], [23.259058985320312, 40.22922857852344], [23.32103446444629, 40.15539129825], [23.36683944186328, 40.107928834871096], [23.4364672037041, 40.044654451326174], [23.523348841277343, 40.018287263826174], [23.592185053435546, 40.00246389956836], [23.638585123625976, 39.96034201236133], [23.596890482512695, 39.93405493350391], [23.37439254244922, 39.955089174226565], [23.260525736418945, 39.970870576814455], [23.27630904635547, 40.04992254825], [23.214777979460937, 40.181766115144534], [23.141140970793945, 40.26615484805469], [22.960160288420898, 40.314708314851565], [22.748055491057617, 40.482467256501955], [22.86390212496875, 40.535228334382815], [22.875462565032226, 40.596324525789065], [22.85194686373828, 40.65133627505664], [22.769967112151367, 40.66717108340625], [22.701254877654296, 40.57744940371875], [22.599156954496266, 40.80982164528868], [23.632977518645507, 40.71316870303516], [23.7090559335625, 40.63003500552539]]], [[[21.16528130185534, 39.866482400130174], [21.39168272069338, 40.319285237806255], [22.033153407401162, 40.319285237806255], [22.033153407401162, 40.621153796256976], [22.259554826239206, 40.65888736606332], [22.335021965851883, 40.50795308683796], [22.492066416350585, 40.49829062075977], [22.60226539095996, 40.39723929019336], [22.489617380706054, 40.23052557559375], [22.467362436858398, 40.118480287507815], [22.52561286410449, 40.064166627839846], [22.555129084197265, 39.986651979402346], [22.695097956267578, 39.834483705476565], [22.75447371920703, 39.81834753604297], [22.813431772795898, 39.602740846589846], [23.07416823825, 39.41345175357227], [23.236084971038085, 39.20315893741016], [23.15849975070117, 39.140079103425784], [23.05191710909961, 39.10328634829883], [23.099806818572265, 39.1873851642168], [23.045252832976562, 39.27149923892383], [22.98130134066699, 39.329330049470705], [22.918986353484375, 39.345103822664065], [22.85085395297168, 39.36613043399219], [22.720257792083007, 39.287269197419924], [22.766058954802734, 39.20278891177539], [22.83488372286914, 39.16636236758594], [22.864527557998212, 39.05], [21.095893407757373, 39.05], [21.007184061614257, 39.112987123445315], [20.901148829070312, 39.06173285098438], [20.67775252780078, 39.08042486758594], [20.211808237639648, 39.404925905183596], [20.122382196990234, 39.551009736970705], [20.090828928557617, 39.60253103824024], [20.028559717742187, 39.81378134341602], [19.803648981658203, 40.016963563875], [19.369067225066406, 40.26028021426563], [19.38022521456836, 40.32358130069141], [19.483712229338867, 40.29589041324024], [19.49448302706836, 40.4027171954668], [19.33922294100879, 40.58873709292774], [19.527255091277343, 40.865890108064455], [19.445403132048828, 40.96489676089649], [19.529950174895507, 41.21844442935352], [19.416991266814453, 41.345252595857424], [19.498915705291015, 41.52362021060352], [19.619383844939453, 41.559302888826174], [19.60696509799121, 41.761539064363284], [19.63118587188029, 42.0], [22.01702056363002, 42.0], [21.99541983759482, 41.97956230928522], [21.3162155810807, 41.8663615998662], [20.97661345282364, 41.4890259018028], [20.572821650115234, 41.301143251375], [20.7069750162041, 41.00056418033008], [21.031638178435546, 40.726790986970705], [20.99117377719043, 40.7137523517168], [20.78894523104785, 40.33477362246875], [20.60791495761035, 40.16091497989063], [20.473259501253033, 40.032825528791655], [21.16528130185534, 39.866482400130174]]]]}}]}