{
 "type": "FeatureCollection",
 "features": [
  {
   "type": "Feature",
   "properties": {
    "NAME": "Lado Habsburgo 1580",
    "PROCEDENCIA": "trazado propio de la frontera habsburgo-otomana (y con el Partium transilvano) a partir de las plazas documentadas en Wikipedia; se usa solo intersecado con «Kingdom of Hungary» de world_1500 (frontera húngara con Austria, Moravia y Polonia de los mapas base)",
    "PLAZAS": "Esztergom, Nógrád, Szécsény, Fülek, Hatvan, Székesfehérvár, Szigetvár otomanas; Győr, Tata, Veszprém, Kanizsa, Eger, Bihać, Tokaj, Szatmár habsburgo"
   },
   "geometry": {
    "type": "Polygon",
    "coordinates": [
     [
      [
       14.95,
       44.4
      ],
      [
       15.1,
       44.52
      ],
      [
       15.4,
       44.7
      ],
      [
       15.75,
       44.7
      ],
      [
       15.98,
       44.78
      ],
      [
       16.1,
       44.95
      ],
      [
       16.3,
       45.2
      ],
      [
       16.5,
       45.4
      ],
      [
       16.55,
       45.6
      ],
      [
       16.85,
       45.8
      ],
      [
       17.25,
       45.95
      ],
      [
       17.1,
       46.3
      ],
      [
       17.3,
       46.45
      ],
      [
       17.3,
       46.72
      ],
      [
       17.5,
       46.82
      ],
      [
       17.9,
       46.97
      ],
      [
       18.15,
       47.08
      ],
      [
       18.25,
       47.25
      ],
      [
       18.35,
       47.55
      ],
      [
       18.55,
       47.78
      ],
      [
       18.6,
       47.9
      ],
      [
       18.85,
       48.05
      ],
      [
       19.15,
       48.15
      ],
      [
       19.5,
       48.4
      ],
      [
       19.9,
       48.4
      ],
      [
       20.15,
       48.15
      ],
      [
       20.25,
       47.82
      ],
      [
       20.7,
       47.8
      ],
      [
       21.1,
       47.9
      ],
      [
       21.4,
       47.95
      ],
      [
       21.6,
       47.78
      ],
      [
       22.0,
       47.7
      ],
      [
       22.5,
       47.62
      ],
      [
       23.0,
       47.62
      ],
      [
       23.2,
       47.9
      ],
      [
       23.15,
       48.1
      ],
      [
       23.25,
       48.3
      ],
      [
       23.3,
       48.7
      ],
      [
       23.1,
       49.1
      ],
      [
       23.0,
       49.8
      ],
      [
       20.0,
       51.0
      ],
      [
       10.0,
       51.0
      ],
      [
       10.0,
       44.0
      ],
      [
       14.5,
       44.0
      ],
      [
       14.95,
       44.4
      ]
     ]
    ]
   }
  },
  {
   "type": "Feature",
   "properties": {
    "NAME": "Lado Habsburgo 1600",
    "PROCEDENCIA": "trazado propio de la frontera habsburgo-otomana (y con el Partium transilvano) a partir de las plazas documentadas en Wikipedia; se usa solo intersecado con «Kingdom of Hungary» de world_1500 (frontera húngara con Austria, Moravia y Polonia de los mapas base)",
    "PLAZAS": "Kanizsa (23-10-1600), Eger (1596), Hatvan, Vác, Székesfehérvár, Bihać (1592) otomanas; Esztergom y Visegrád (1595), Nógrád, Szécsény, Fülek (1593), Győr y Komárom (1598), Sisak, Karlovac, Senj habsburgo"
   },
   "geometry": {
    "type": "Polygon",
    "coordinates": [
     [
      [
       14.95,
       44.4
      ],
      [
       15.1,
       44.52
      ],
      [
       15.3,
       44.78
      ],
      [
       15.5,
       44.98
      ],
      [
       15.7,
       45.12
      ],
      [
       15.95,
       45.25
      ],
      [
       16.15,
       45.38
      ],
      [
       16.45,
       45.42
      ],
      [
       16.55,
       45.6
      ],
      [
       16.85,
       45.8
      ],
      [
       17.25,
       45.95
      ],
      [
       16.95,
       46.3
      ],
      [
       16.8,
       46.55
      ],
      [
       17.15,
       46.75
      ],
      [
       17.5,
       46.82
      ],
      [
       17.9,
       46.97
      ],
      [
       18.15,
       47.08
      ],
      [
       18.25,
       47.25
      ],
      [
       18.3,
       47.45
      ],
      [
       18.55,
       47.65
      ],
      [
       18.85,
       47.72
      ],
      [
       19.05,
       47.72
      ],
      [
       19.1,
       47.86
      ],
      [
       19.3,
       47.95
      ],
      [
       19.6,
       48.0
      ],
      [
       19.9,
       48.05
      ],
      [
       20.2,
       48.08
      ],
      [
       20.5,
       48.03
      ],
      [
       20.75,
       47.95
      ],
      [
       21.1,
       47.92
      ],
      [
       21.4,
       47.95
      ],
      [
       21.6,
       47.78
      ],
      [
       22.0,
       47.7
      ],
      [
       22.5,
       47.62
      ],
      [
       23.0,
       47.62
      ],
      [
       23.2,
       47.9
      ],
      [
       23.15,
       48.1
      ],
      [
       23.25,
       48.3
      ],
      [
       23.3,
       48.7
      ],
      [
       23.1,
       49.1
      ],
      [
       23.0,
       49.8
      ],
      [
       20.0,
       51.0
      ],
      [
       10.0,
       51.0
      ],
      [
       10.0,
       44.0
      ],
      [
       14.5,
       44.0
      ],
      [
       14.95,
       44.4
      ]
     ]
    ]
   }
  },
  {
   "type": "Feature",
   "properties": {
    "NAME": "Lado Habsburgo 1650",
    "PROCEDENCIA": "trazado propio de la frontera habsburgo-otomana (y con el Partium transilvano) a partir de las plazas documentadas en Wikipedia; se usa solo intersecado con «Kingdom of Hungary» de world_1500 (frontera húngara con Austria, Moravia y Polonia de los mapas base)",
    "PLAZAS": "Eger, Kanizsa, Esztergom, Nógrád, Szécsény otomanas; Fülek, Érsekújvár habsburgo; Szabolcs y Szatmár transilvanos (Linz 1645)"
   },
   "geometry": {
    "type": "Polygon",
    "coordinates": [
     [
      [
       14.95,
       44.4
      ],
      [
       15.1,
       44.52
      ],
      [
       15.3,
       44.78
      ],
      [
       15.5,
       44.98
      ],
      [
       15.7,
       45.12
      ],
      [
       15.95,
       45.25
      ],
      [
       16.15,
       45.38
      ],
      [
       16.45,
       45.42
      ],
      [
       16.55,
       45.6
      ],
      [
       16.85,
       45.8
      ],
      [
       17.25,
       45.95
      ],
      [
       16.95,
       46.3
      ],
      [
       16.8,
       46.55
      ],
      [
       17.15,
       46.75
      ],
      [
       17.5,
       46.82
      ],
      [
       17.9,
       46.97
      ],
      [
       18.15,
       47.08
      ],
      [
       18.25,
       47.25
      ],
      [
       18.35,
       47.55
      ],
      [
       18.55,
       47.78
      ],
      [
       18.6,
       47.9
      ],
      [
       18.85,
       48.02
      ],
      [
       19.15,
       48.12
      ],
      [
       19.5,
       48.18
      ],
      [
       19.75,
       48.2
      ],
      [
       20.2,
       48.1
      ],
      [
       20.5,
       48.03
      ],
      [
       20.75,
       47.95
      ],
      [
       21.1,
       47.92
      ],
      [
       21.4,
       48.05
      ],
      [
       21.7,
       48.2
      ],
      [
       22.1,
       48.3
      ],
      [
       22.5,
       48.1
      ],
      [
       22.9,
       48.0
      ],
      [
       23.2,
       48.05
      ],
      [
       23.25,
       48.3
      ],
      [
       23.3,
       48.7
      ],
      [
       23.1,
       49.1
      ],
      [
       23.0,
       49.8
      ],
      [
       20.0,
       51.0
      ],
      [
       10.0,
       51.0
      ],
      [
       10.0,
       44.0
      ],
      [
       14.5,
       44.0
      ],
      [
       14.95,
       44.4
      ]
     ]
    ]
   }
  }
 ]
}