{"type": "FeatureCollection", "features": [{"type": "Feature", "properties": {"NAME": "germanos", "FUENTE": "construida a mano con ríos y cordilleras aproximados (BORDERPRECISION 1); solo se usa para tomar tierra sin datos"}, "geometry": {"type": "Polygon", "coordinates": [[[8.0, 57.6], [10.8, 58.0], [12.4, 56.5], [12.7, 55.6], [14.3, 55.0], [16.0, 55.2], [19.2, 54.9], [19.75, 54.45], [20.1, 53.75], [21.0, 53.35], [21.9, 53.0], [22.66, 52.4], [23.65, 52.08], [23.55, 51.55], [23.8, 51.17], [23.9, 50.8], [24.28, 50.48], [24.35, 50.1], [24.0, 49.3], [24.5, 48.1], [24.3, 47.95], [23.3, 47.9], [22.3, 48.15], [21.8, 48.3], [20.8, 48.1], [19.8, 47.95], [18.85, 47.75], [17.0, 47.6], [9.0, 47.3], [6.0, 47.3], [5.0, 49.5], [3.4, 51.3], [3.8, 54.2], [8.0, 57.6]]]}}, {"type": "Feature", "properties": {"NAME": "germanos-500", "FUENTE": "construida a mano con ríos y cordilleras aproximados (BORDERPRECISION 1); solo se usa para tomar tierra sin datos"}, "geometry": {"type": "Polygon", "coordinates": [[[10.8, 58.0], [12.4, 56.5], [12.7, 55.6], [14.3, 55.0], [16.0, 55.2], [19.2, 54.9], [18.9, 54.35], [18.6, 53.0], [19.1, 52.65], [19.7, 52.55], [21.0, 52.25], [21.85, 51.56], [21.75, 50.68], [19.95, 50.05], [19.0, 49.6], [19.0, 49.5], [17.0, 47.6], [9.0, 47.3], [6.0, 47.3], [5.0, 49.5], [3.4, 51.3], [3.8, 54.2], [8.0, 57.6], [10.8, 58.0]]]}}, {"type": "Feature", "properties": {"NAME": "germanos-560", "FUENTE": "construida a mano con ríos y cordilleras aproximados (BORDERPRECISION 1); solo se usa para tomar tierra sin datos"}, "geometry": {"type": "Polygon", "coordinates": [[[14.3, 55.0], [14.3, 53.95], [14.6, 53.4], [14.6, 52.6], [14.9, 51.9], [15.0, 51.2], [14.8, 50.9], [14.3, 51.0], [13.0, 50.5], [12.5, 50.2], [11.9, 50.1], [6.0, 47.3], [5.0, 49.5], [3.4, 51.3], [3.8, 54.2], [7.8074, 57.4441], [7.9, 55.5], [8.3, 54.6], [9.0, 54.35], [10.0, 54.35], [11.0, 54.3], [12.4, 54.5], [12.7, 55.6], [14.3, 55.0]]]}}, {"type": "Feature", "properties": {"NAME": "balticos", "FUENTE": "construida a mano con ríos y cordilleras aproximados (BORDERPRECISION 1); solo se usa para tomar tierra sin datos"}, "geometry": {"type": "Polygon", "coordinates": [[[19.2, 54.9], [20.3, 57.3], [21.5, 57.8], [22.8, 57.8], [23.0, 57.5], [24.1, 57.05], [25.85, 56.5], [26.5, 55.87], [28.8, 55.49], [30.2, 55.19], [31.5, 55.6], [32.05, 54.78], [31.2, 54.65], [30.4, 54.5], [30.33, 53.9], [30.1, 53.1], [30.4, 52.4], [29.5, 52.5], [28.0, 52.45], [26.5, 52.4], [25.0, 52.35], [23.65, 52.35], [22.66, 52.4], [21.9, 53.0], [21.0, 53.35], [20.1, 53.75], [19.75, 54.45], [19.2, 54.9]]]}}, {"type": "Feature", "properties": {"NAME": "kiev", "FUENTE": "construida a mano con ríos y cordilleras aproximados (BORDERPRECISION 1); solo se usa para tomar tierra sin datos"}, "geometry": {"type": "Polygon", "coordinates": [[[33.0, 53.3], [34.5, 53.3], [35.5, 52.8], [36.0, 51.5], [35.0, 50.6], [33.5, 50.5], [31.5, 50.2], [30.5, 50.3], [29.5, 50.5], [27.0, 50.7], [24.3, 50.6], [24.28, 50.48], [23.9, 50.8], [23.8, 51.17], [23.55, 51.55], [23.65, 52.08], [22.66, 52.4], [23.65, 52.35], [25.0, 52.35], [26.5, 52.4], [28.0, 52.45], [29.5, 52.5], [30.4, 52.4], [31.5, 53.0], [33.0, 53.3]]]}}, {"type": "Feature", "properties": {"NAME": "godos", "FUENTE": "construida a mano con ríos y cordilleras aproximados (BORDERPRECISION 1); solo se usa para tomar tierra sin datos"}, "geometry": {"type": "Polygon", "coordinates": [[[29.6, 46.8], [29.2, 47.2], [28.6, 47.9], [27.8, 48.45], [27.3, 48.45], [26.3, 48.35], [25.2, 47.9], [24.5, 48.1], [24.0, 49.3], [24.35, 50.1], [24.28, 50.48], [24.3, 50.6], [27.0, 50.7], [29.5, 50.5], [30.5, 50.3], [31.5, 50.2], [33.5, 50.5], [35.0, 50.6], [36.5, 50.3], [38.5, 50.3], [40.0, 49.9], [40.7, 48.8], [40.3, 47.7], [39.3, 47.15], [37.5, 47.0], [33.675, 46.15], [32.4, 46.15], [32.4, 46.0], [31.5, 46.0], [30.35, 46.1], [30.1, 46.4], [29.6, 46.8]]]}}, {"type": "Feature", "properties": {"NAME": "tisza", "FUENTE": "construida a mano con ríos y cordilleras aproximados (BORDERPRECISION 1); solo se usa para tomar tierra sin datos"}, "geometry": {"type": "Polygon", "coordinates": [[[19.8, 47.95], [20.8, 48.1], [21.8, 48.3], [22.3, 48.15], [23.3, 47.9], [22.6, 47.4], [22.2, 46.6], [21.6, 45.6], [21.4, 44.6], [20.3, 44.7], [19.0, 45.0], [18.8, 46.5], [18.85, 47.75], [19.8, 47.95]]]}}, {"type": "Feature", "properties": {"NAME": "gepidos", "FUENTE": "construida a mano con ríos y cordilleras aproximados (BORDERPRECISION 1); solo se usa para tomar tierra sin datos"}, "geometry": {"type": "Polygon", "coordinates": [[[20.8, 48.1], [21.8, 48.3], [22.3, 48.15], [23.3, 47.9], [24.3, 47.95], [24.5, 48.1], [25.2, 47.9], [25.8, 47.0], [26.0, 46.2], [25.8, 45.6], [24.5, 45.45], [23.0, 45.35], [22.4, 45.1], [21.9, 45.0], [21.6, 45.6], [21.4, 44.6], [20.3, 44.7], [19.0, 45.0], [18.8, 46.5], [18.85, 47.75], [19.8, 47.95], [20.8, 48.1]]]}}, {"type": "Feature", "properties": {"NAME": "eslavos-500", "FUENTE": "construida a mano con ríos y cordilleras aproximados (BORDERPRECISION 1); solo se usa para tomar tierra sin datos"}, "geometry": {"type": "Polygon", "coordinates": [[[23.0, 45.35], [24.5, 45.45], [25.8, 45.6], [26.0, 46.2], [25.8, 47.0], [25.2, 47.9], [24.5, 48.1], [24.3, 47.95], [23.3, 47.9], [22.3, 48.15], [21.8, 48.3], [20.8, 48.1], [19.8, 47.95], [18.85, 47.75], [17.0, 47.6], [19.0, 49.5], [19.0, 49.6], [19.95, 50.05], [21.75, 50.68], [21.85, 51.56], [21.0, 52.25], [19.7, 52.55], [19.1, 52.65], [18.6, 53.0], [18.9, 54.35], [19.2, 54.9], [19.75, 54.45], [20.1, 53.75], [21.0, 53.35], [21.9, 53.0], [22.66, 52.4], [23.65, 52.35], [25.0, 52.35], [26.5, 52.4], [28.0, 52.45], [29.5, 52.5], [30.4, 52.4], [31.5, 53.0], [33.0, 53.3], [34.5, 53.3], [35.5, 52.8], [36.0, 51.5], [35.0, 50.6], [36.5, 50.3], [38.5, 50.3], [40.0, 49.9], [40.7, 48.8], [40.3, 47.7], [39.3, 47.15], [37.5, 47.0], [33.675, 46.15], [32.4, 46.15], [32.4, 46.0], [31.5, 46.0], [30.35, 46.1], [30.6, 45.6], [29.7, 44.9], [28.7, 44.3], [27.3, 43.9], [25.95, 43.7], [24.9, 43.55], [22.87, 43.85], [22.4, 44.3], [21.4, 44.6], [21.6, 45.6], [21.9, 45.0], [22.4, 45.1], [23.0, 45.35]]]}}, {"type": "Feature", "properties": {"NAME": "eslavos-560", "FUENTE": "construida a mano con ríos y cordilleras aproximados (BORDERPRECISION 1); solo se usa para tomar tierra sin datos"}, "geometry": {"type": "Polygon", "coordinates": [[[25.8, 45.6], [26.0, 46.2], [25.8, 47.0], [25.2, 47.9], [24.5, 48.1], [24.3, 47.95], [23.3, 47.9], [22.3, 48.15], [21.8, 48.3], [20.8, 48.1], [19.8, 47.95], [18.85, 47.75], [17.0, 47.6], [9.0, 47.3], [6.0, 47.3], [11.9, 50.1], [12.5, 50.2], [13.0, 50.5], [14.3, 51.0], [14.8, 50.9], [15.0, 51.2], [14.9, 51.9], [14.6, 52.6], [14.6, 53.4], [14.3, 53.95], [14.3, 55.0], [16.0, 55.2], [19.2, 54.9], [19.75, 54.45], [20.1, 53.75], [21.0, 53.35], [21.9, 53.0], [22.66, 52.4], [23.65, 52.35], [25.0, 52.35], [26.5, 52.4], [28.0, 52.45], [29.5, 52.5], [30.4, 52.4], [31.5, 53.0], [33.0, 53.3], [34.5, 53.3], [35.5, 52.8], [36.0, 51.5], [35.0, 50.6], [36.5, 50.3], [38.5, 50.3], [40.0, 49.9], [40.7, 48.8], [40.3, 47.7], [39.3, 47.15], [37.5, 47.0], [33.675, 46.15], [32.4, 46.15], [32.4, 46.0], [31.5, 46.0], [30.35, 46.1], [30.6, 45.6], [29.7, 44.9], [28.7, 44.3], [27.3, 43.9], [25.95, 43.7], [24.9, 43.55], [22.87, 43.85], [22.4, 44.3], [21.4, 44.6], [21.6, 45.6], [21.9, 45.0], [22.4, 45.1], [23.0, 45.35], [24.5, 45.45], [25.8, 45.6]]]}}, {"type": "Feature", "properties": {"NAME": "eslavos-600", "FUENTE": "construida a mano con ríos y cordilleras aproximados (BORDERPRECISION 1); solo se usa para tomar tierra sin datos"}, "geometry": {"type": "Polygon", "coordinates": [[[26.0, 46.2], [25.8, 47.0], [25.2, 47.9], [24.5, 48.1], [24.3, 47.95], [23.3, 47.9], [22.3, 48.15], [21.8, 48.3], [20.8, 48.1], [19.8, 47.95], [18.85, 47.75], [17.0, 47.6], [9.0, 47.3], [15.5, 48.3], [14.9, 48.6], [13.8, 48.75], [12.5, 49.6], [11.9, 50.1], [11.58, 50.93], [11.97, 51.48], [11.8, 51.93], [11.65, 52.13], [11.0, 53.2], [10.6, 53.4], [10.9, 53.95], [10.9877, 54.3006], [11.0, 54.3], [12.4, 54.5], [12.7, 55.6], [14.3, 55.0], [16.0, 55.2], [19.2, 54.9], [19.75, 54.45], [20.1, 53.75], [21.0, 53.35], [21.9, 53.0], [22.66, 52.4], [23.65, 52.35], [25.0, 52.35], [26.5, 52.4], [28.0, 52.45], [29.5, 52.5], [30.4, 52.4], [31.5, 53.0], [33.0, 53.3], [34.5, 53.3], [35.5, 52.8], [36.0, 51.5], [35.0, 50.6], [36.5, 50.3], [38.5, 50.3], [40.0, 49.9], [40.7, 48.8], [40.3, 47.7], [39.3, 47.15], [37.5, 47.0], [33.675, 46.15], [32.4, 46.15], [32.4, 46.0], [31.5, 46.0], [30.35, 46.1], [30.6, 45.6], [29.7, 44.9], [28.7, 44.3], [27.3, 43.9], [25.95, 43.7], [24.9, 43.55], [22.87, 43.85], [22.4, 44.3], [21.4, 44.6], [21.6, 45.6], [21.9, 45.0], [22.4, 45.1], [23.0, 45.35], [24.5, 45.45], [25.8, 45.6], [26.0, 46.2]]]}}, {"type": "Feature", "properties": {"NAME": "jutlandia", "FUENTE": "construida a mano con ríos y cordilleras aproximados (BORDERPRECISION 1); solo se usa para tomar tierra sin datos"}, "geometry": {"type": "Polygon", "coordinates": [[[7.8, 57.6], [10.8, 58.0], [12.4, 56.5], [12.7, 55.6], [12.4, 54.5], [11.0, 54.3], [10.0, 54.35], [9.0, 54.35], [8.3, 54.6], [7.9, 55.5], [7.8, 57.6]]]}}, {"type": "Feature", "properties": {"NAME": "bulgaros", "FUENTE": "construida a mano con ríos y cordilleras aproximados (BORDERPRECISION 1); solo se usa para tomar tierra sin datos"}, "geometry": {"type": "Polygon", "coordinates": [[[33.4, 47.0], [35.1, 47.85], [37.5, 48.7], [40.0, 49.6], [44.0, 49.6], [44.5, 48.7], [43.8, 46.8], [43.0, 45.6], [40.0, 45.0], [38.5, 45.3], [36.8, 45.5], [36.8, 46.15], [35.3375, 46.15], [35.0, 46.3], [33.875, 46.15], [33.3375, 46.15], [32.2, 46.5], [33.4, 47.0]]]}}]}