{"type": "FeatureCollection", "features": [{"type": "Feature", "properties": {"NAME": "Moldavia histórica", "FUENTE": "Este: frontera ruso-otomana del Dniéster en world_1800 (historical-basemaps, tras el tratado de Iași de 1792); sur: Milcov-Siret-brazo de Chilia (https://en.wikipedia.org/wiki/Moldavia); norte: Dniéster/Ceremuș aproximado. oeste (Cárpatos): frontera del Reino de Hungría («Imperial Hungary») en el original de world_1500.", "NOTA": "trazado aproximado (BORDERPRECISION 1); no calcado de Euratlas"}, "geometry": {"type": "Polygon", "coordinates": [[[26.16, 48.94], [26.16218113786689, 48.941713751181126], [26.16266290937989, 48.9405896176508], [26.524239254288243, 48.826951337822464], [26.98940102500732, 48.68075763845361], [27.107731508510145, 48.643568057924156], [27.107731508510145, 48.83258177775021], [27.485758948162246, 48.6705700178993], [27.485758948162246, 48.75157589782475], [27.647770708013145, 48.75157589782475], [27.70611861666797, 48.43969687075977], [27.72314170321582, 48.43402060122852], [27.819605860320312, 48.39430197329883], [27.882025751677734, 48.33755835147266], [27.944443735686523, 48.31486090274219], [28.01253608187793, 48.30918463321094], [28.057930979338867, 48.28081091494922], [28.080628428069335, 48.25244101138477], [28.11467460116504, 48.218394838289065], [28.160069498625976, 48.22406729312305], [28.216813120452148, 48.212718568757815], [28.29625419100879, 48.2297435626543], [28.347323450652343, 48.2297435626543], [28.358672175017578, 48.20136984439258], [28.318951639739257, 48.15597494693164], [28.301928553191406, 48.133277498201174], [28.347323450652343, 48.15030249209766], [28.387043985930664, 48.138953767732424], [28.387043985930664, 48.10490759463672], [28.41541579684375, 48.08221014590625], [28.426790289144513, 48.09737613564061], [28.90822219965315, 47.818388161083575], [29.010601787898512, 47.553907558116386], [29.115597252262305, 47.282669275176595], [29.426659831176035, 46.81607540680601], [29.80684742762615, 46.50501282789227], [29.964310147469543, 46.36854513736133], [30.06606624338759, 46.280356520899026], [30.43284740345622, 46.17574956961106], [30.520461115447265, 46.251407228425784], [30.83285621127246, 46.57659109683399], [31.087231669036132, 46.635535798982424], [31.537734064666015, 46.70138128848438], [31.781046900359375, 46.701861940339846], [31.8, 46.71998467649533], [31.8, 45.0], [29.75, 45.3], [29.6, 45.4], [29.27, 45.43], [28.84, 45.33], [28.2, 45.44], [28.08, 45.4], [27.75, 45.47], [27.45, 45.6], [27.18, 45.7], [26.701595156906926, 45.765986874909395], [26.698958527304054, 45.79235317093809], [25.901907832855404, 46.87634211538826], [25.666760585814405, 48.68864332226415], [25.67, 48.69], [26.16, 48.94]]]}}, {"type": "Feature", "properties": {"NAME": "Valaquia al sur del Milcov", "FUENTE": "lado sur de la misma línea Milcov-Siret", "NOTA": "solo para devolver a Valaquia (otomana en world_1500) la cuña que el mapa base da a Polonia-Lituania"}, "geometry": {"type": "Polygon", "coordinates": [[[24.5, 46.1], [25.8, 45.95], [26.6, 45.78], [27.18, 45.7], [27.45, 45.6], [27.75, 45.47], [28.08, 45.4], [28.2, 45.44], [28.4, 44.9], [24.5, 44.9], [24.5, 46.1]]]}}]}