{"type": "FeatureCollection", "features": [{"type": "Feature", "properties": {"NAME": "Florida (Spain)", "SUBJECTO": "Spain", "BORDERPRECISION": 1, "DE": "United States", "MAPA": "world_1815.geojson", "MOTIVO": "Florida española hasta el Tratado Adams-Onís (1819, efectivo en 1821); la Florida occidental hasta el Perdido ya la ocupaba EE. UU. (1810-1813)", "FUENTE": "https://en.wikipedia.org/wiki/Spanish_Florida", "AREA_KM2": 158905}, "geometry": {"type": "Polygon", "coordinates": [[[-81.40536972561719, 30.072576127961916], [-81.23108383694532, 29.656354509309573], [-81.02593704739454, 29.2636733874834], [-80.60545822659375, 28.560990892366213], [-80.44717880764844, 27.77562864871387], [-80.22851273098829, 27.238280855134768], [-80.26208969632032, 27.19694670291309], [-80.13325974026563, 27.072942338899416], [-80.07788559475782, 26.923104845002932], [-80.04998489895704, 26.551089845613284], [-80.18538376370313, 25.860059343293948], [-80.21441360989454, 25.734731279329104], [-80.35403915921094, 25.548202119783205], [-80.30527969876172, 25.357553087190432], [-80.31409927883985, 25.243880830720705], [-80.49075790921094, 24.995875917390627], [-80.49835678616407, 25.037213884309573], [-80.44022079983594, 25.14571341128711], [-80.4517335561836, 25.207715593293948], [-80.56696030178907, 25.191751085237307], [-80.73804947415235, 25.130212388948244], [-80.86892410794141, 25.18704756350879], [-81.09792038479688, 25.12504728885059], [-81.15179153958204, 25.27316053958301], [-81.1455812124336, 25.378219209626955], [-81.40104385891797, 25.858735643342776], [-81.74465652981641, 25.92073782534961], [-81.83656021633985, 26.07908781619434], [-81.88733383694532, 26.4477554187334], [-82.07761856594922, 26.551089845613284], [-82.14230820217969, 26.866757951692385], [-82.31009384671094, 26.82493170352344], [-82.58388992825391, 27.310618959382815], [-82.75272842923047, 27.52762182803516], [-82.61962601223829, 27.52762182803516], [-82.4507569936836, 27.724382005647463], [-82.42928787747266, 27.826148591951174], [-82.50467392483594, 27.927703462556643], [-82.71654984036329, 27.744626604036135], [-82.84134384671094, 27.838002763704104], [-82.78439041653516, 28.09596975894336], [-82.71809860745313, 28.436982713655276], [-82.64696213284375, 28.9065013751543], [-82.77892014065625, 29.109672151521487], [-82.89487930813672, 29.185733400300784], [-83.11821457425, 29.24247892947559], [-83.49242111721875, 29.686763368562502], [-83.8861817983711, 30.048348985627932], [-84.12382217923047, 30.124150834993166], [-84.31742569485547, 30.091956697419924], [-84.55865189114454, 29.957938753083987], [-84.76381393948438, 29.79855879397754], [-85.30477615872266, 29.66390760989551], [-85.42760178128125, 29.75969275088672], [-85.48666855374219, 30.038659654573244], [-85.60032364407422, 30.15286787600879], [-85.71918198147657, 30.203483186677737], [-86.0575685171211, 30.23458059878711], [-86.28960892239454, 30.367620073274416], [-86.38868423977735, 30.472713075593752], [-86.61546036282422, 30.410708986238284], [-87.08910843411329, 30.35904272647266], [-87.3830079702461, 30.441642366365237], [-87.40404984036329, 30.3073745593584], [-87.45, 30.300293745006332], [-87.45, 31.0], [-82.0, 31.0], [-82.0, 30.7], [-81.50712866217886, 30.7], [-81.40536972561719, 30.072576127961916]]]}}, {"type": "Feature", "properties": {"NAME": "United Kingdom of the Netherlands", "SUBJECTO": "United Kingdom of Netherlands", "BORDERPRECISION": 1, "DE": "Austrian Empire", "MAPA": "world_1815.geojson", "MOTIVO": "Bélgica, unida a los Países Bajos por el Congreso de Viena (1815); geometría de los Países Bajos austriacos de world_1800", "FUENTE": "https://en.wikipedia.org/wiki/United_Kingdom_of_the_Netherlands", "AREA_KM2": 30821}, "geometry": {"type": "Polygon", "coordinates": [[[5.140424094788272, 51.36952798188734], [5.243653807250244, 51.23659475894336], [5.410249827704613, 51.270472879435815], [5.785185314686841, 51.13283117760728], [5.756040639010611, 50.91620827866847], [5.696757826415283, 50.88292654605274], [5.697087320891601, 50.730723939851565], [5.999575647917968, 50.74159964175586], [6.154545816985351, 50.66175802798633], [6.28142503222583, 50.49760016055469], [6.298354181853515, 50.286868654207034], [6.108513388243896, 50.11745413394336], [6.007444891539794, 50.149974428132815], [5.94377568682788, 50.11381109805469], [5.833756479827148, 50.047408662751955], [5.737923655120117, 49.90245779605274], [5.745062384215576, 49.755260072664065], [5.884400400725585, 49.66353567691211], [5.823500189391357, 49.50710638614063], [5.787845644561035, 49.55865439029102], [5.475416693297607, 49.480140291169924], [5.41808799227832, 49.582618318513674], [5.251278433409912, 49.674327455476565], [5.097706827727539, 49.76065405459766], [4.859871897307617, 49.78224142642383], [4.877066645232421, 49.88479956241016], [4.81162408312915, 49.965777955964846], [4.865410837737304, 50.13371618838672], [4.754919085112792, 50.10118826480274], [4.668095144835693, 49.96037634463672], [4.467481646147949, 49.94473227115039], [4.28462794741748, 49.91097982974414], [4.156314882842285, 49.965777955964846], [4.188459906188232, 50.05494650454883], [4.14781621417163, 50.13371618838672], [4.21956971606372, 50.24215658755664], [4.050887617675048, 50.31808813662891], [3.791464838591796, 50.339786134675784], [3.674962076750976, 50.334369264558596], [3.603379520980102, 50.47003897281055], [3.370317253676635, 50.4646068439043], [3.28275969943164, 50.52432592959766], [3.191876682845336, 50.730723939851565], [3.122844490615112, 50.807132326082034], [2.938276085463745, 50.713756166414065], [2.875059876052124, 50.68182333560352], [2.755482468215209, 50.73915823550586], [2.615729364958984, 50.890216432527346], [2.522131952849609, 51.09112127871875], [2.995262178984863, 51.313479982332034], [3.213605198470336, 51.35356863589649], [3.472019943801147, 51.31439169497852], [3.681297096816284, 51.3214183673418], [3.7660668354144935, 51.38139131628859], [3.926559465981469, 51.356662650135775], [3.989524397460205, 51.3437457904375], [4.052234703098047, 51.337298639642874], [4.269246494029554, 51.30386151477171], [5.079002634256428, 51.392076272593144], [5.140424094788272, 51.36952798188734]]]}}, {"type": "Feature", "properties": {"NAME": "Sikh Empire", "SUBJECTO": "Sikh Empire", "BORDERPRECISION": 1, "DE": "Maratha Confederacy", "MAPA": "world_1815.geojson", "MOTIVO": "Imperio sij de Ranjit Singh (Lahore, 1799-1849); geometría de «Sikhs» en world_1800 (sin Multán, 1818, ni Cachemira, 1819)", "FUENTE": "https://en.wikipedia.org/wiki/Sikh_Empire", "AREA_KM2": 466336}, "geometry": {"type": "Polygon", "coordinates": [[[77.59186114085885, 30.324169371100297], [76.10877320767288, 29.668043140499524], [76.09665990634313, 29.662684149596977], [73.31704623297901, 29.69531880564162], [73.1114899968972, 29.460687102847587], [70.74936250926856, 29.282573254721953], [68.66305540846919, 27.709331481087585], [68.13000097697828, 28.13713305090178], [68.3616876265645, 28.279709450647147], [69.27497806356722, 28.387155384412175], [69.31969271076701, 28.93524952679219], [69.04484130558795, 29.429982056114497], [69.05227232367737, 31.348203747286135], [69.66305923012604, 32.42773409356749], [73.1387165240688, 35.988163516630806], [79.44885985305535, 32.92245003590546], [79.56532576998828, 32.70180853457813], [79.30527022799609, 32.53811987491016], [79.13616469821093, 32.41163595767383], [78.97054580172656, 32.38931616397266], [78.81878951510546, 32.50836142154102], [78.80396560153125, 32.67204626651172], [78.45068648776171, 32.5827594623125], [78.52110579928515, 32.2702709064043], [78.78180221041796, 32.002418123201174], [78.73491958102343, 31.80152853579883], [78.85763076266406, 31.637843690828127], [78.76067641696093, 31.54111822696094], [78.76073468239645, 31.540865820556718], [76.95159948399552, 31.71204275113335], [76.28800519660592, 31.135291980049352], [78.13132266157702, 30.776987895259385], [77.68017623160054, 30.368827850920386], [77.59186114085885, 30.395322378142893], [77.59186114085885, 30.324169371100297]]]}}, {"type": "Feature", "properties": {"NAME": "Nizam's Dominions", "SUBJECTO": "Nizam's Dominions", "BORDERPRECISION": 1, "DE": "Maratha Confederacy", "MAPA": "world_1815.geojson", "MOTIVO": "Estado de Hyderabad (nizam, 1724), aliado británico desde 1798; geometría de world_1800", "FUENTE": "https://en.wikipedia.org/wiki/Hyderabad_State", "AREA_KM2": 139029}, "geometry": {"type": "Polygon", "coordinates": [[[80.83874381902073, 17.882734610439297], [80.83874381902073, 17.502780254484183], [80.6453125105345, 17.40606460024106], [80.59004642239557, 17.26789937989375], [80.47951424611772, 17.654761996866224], [80.03738554100632, 18.152156790116553], [79.96222366113737, 18.076994910247617], [80.01527910575074, 17.917828576407512], [79.92685336472846, 17.847087983589688], [80.26287118061312, 17.51107016770502], [80.13907514318193, 17.33421868566046], [80.36898206983986, 17.210422648229265], [80.39661511390933, 17.07446807140751], [80.70421857666028, 17.07446807140751], [80.50983536173325, 16.75859534715108], [80.20145893645467, 16.75859534715108], [80.07709253074759, 16.62593784773019], [79.94066988676319, 16.74287154257396], [79.8370459715027, 16.46654110187933], [79.66433944606857, 16.570165017139814], [79.31892639520028, 16.32837588153202], [79.42255031046076, 16.017504135750563], [79.24984378502663, 16.017504135750563], [79.2153024799398, 15.948421525576904], [78.76626551381102, 15.948421525576904], [78.17906332733494, 15.741173695055934], [76.93557634420912, 15.43030194927448], [76.62470459842766, 15.257595423840337], [76.41745676790669, 14.808558457711566], [76.40992225792802, 14.8055446537201], [76.14116933695342, 14.8055446537201], [76.42384772679212, 15.113921078998676], [76.50094183311177, 15.936258213074877], [76.78362022295046, 16.37312481555286], [76.70652611663081, 17.19546194962906], [76.88641236470998, 17.503838374907637], [77.37467503806774, 17.60663051666716], [77.52886325070702, 17.915006941945737], [77.88863574686536, 17.99210104826538], [77.94003181774512, 18.249081402664196], [77.73444753422606, 18.428967650743363], [77.88863574686536, 18.814438182341583], [77.81154164054571, 19.199908713939802], [78.1199180658243, 19.277002820259447], [78.24840824302369, 19.508285139218376], [78.55678466830227, 19.482587103778496], [78.55678466830227, 19.713869422737428], [78.81376502270109, 19.868057635376715], [78.99365127078025, 19.76526549361719], [79.22493358973918, 19.893755670816596], [79.37912180237848, 19.713869422737428], [79.91878054661598, 19.868057635376715], [79.86738447573622, 19.636775316417783], [80.04727072381539, 19.636775316417783], [80.07296875925526, 19.482587103778496], [80.32994911365408, 19.456889068338615], [80.3042510782142, 19.071418536740396], [80.38134518453384, 18.865834253221344], [80.48413732629336, 18.58315586338265], [80.79251375157195, 18.428967650743363], [80.7154196452523, 18.146289260904666], [80.89261727718895, 18.01741825585983], [80.83874381902073, 17.882734610439297]]]}}]}