{"type": "FeatureCollection", "features": [{"type": "Feature", "properties": {"NAME": "Vice Royalty of Peru", "SUBJECTO": "Spanish Habsburg", "BORDERPRECISION": 1, "DE": "sin datos", "MAPA": "world_1700.geojson", "MOTIVO": "Potosí y Bogotá sin datos dentro del dominio español (Potosí 1545; Nuevo Reino de Granada, 1538, audiencia del Virreinato del Perú hasta 1717)", "FUENTE": "https://en.wikipedia.org/wiki/Potos%C3%AD ; https://en.wikipedia.org/wiki/Captaincy_General_of_Chile ; https://es.wikipedia.org/wiki/Nuevo_Reino_de_Granada", "ORIGEN_GEOMETRIA": "world_1783 virreinatos, recortados a los Andes", "AREA_KM2": 832048}, "geometry": {"type": "MultiPolygon", "coordinates": [[[[-65.71878024503351, -18.084155408373633], [-65.49350658965456, -19.135432466808773], [-66.29065675176017, -22.058316394529324], [-67.1888932851875, -22.983517087980466], [-67.14041611233594, -23.00864449886914], [-67.04498764553907, -23.071604169889646], [-66.97242447415235, -23.14105836300488], [-67.01447006741407, -23.427114881559568], [-67.25753494778516, -24.082739271208006], [-67.41947647610547, -24.19800988583203], [-67.72257454766967, -24.31737498757537], [-67.6671583160892, -23.76321267177071], [-67.91698508364286, -22.014425298895077], [-66.54293786209772, -19.765984390912124], [-66.54293786209772, -18.267023785590155], [-66.6934585993106, -17.205973084076422], [-67.00362839996394, -15.7854260563725], [-69.27241573917452, -15.218229221569857], [-69.6018889310102, -14.22980964606285], [-70.52024877574033, -13.743517451082983], [-74.28756765626122, -12.645921515632779], [-77.88516689942037, -6.977321235497577], [-76.65593157559574, -6.977321235497577], [-74.32038446032895, -7.960709494557271], [-73.8653855137637, -7.455155109484765], [-73.84206100979688, -7.578698553129392], [-73.56371780911329, -8.009167589231687], [-72.9640397695625, -8.984194196745115], [-72.91613480130079, -9.041099943205076], [-72.54514526630913, -9.09142455615144], [-72.0, -10.0], [-68.0, -14.0], [-64.5049406540838, -16.097035607549724], [-64.66180129731615, -16.804676207468987], [-65.71878024503351, -18.084155408373633]]], [[[-76.41502879181613, -1.634285606880208], [-76.3056564907273, 2.137993923391058], [-74.94438408720096, 5.88149303308851], [-72.72308185593164, 6.674591096821196], [-71.90104663437614, 6.583253849981698], [-72.0, 5.0], [-73.5, 0.0], [-74.32683134595011, -2.756104486500354], [-76.04131391368342, -2.797921134493848], [-76.41502879181613, -1.634285606880208]]]]}}, {"type": "Feature", "properties": {"NAME": "Cape Colony", "SUBJECTO": "Netherlands", "BORDERPRECISION": 1, "DE": "sin datos", "MAPA": "world_1700.geojson", "MOTIVO": "colonia neerlandesa del Cabo, fundada en 1652", "FUENTE": "https://en.wikipedia.org/wiki/Dutch_Cape_Colony", "ORIGEN_GEOMETRIA": "world_1715 Cape Colony", "AREA_KM2": 79428}, "geometry": {"type": "Polygon", "coordinates": [[[19.18137267550586, -34.421715177580076], [18.966362986174804, -34.39672891049023], [18.840062174407226, -34.43512002377148], [18.724238428679687, -34.21926537899609], [18.570267710295898, -34.19417230038281], [18.503073725310546, -34.308704771085935], [18.487156900969726, -34.39771691708203], [18.346327814666015, -34.347156919523435], [18.292923960295898, -34.24557534603711], [18.41277221163867, -34.022877134367185], [18.459075007048828, -33.83212701229687], [18.07305053195117, -33.22279015926953], [17.927741083708984, -33.09596673397656], [17.867608103362304, -32.99441186337109], [17.94545844515918, -32.91797677425976], [18.231507334319335, -32.89832345394726], [18.308697733489257, -32.707508482023435], [18.33569053134082, -32.338821805998045], [19.961848333428396, -31.877773528354886], [20.19858140824088, -31.99614006576113], [20.494497751756487, -33.12062217112044], [22.09244600674077, -33.35735524593292], [22.506728887662618, -33.71245485815165], [22.58853326836805, -34.13458312878917], [22.54913047274707, -34.14788094906445], [22.26212981661914, -34.16752663998242], [21.997218165007812, -34.26340524105664], [21.66930106600879, -34.5056079998457], [21.345505747405273, -34.544395841642576], [21.147055658904296, -34.53845254330273], [20.846911463347656, -34.50092355160351], [20.514832529631835, -34.53339044003125], [20.256072077361328, -34.62289086727734], [19.88380721530078, -34.99228707699414], [19.32089332064746, -34.73285714535351], [19.27934936007617, -34.504131712003904], [19.18137267550586, -34.421715177580076]]]}}, {"type": "Feature", "properties": {"NAME": "Manchu Empire", "SUBJECTO": "Manchu Empire", "BORDERPRECISION": 1, "DE": "sin datos", "MAPA": "world_1700.geojson", "MOTIVO": "Taiwán, Qing desde 1683 (fin del reino de Tungning)", "FUENTE": "https://en.wikipedia.org/wiki/Dutch_Formosa", "ORIGEN_GEOMETRIA": "", "AREA_KM2": 21487}, "geometry": {"type": "Polygon", "coordinates": [[[121.878593, 24.929161000000136], [121.828323, 24.86694], [121.819443, 24.85277600000012], [121.81694000000016, 24.847775], [121.813873, 24.834995], [121.805252, 24.789997], [121.799713, 24.756664], [121.800812, 24.74527400000011], [121.817207, 24.637218], [121.819992, 24.626942], [121.82222, 24.622498], [121.828323, 24.614441], [121.843597, 24.606384], [121.84942600000011, 24.59222], [121.853317, 24.56361], [121.853043, 24.533607], [121.839706, 24.476383000000112], [121.8311000000001, 24.470829], [121.81667300000015, 24.463882], [121.8035890000001, 24.455551], [121.79609700000015, 24.44833], [121.780548, 24.426384], [121.77665700000011, 24.414162], [121.75943, 24.335274], [121.759163, 24.328884], [121.76053600000012, 24.323887], [121.772491, 24.301661], [121.75305200000014, 24.292774], [121.74498000000017, 24.286385], [121.67608600000017, 24.204994], [121.659416, 24.184719], [121.60748300000012, 24.085831], [121.60498, 24.080551], [121.60192900000015, 24.060829], [121.603317, 24.055832], [121.609154, 24.041664], [121.616089, 24.034164], [121.611366, 23.98333], [121.596367, 23.899998], [121.536926, 23.70138500000013], [121.496368, 23.485271000000125], [121.476326, 23.422417], [121.47580700000015, 23.414719000000105], [121.473312, 23.401108000000136], [121.453049, 23.327221], [121.355553, 23.087498], [121.25916300000017, 22.899998], [121.168053, 22.762497], [121.137497, 22.735271], [121.12886, 22.72805], [121.119141, 22.724716], [121.108322, 22.72221800000011], [121.079437, 22.70916], [121.030273, 22.656384], [121.014427, 22.634995], [120.969711, 22.568329], [120.955551, 22.535831], [120.878593, 22.341385000000116], [120.873306, 22.323608], [120.872208, 22.316666], [120.871368, 22.291943], [120.873032, 22.274998], [120.879425, 22.23256300000014], [120.88472, 22.098053], [120.88247700000011, 22.039440000000127], [120.880257, 22.034443], [120.824158, 21.927773000000116], [120.722763, 21.927773000000116], [120.716377, 21.928051], [120.71138, 21.930828], [120.70665, 21.933605], [120.6997070000001, 21.94083], [120.698318, 21.945827], [120.69555011626643, 21.970797727102234], [120.72464278658984, 21.988931261018557], [120.77584365328906, 22.18593557925586], [120.78197768649218, 22.34474142642383], [120.96973708590625, 22.719880662874026], [121.18240645846484, 23.03791006656055], [121.32531264742968, 23.400237642244143], [121.37008193453906, 23.622638307527346], [121.38181961955995, 23.747186745911844], [121.00704139168178, 23.636895455995532], [120.65551826927422, 22.71444529950382], [120.48934370231791, 22.879423005245535], [120.6810835872675, 23.859200770451697], [120.67012842440555, 23.864822638890246], [120.93673676720027, 24.040273162265553], [120.57761972658484, 24.40913845365453], [120.57515330309066, 24.411671828342936], [120.67415966388488, 24.55134576351594], [120.694702, 24.59638600000011], [120.697746, 24.60083], [120.72771726931316, 24.62690254035939], [120.85697463473437, 24.80925329776172], [120.90708832887697, 24.84496432147109], [120.921097, 24.875828], [120.951393, 24.92332800000014], [120.958702, 24.933046], [121.00166300000012, 25.001663], [121.00916300000017, 25.008888], [121.058319, 25.047218], [121.062759, 25.049999], [121.19470200000012, 25.109997000000135], [121.223602, 25.115551], [121.275871, 25.118906], [121.310532, 25.126106], [121.338593, 25.132496], [121.363037, 25.14333], [121.371918, 25.149162], [121.375526, 25.152775], [121.384987, 25.157497], [121.390549, 25.15888600000011], [121.396942, 25.159161], [121.409416, 25.155273000000136], [121.4180530000001, 25.149162], [121.441109, 25.129103], [121.444122, 25.134743], [121.396942, 25.176105], [121.394707, 25.18055], [121.39498900000012, 25.186939], [121.398041, 25.191105], [121.435257, 25.236660000000143], [121.44274900000016, 25.243885], [121.476089, 25.26888700000012], [121.4805530000001, 25.271942], [121.512497, 25.281666], [121.51805100000013, 25.282776], [121.559418, 25.284164], [121.56694, 25.283054], [121.583328, 25.275829], [121.598038, 25.26722], [121.606934, 25.26083], [121.610809, 25.2575], [121.616928, 25.249439], [121.636658, 25.214439], [121.68127400000014, 25.168667], [121.734711, 25.138885], [121.788597, 25.126583], [121.881653, 25.114719], [121.999153, 25.01083], [122.002213, 25.006943], [122.001099, 25.000275], [121.99720800000011, 24.99666200000013], [121.992752, 24.993885], [121.978317, 24.986938], [121.96951300000012, 24.985033], [121.947197, 24.976383], [121.913879, 24.959995], [121.882477, 24.93277400000011], [121.878593, 24.929161000000136]]]}}, {"type": "Feature", "properties": {"NAME": "New France", "SUBJECTO": "France", "BORDERPRECISION": 1, "DE": "sin datos", "MAPA": "world_1700.geojson", "MOTIVO": "valle del San Lorenzo (Montreal, 1642) dentro de Nueva Francia", "FUENTE": "https://en.wikipedia.org/wiki/New_France", "ORIGEN_GEOMETRIA": "world_1783 Quebec (recortado al sur de 50° N)", "AREA_KM2": 320536}, "geometry": {"type": "MultiPolygon", "coordinates": [[[[-73.44873721956854, 47.063947592686226], [-73.68327440467164, 45.656724482067666], [-71.63107403501957, 46.0085302597223], [-69.92385055538671, 46.24564463189353], [-70.07698532620313, 45.94710501284961], [-70.5894288686836, 45.294620119050784], [-71.11182877102735, 45.35020788760547], [-71.2928971914375, 45.3232494220293], [-71.45621964016797, 45.127643190339846], [-71.53464981594922, 44.95860632510547], [-72.02667709866407, 45.00128134341602], [-72.86158463040235, 45.00320395083789], [-73.00128251287805, 45.0048535206267], [-72.99612784508847, 45.02175112566054], [-74.7776438735629, 45.02175112566054], [-74.88751972520186, 44.95542966566225], [-75.21803757229688, 44.776839815095705], [-75.45849319973829, 44.63969763369922], [-76.13288973210057, 44.326666671896945], [-76.357065225, 44.2601069], [-76.46298705000001, 44.243476325], [-76.44859455, 44.277386775], [-76.5862093, 44.23346285], [-76.8758313, 44.11170455], [-77.03485635, 44.058924425], [-77.06328445000001, 44.075122475], [-77.029225675, 44.1007872], [-76.932680025, 44.1359186], [-76.884787225, 44.15882875], [-76.885547275, 44.16951765], [-76.89721895000001, 44.17485835], [-76.91980224999999, 44.17485085], [-76.93157104999999, 44.181585625], [-76.93252535, 44.195062675], [-76.966712625, 44.1776418], [-77.034132875, 44.129323], [-77.0371744, 44.141380775], [-76.9758372, 44.213815125], [-76.950951625, 44.24654665], [-76.962517675, 44.23957535], [-76.973807075, 44.226885625], [-76.984819825, 44.208477475], [-77.00181615, 44.199459325], [-77.02479605, 44.199831175], [-77.07485645, 44.189339025], [-77.15199735, 44.167982875], [-77.230864975, 44.15916715], [-77.31145932499999, 44.16289185], [-77.414444175, 44.140022125], [-77.53981952500001, 44.090557975], [-77.5300751, 44.08654465], [-77.3852109, 44.12798215], [-77.311789375, 44.130016225], [-77.309810525, 44.092646875], [-77.248359825, 44.098923675], [-77.127437275, 44.148846625], [-77.08436087499999, 44.132538925], [-77.119130625, 44.050000575], [-77.129760075, 44.017243475], [-77.116249225, 44.034267625], [-77.08042, 44.041919975], [-77.0222724, 44.040200525], [-76.9557191, 44.057128475], [-76.8807601, 44.092703825], [-76.895384325, 44.062621575], [-76.96354439257618, 44.0], [-77.60719519140777, 44.0], [-77.622794675, 44.010243675], [-77.78349389597733, 44.0], [-80.0, 44.0], [-80.0, 44.85076317927142], [-79.99440322499999, 44.8526295], [-79.950714925, 44.8417129], [-79.949700975, 44.7910809], [-79.946659175, 44.767006075], [-79.94158952500001, 44.769488425], [-79.937306775, 44.78012285], [-79.933810925, 44.79890935], [-79.92033575, 44.80930895], [-79.89688125, 44.81132165], [-79.886527225, 44.797264675], [-79.889273675, 44.767138025], [-79.831520925, 44.747810025], [-79.713268975, 44.739280675], [-79.6713068, 44.749804575], [-79.7056344, 44.779381725], [-79.7108719, 44.799315975], [-79.6870193, 44.809607325], [-79.675348075, 44.83211125], [-79.675858225, 44.86682775], [-79.693740675, 44.882016375], [-79.728995425, 44.877677125], [-79.743583475, 44.871175275], [-79.737504825, 44.862510825], [-79.726172075, 44.85277045], [-79.70958522500001, 44.84195415], [-79.7026564, 44.836658975], [-79.7053856, 44.836884925], [-79.70074775, 44.83491705], [-79.68874285, 44.83075535], [-79.69553785, 44.82628065], [-79.72113275000001, 44.82149295], [-79.7333226, 44.812243275], [-79.7321074, 44.798531625], [-79.7468371, 44.796441825], [-79.7775117, 44.805973875], [-79.799131025, 44.8410799], [-79.81169507499999, 44.9017599], [-79.85134614999998, 44.9436775], [-79.91808425, 44.9668327], [-79.932333725, 44.988493425], [-79.894094575, 45.008659675], [-79.930695825, 45.0354616], [-80.0, 45.05625602723595], [-80.0, 45.09645106936928], [-79.967116275, 45.10009135], [-79.978024075, 45.1289717], [-80.0, 45.138673763678746], [-80.0, 47.2012755004129], [-79.97040854151271, 47.19745724770486], [-77.8915334739086, 47.19745724770486], [-76.05252860641265, 47.75715438129058], [-74.61330740576365, 47.59724091455181], [-72.7743025382677, 49.1164188485702], [-72.24415384740982, 50.0], [-66.93632502547146, 50.0], [-67.0963639883125, 49.82562979312305], [-67.18860336819532, 49.576304994539065], [-67.31770798245313, 49.42533453555469], [-67.58378311673047, 49.33966024966602], [-68.06532761135938, 49.29287298770313], [-68.30696579495313, 49.22692068667774], [-68.80112167874219, 48.97719534488086], [-69.14960190335157, 48.734481416658205], [-69.50712296048047, 48.459212861970705], [-69.65325638333204, 48.295604310945315], [-69.80172440091016, 48.190806947664065], [-73.44873721956854, 47.063947592686226]]], [[[-69.25392624417188, 48.12005575747852], [-68.34129044094922, 48.546458803132815], [-67.78133102932813, 48.72406729312305], [-67.35399553963548, 48.845890707072265], [-66.43519489122934, 45.13295071256959], [-66.50201126614454, 45.18606527896289], [-66.96033188382032, 45.210155092195315], [-67.0159425405586, 45.143905244783205], [-67.18675705471875, 45.25231894107227], [-67.27174088040235, 45.183658204988284], [-67.34384628811719, 45.314559541658205], [-67.25745865383985, 45.34921606631641], [-67.26611801663282, 45.464759431794924], [-67.20206162014844, 45.495582185701174], [-67.22073074856641, 45.56493338199024], [-67.32132431546094, 45.56493338199024], [-67.59396835842969, 45.66897924991016], [-67.55923935452344, 45.77224691958789], [-67.698536839875, 47.0410114154375], [-67.77693649807813, 47.16450461001758], [-67.9964112905586, 47.29381140323047], [-68.34302231350782, 47.305003725007815], [-68.52740952053907, 47.22569616885547], [-68.6989030508125, 47.263927064851565], [-68.92590805569532, 47.42587622256641], [-69.04906937161329, 47.46438177676563], [-69.33331772366407, 47.22787054629688], [-69.39573245860218, 47.151819964990864], [-69.25392624417188, 48.12005575747852]]]]}}]}