{"type": "FeatureCollection", "features": [{"type": "Feature", "properties": {"NAME": "France", "SUBJECTO": "France", "BORDERPRECISION": 1, "DE": "Baden", "MAPA": "world_1815.geojson", "MOTIVO": "Estrasburgo y la orilla izquierda del Rin en Alsacia, francesas desde 1681: el polígono de Baden cruza el Rin", "FUENTE": "https://en.wikipedia.org/wiki/Strasbourg", "AREA_KM2": 470}, "geometry": {"type": "Polygon", "coordinates": [[[7.68064263781665, 48.358523927644534], [7.704579386321289, 48.519576631501955], [7.729077848998291, 48.615619264558596], [7.8, 48.675554937072604], [7.8, 48.2], [7.543521628712165, 48.2], [7.68064263781665, 48.358523927644534]]]}}]}