{"type": "FeatureCollection", "features": [{"type": "Feature", "properties": {"NAME": "Genoa", "SUBJECTO": "Genoa", "BORDERPRECISION": 1, "DE": "Milan", "MAPA": "world_1700.geojson", "MOTIVO": "Córcega, genovesa hasta 1768 (Tratado de Versalles)", "FUENTE": "https://en.wikipedia.org/wiki/Republic_of_Genoa", "AREA_KM2": 8679}, "geometry": {"type": "Polygon", "coordinates": [[[9.458552393523437, 42.55605658145313], [9.486711535063964, 42.4063793048418], [9.45250895938037, 42.04830511660938], [9.35745624026416, 41.90121039004688], [9.30453875979541, 41.575267396882815], [9.173024210540039, 41.34990652652149], [9.038939509001953, 41.36949881167774], [9.01326850375293, 41.457679353669924], [8.828752550688964, 41.49197729678516], [8.726921114531738, 41.56056936831836], [8.85464862307666, 41.65367849917774], [8.823254618254882, 41.68797644229297], [8.62692645510791, 41.73208960147266], [8.74244979342578, 41.8815990314043], [8.692829165068847, 41.913463197664065], [8.561865839568359, 41.8815990314043], [8.537932428923828, 41.94778021426563], [8.589588198271972, 41.957591615632815], [8.668312105742675, 42.02868612857227], [8.626454386321289, 42.09734304995899], [8.510698351470214, 42.13412436099414], [8.51724627932666, 42.20770224185352], [8.628421816436035, 42.26165731997852], [8.500446352568847, 42.359778963044924], [8.60930064639209, 42.48734625430469], [8.879002604094726, 42.624766908601565], [9.000392946807128, 42.63458975406055], [9.018427881804687, 42.69103964419727], [9.149460825530273, 42.710670076326174], [9.237692865935546, 42.664039216951174], [9.280391726104003, 42.727855287507815], [9.270520243254882, 42.882510744050784], [9.303189310637695, 42.983192048982424], [9.367051157561523, 42.988101564363284], [9.414238962737304, 42.90952643008594], [9.432161364165527, 42.79413565249805], [9.405494722930175, 42.58059652896289], [9.458552393523437, 42.55605658145313]]]}}, {"type": "Feature", "properties": {"NAME": "Manchu Empire", "SUBJECTO": "Manchu Empire", "BORDERPRECISION": 1, "DE": "Post-Ming Warlords", "MAPA": "world_1700.geojson", "MOTIVO": "fin de los Ming del Sur (1662) y de los Tres Feudatarios (1681): el sur de China es Qing en 1700", "FUENTE": "https://en.wikipedia.org/wiki/Southern_Ming", "AREA_KM2": 877389}, "geometry": {"type": "MultiPolygon", "coordinates": [[[[115.86004928073046, 22.83609541507129], [115.70670608004687, 22.638873659089846], [115.54251388033984, 22.695684038118166], [115.30879500826953, 22.771407686189455], [115.18552688082812, 22.745751939729494], [115.04353621920703, 22.599364839509768], [114.84781173190234, 22.510015092805666], [114.55874923190234, 22.464948259309573], [114.53746322116015, 22.674502931550784], [114.30387404879687, 22.64860113711719], [113.98913863619921, 22.55266722293262], [113.845164332, 22.463439546541018], [113.71678451022265, 22.482215486482424], [113.53598311862109, 22.704146944001955], [113.4625730844414, 22.77385290713672], [113.37662032565234, 22.646646104768557], [113.41929152926562, 22.570508562043948], [113.39908889254687, 22.47519262881641], [113.37770369967578, 22.16390760989551], [113.28367904147265, 22.030330263093752], [113.09672072848437, 21.979121767], [112.87131026705859, 22.061215959504885], [112.81556228121875, 21.934060655549807], [112.81533339938281, 21.826074205354494], [112.74952224215625, 21.756068788484377], [112.47251418551562, 21.73007734866504], [112.30786422213671, 21.678912721589846], [112.03952315768359, 21.65928991885547], [111.83120254000781, 21.754121385530276], [111.73399642428515, 21.709455095247073], [111.53608230075, 21.493072114900393], [111.43422225436328, 21.461099229768557], [111.08559707125781, 21.479402147249026], [110.74959853610156, 21.37706335635547], [110.56641677340625, 21.23057707400684], [110.36344436129687, 21.24285276980762], [110.23882583102343, 21.280696474031252], [110.23382094821093, 21.25528486819629], [110.20257094821093, 21.096425615266604], [110.07242873629687, 20.91828878970508], [110.0772199960625, 20.867482744172854], [110.29317000826953, 20.582110963777346], [110.41411879977343, 20.52519568057422], [110.43365767916796, 20.436297975496096], [110.2712889047539, 20.315265260652346], [109.92825606783984, 20.244672380403323], [109.7115965219414, 20.56816252322559], [109.60293105563281, 20.879180513337893], [109.60814956149218, 21.057046495393557], [109.78676131686328, 21.406783662751955], [109.77981856783984, 21.482984147981448], [109.51607802828906, 21.596772752717776], [109.41431716403125, 21.56479414554004], [109.32187941989062, 21.43120153994922], [109.11740401705859, 21.39900930972461], [108.8130369516289, 21.493642412141604], [108.55499556979296, 21.823396287874026], [108.46664718112109, 21.785104356721682], [108.45892623385546, 21.708860002473635], [108.38727096041796, 21.530852876619143], [108.2659406991875, 21.47342451663379], [108.11670211276171, 21.498511873201174], [107.90002730807421, 21.4790054187334], [107.87561324557421, 21.462068162874026], [107.78662398776171, 21.526309572175784], [107.37752822360156, 21.574723802522463], [107.09811690768359, 21.649287782625002], [106.67344191989062, 21.92616995425586], [106.55055526217578, 22.09053763003711], [106.5073957773125, 22.325194917634768], [106.71983626803515, 22.662929140046877], [106.694529566375, 22.834197603181643], [106.58803084811328, 22.928811632112307], [106.23813918551562, 22.90773542971973], [105.94114211520312, 22.9314037189043], [105.59397414645312, 23.037318788484377], [105.31343368014453, 23.296004854158205], [105.17943099459765, 23.25078161807422], [104.94455245455859, 23.103391252473635], [104.63144210299609, 22.85396345706348], [104.47811416110156, 22.78323134036426], [104.11500075778125, 22.730329118684573], [103.39727309664843, 22.707110963777346], [103.24778274020312, 22.655440889314455], [102.985056910125, 22.469791017488284], [102.83884719332812, 22.513383470491213], [102.5703611703789, 22.689601503328127], [102.41698745211718, 22.695058427766604], [102.18545058688281, 22.636575303987307], [101.96785262545703, 22.533715806916994], [101.66243270358203, 22.392257295564455], [101.55436233004687, 22.2836929187334], [101.53504470309375, 22.137536607698244], [101.59694198092578, 21.871224962190432], [101.69947341403125, 21.70674093814258], [101.75289443453906, 21.47212751956348], [101.7037840219414, 21.31944426150684], [101.5841551156914, 21.223506532625002], [101.23848250826953, 21.259587846711916], [101.09374526461718, 21.353993974641604], [101.0139875741875, 21.442420564607424], [100.94498733004687, 21.549958787874026], [100.89465621432421, 21.721107088044924], [100.61217025241015, 21.535323701814455], [100.32079604586718, 21.463782869294924], [100.20995620211718, 21.5012222156084], [100.0402098031914, 21.62087782473926], [99.88666823825, 21.956513963655276], [99.75549605807421, 22.12718351931934], [99.53885940035937, 22.10688742251758], [99.31092360934375, 22.105556093171877], [99.20855239352343, 22.14940794558887], [99.15594008883593, 22.307843767122073], [99.4835691781914, 23.0208755359209], [99.46892837008593, 23.14143332095508], [99.23398879489062, 23.184506975129885], [98.98499587496875, 23.151317201570315], [98.8939695688164, 23.296832643464846], [98.76916030367968, 24.08975752444629], [98.69875625094531, 24.146489702180666], [98.48349288424609, 24.138892732576174], [98.13675216158984, 24.098785005525393], [97.76786330660937, 23.89982946963672], [97.62800887545703, 23.860911928132815], [97.53059676608203, 23.89210470767383], [97.53085616549609, 24.01274450869922], [97.63116744479296, 24.273633562043948], [97.55812362155078, 24.59066542239551], [97.52405074557421, 24.799996934846682], [97.80182174166796, 25.18251761050586], [97.88796523532031, 25.27188452334766], [98.10718062838671, 25.393762193635744], [98.38228896578906, 25.63022192569141], [98.57541182955859, 25.955068193391604], [101.37617597486758, 26.937474162834242], [103.75250515786342, 28.363271672631758], [106.12883434085927, 28.838537509230928], [108.02989768725595, 28.046427781565637], [111.51518048898322, 24.56114497983839], [116.08469680270312, 22.88737829776172], [115.86004928073046, 22.83609541507129]]], [[[108.93858626803515, 18.33060225100879], [108.6519270273125, 18.482448183015627], [108.5604734750664, 19.06029661746387], [108.57689956149218, 19.18737181277637], [108.68497756442187, 19.295583330110354], [108.87368300875781, 19.40395887942676], [109.19816115817187, 19.684140764192385], [109.420115503875, 19.659205995515627], [109.44225600680468, 19.7354751452959], [109.55032638033984, 19.913556657747073], [109.65765670260546, 19.901086412385744], [109.91588118991015, 19.800006471589846], [110.0606184335625, 19.940053544954104], [110.25832656344531, 19.940475069001955], [110.61735061129687, 20.017461381868166], [110.88536361178515, 19.706782899812502], [110.81180861910937, 19.630410753206057], [110.61250594576953, 19.471187196687502], [110.42703536471484, 19.22941931338672], [110.29871657809375, 18.898843370393557], [110.36146834811328, 18.765576921418948], [110.26251510104296, 18.625627122834963], [110.13131240328906, 18.587236009553713], [109.66907027682421, 18.41473539920215], [109.42965224703906, 18.096622072175784], [108.93858626803515, 18.33060225100879]]]]}}, {"type": "Feature", "properties": {"NAME": "Manchu Empire", "SUBJECTO": "Manchu Empire", "BORDERPRECISION": 1, "DE": "Dutch Formosa", "MAPA": "world_1700.geojson", "MOTIVO": "Formosa neerlandesa 1624-1662, Tungning 1662-1683, Qing desde 1683", "FUENTE": "https://en.wikipedia.org/wiki/Dutch_Formosa", "AREA_KM2": 16231}, "geometry": {"type": "Polygon", "coordinates": [[[120.67012842440555, 23.864822638890246], [120.6810835872675, 23.859200770451697], [120.48934370231791, 22.879423005245535], [120.65551826927422, 22.71444529950382], [121.00704139168178, 23.636895455995532], [121.38181961955995, 23.747186745911844], [121.37008193453906, 23.622638307527346], [121.32531264742968, 23.400237642244143], [121.18240645846484, 23.03791006656055], [120.96973708590625, 22.719880662874026], [120.78197768649218, 22.34474142642383], [120.77584365328906, 22.18593557925586], [120.72464278658984, 21.988931261018557], [120.62239364108203, 21.92519911380176], [120.57657912692187, 21.950509630159182], [120.52810195407031, 22.096486650422854], [120.11343673190234, 22.6418529376543], [119.96409133395312, 23.086133562043948], [119.95028212985156, 23.28300818057422], [120.02075484713671, 23.61978491397266], [120.26632216891406, 23.97598608584766], [120.3162502807665, 24.046422528539278], [120.67012842440555, 23.864822638890246]]]}}, {"type": "Feature", "properties": {"NAME": "Portuguese Brazil", "SUBJECTO": "Portugal", "BORDERPRECISION": 1, "DE": "Dutch Brazil", "MAPA": "world_1700.geojson", "MOTIVO": "Brasil neerlandés, 1630-1654 (cesión en 1661)", "FUENTE": "https://en.wikipedia.org/wiki/Dutch_Brazil", "AREA_KM2": 339140}, "geometry": {"type": "Polygon", "coordinates": [[[-49.881039586457035, 1.576098166421694], [-49.86389252224805, 1.328292690233035], [-49.88430496731641, 1.213871084169192], [-50.120079961212895, 1.054482541993899], [-50.53970810452344, 0.41811104865436], [-50.64682480374219, 0.271723441795153], [-50.876149144562504, 0.086943469957156], [-51.06051346341016, -0.016971983], [-51.17041870633008, -0.078918591126161], [-51.529381719025395, -0.429196335359769], [-51.77415176907422, -0.855490602537351], [-51.96263977566602, -1.313421286627012], [-52.143490758332035, -1.517160214468198], [-52.02156158963086, -1.56772879509564], [-51.79126450100782, -1.535458125158506], [-51.56783768216016, -1.44600860027905], [-51.02714630642774, -1.127111591383176], [-50.976777043732426, -1.114295281454282], [-50.84198853054883, -1.514342822118955], [-50.6431398061836, -1.882471717878538], [-50.528473821076176, -1.933060564085203], [-50.39929291287305, -1.964546956106382], [-49.888607945832035, -1.950738109632688], [-49.884914663632145, -1.950377527037857], [-49.622338261994145, -1.924741663023191], [-49.29055496731641, -1.790577329679685], [-49.41520020047071, -2.0958658829176], [-49.42279907742383, -2.358843244596677], [-49.22114655056836, -2.108145631834226], [-48.656884160431645, -1.655764736219602], [-48.527028050812504, -1.58557752518292], [-48.38951965847852, -1.413708962484556], [-48.16512009182813, -0.993826545759397], [-48.042530980500004, -0.815624035879331], [-47.92744537869336, -0.770901240392881], [-47.47448059597852, -0.769916810079771], [-47.316220250519535, -0.680611468836027], [-47.23713776150586, -0.680439271017271], [-46.92829987088086, -0.927592195554929], [-46.63376328030469, -1.047699965521055], [-46.48993774929883, -1.03467158226605], [-46.123593297394535, -1.16097716240521], [-45.642567601593754, -1.36327151207562], [-45.4921273855293, -1.490044988676267], [-45.37131592312696, -1.756672538801389], [-46.35766361314768, -3.1936563237538], [-47.15173918187139, -2.966777589832745], [-48.73989031931879, -3.420535057674854], [-50.10116272284513, -3.1936563237538], [-53.0522924142, -2.527937429709489], [-58.92322145171103, -3.652157883700966], [-59.672701754372014, -3.277417732370473], [-59.29796160304153, -2.652850813486317], [-58.421773108119865, -2.305681787196602], [-52.6775522628695, -0.029669754172872], [-50.554928746613285, 1.968626819566531], [-50.40909287014844, 1.822782956079287], [-49.969208684357426, 1.72841640563373], [-49.881039586457035, 1.576098166421694]]]}}, {"type": "Feature", "properties": {"NAME": "Jamaica (England)", "SUBJECTO": "England", "BORDERPRECISION": 1, "DE": "Cuba (Spain)", "MAPA": "world_1700.geojson", "MOTIVO": "Jamaica, inglesa desde 1655 (world_1715 ya la pone británica)", "FUENTE": "https://en.wikipedia.org/wiki/Invasion_of_Jamaica", "AREA_KM2": 9038}, "geometry": {"type": "Polygon", "coordinates": [[[-77.42530533352735, 17.831100069001955], [-77.73733994046094, 17.932134233430666], [-77.84049698391797, 18.05268820376758], [-78.05180832425, 18.217500291780276], [-78.26112839260938, 18.25519522281055], [-78.32486435452344, 18.35040434451465], [-78.08641525784375, 18.478032670930666], [-77.76949783841016, 18.510497652009768], [-77.15585037747266, 18.39738615603809], [-76.71915909329297, 18.239417634919924], [-76.42635056057813, 18.1192642077959], [-76.30068680325391, 17.99240645022754], [-76.31858536282422, 17.90338858218555], [-76.46769424954297, 17.871293626741213], [-76.80554672757032, 18.004052720979494], [-77.05025955716016, 17.978101335481448], [-77.15228745022657, 17.86346586795215], [-77.29082962551954, 17.805966936067385], [-77.42530533352735, 17.831100069001955]]]}}, {"type": "Feature", "properties": {"NAME": "France", "SUBJECTO": "France", "BORDERPRECISION": 1, "DE": "Holy Roman Empire", "MAPA": "world_1700.geojson", "MOTIVO": "Alsacia francesa (Westfalia 1648 y reuniones; Estrasburgo, 1681); geometría de France en world_1715 recortada al este de 6,85° E (sin Lorena, devuelta al duque en Ryswick, 1697)", "FUENTE": "https://en.wikipedia.org/wiki/Strasbourg", "AREA_KM2": 10823}, "geometry": {"type": "MultiPolygon", "coordinates": [[[[7.506581816283447, 47.60370596499805], [7.582543780679759, 47.57865507740098], [7.582543780679757, 47.57865507740098], [7.506581816283447, 47.60370596499805]]], [[[7.333420309630615, 47.464664064363284], [7.120884451476318, 47.46775396914844], [7.12291673144458, 47.51100119204883], [6.921917471495849, 47.51408728213672], [6.880773098325688, 47.45757755836937], [6.85, 47.41531225811415], [6.85, 49.1], [7.46509117210684, 49.1], [7.465429815856201, 49.09933432193164], [7.670458349791748, 49.05900915713672], [7.885707888213378, 49.06520804019336], [8.15829566439746, 48.97834738345508], [7.729077848998291, 48.615619264558596], [7.704579386321289, 48.519576631501955], [7.68064263781665, 48.358523927644534], [7.536028418151123, 48.19133719058399], [7.502136263457519, 48.058272920564455], [7.543118509856445, 48.02423056216602], [7.445963415709716, 47.70879324527149], [7.506581816283447, 47.60370596499805], [7.333420309630615, 47.464664064363284]]]]}}, {"type": "Feature", "properties": {"NAME": "Manchu Empire", "SUBJECTO": "Manchu Empire", "BORDERPRECISION": 1, "DE": "central Asian khanates", "MAPA": "world_1700.geojson", "MOTIVO": "Jalja (Mongolia exterior), sometida a los Qing en Dolon Nor (1691); geometría Qing de world_1715", "FUENTE": "https://en.wikipedia.org/wiki/Dolon_Nor", "AREA_KM2": 1141136}, "geometry": {"type": "Polygon", "coordinates": [[[120.38680943883438, 46.42337346340023], [107.71305379618983, 43.254934552739094], [103.55574918406575, 39.90003124504451], [104.56169132956441, 41.48079747368525], [103.26833714249472, 42.48673961918393], [103.26833714249472, 43.06156370232602], [104.70539735034994, 44.2112118686102], [104.27427928799338, 44.92974197253782], [101.83127693463948, 45.36086003489438], [100.39421672678424, 45.50456605567991], [99.38827458128559, 47.229038305106194], [99.53198060207112, 48.66609851296142], [99.94695170128689, 49.49604071139297], [104.44306402103082, 48.191209997671805], [107.35010144947098, 49.9324988704307], [107.54907515963671, 49.827098451570315], [108.05832198580859, 49.68619116397266], [108.42351821383593, 49.518477998689455], [109.01690200289843, 49.40423163028125], [109.42404464205859, 49.2955394610918], [109.86690047701953, 49.25878103824024], [110.19990828951953, 49.24101599307422], [110.92029097994921, 49.29046591372852], [111.37829116305468, 49.31900366397266], [111.61783889254687, 49.352862916902346], [112.00812056979296, 49.400584779695315], [112.52449325045703, 49.462020479158205], [112.76120284518359, 49.53502234073047], [113.03313735446093, 49.65389975161914], [113.2346906991875, 49.83119162173633], [113.57440474948046, 50.05522497744922], [114.098338160125, 50.27434881778125], [114.24833205660937, 50.275149904207034], [114.52263930758593, 50.296275697664065], [114.8555403085625, 50.22592505069141], [115.19365981539843, 49.998336397126955], [115.34658339938281, 49.94032248111133], [115.7336912485039, 49.864032350496096], [116.2861814828789, 49.99759253116016], [116.56601241549609, 50.005626283601565], [116.75977614840625, 49.92989309878711], [116.78053573092578, 49.92182119937305], [116.984080347625, 49.844562135652346], [117.4905271860039, 49.58627661319141], [117.64499190768359, 49.593623720125], [117.84202102145312, 49.633800111726565], [118.94031051119921, 49.972457490876955], [119.29120162448046, 50.124984346345705], [119.34646132907031, 50.23013266177539], [119.32166579684375, 50.36770971866016], [119.16393569430468, 50.524356447175784], [119.13661483248828, 50.589854799226565], [119.18234542330859, 50.70172079654102], [119.37221053561328, 50.893287263826174], [119.55948165377734, 51.13756521792774], [119.85977462252734, 51.488074861482424], [120.1289778085625, 51.73335989566211], [120.74595168551562, 52.00712927432422], [120.8210935922539, 52.36420401187305], [120.77311233004687, 52.47634466739063], [120.56357100924609, 52.61416205020313], [120.31287673434375, 52.62606009097461], [119.94269088229296, 52.59101828189258], [119.99654677828906, 52.703815065339846], [120.16528609713671, 52.83050116153125], [120.70224288424609, 53.184520326570315], [120.91705611666796, 53.258617006257815], [121.18775466403125, 53.31972845645313], [121.67482689332648, 53.357142464010835], [121.66089769115479, 53.76041628506195], [120.92110683236578, 53.834395370940854], [121.06906500412359, 54.27826988621427], [120.92110683236578, 54.50020714385097], [121.21702317588138, 54.722144401487675], [121.29100226176028, 55.092039830882186], [121.73487677703369, 55.38795617439779], [121.9568140346704, 55.905809775550104], [122.69660489345942, 55.97978886142901], [123.51037483812735, 56.423663376702414], [124.10220752515855, 56.275705204944614], [124.54608204043197, 56.275705204944614], [124.91597746982647, 56.20172611906572], [126.54351735916231, 56.49764246258132], [126.91341278855683, 56.49764246258132], [127.58098302158292, 56.61544897429181], [120.38680943883438, 46.42337346340023]]]}}, {"type": "Feature", "properties": {"NAME": "Ottoman Empire", "SUBJECTO": "Ottoman Empire", "BORDERPRECISION": 1, "DE": "Austrian Empire", "MAPA": "world_1700.geojson", "MOTIVO": "Karlowitz (1699): Austria gana Hungría, Transilvania y Croacia-Eslavonia, pero no Belgrado ni Moldavia; geometría otomana de world_1715 en los Balcanes", "FUENTE": "https://es.wikipedia.org/wiki/Tratado_de_Karlowitz", "AREA_KM2": 72095}, "geometry": {"type": "MultiPolygon", "coordinates": [[[[22.222762230434412, 44.59520562585108], [22.29590133151172, 44.691852174714846], [22.409525904265625, 44.75029715152149], [22.34319472763412, 44.98598391985518], [22.39533262805393, 45.272742372164124], [22.47820452750987, 45.728537819171805], [23.018243727012873, 45.86354761904756], [23.254510876795436, 46.06606231886118], [23.558282926515876, 45.897300069016495], [23.79455007629844, 46.06606231886118], [24.06456967604994, 46.09981476883012], [24.402094175739318, 45.897300069016495], [24.942133375242317, 45.96480496895437], [25.41639297421069, 45.82531685161073], [22.744905768335666, 44.55943740221232], [22.222762230434412, 44.59520562585108]]], [[[20.944482794901294, 44.68277117326121], [21.0151036, 44.7204624], [21.149156, 44.7392013], [21.3299595, 44.8203606], [21.36388944298775, 44.82027002939052], [21.367487940398437, 44.80874975772266], [21.47765258273242, 44.79280050845508], [21.583313974944335, 44.79280050845508], [21.591851267424804, 44.707782350496096], [21.858902964202148, 44.68122061343555], [21.94650939425586, 44.618777833894534], [21.955650539110618, 44.613503488446874], [20.944482794901294, 44.68277117326121]]], [[[18.0, 44.884476090517964], [18.0, 45.1223216876543], [18.03740600070117, 45.1223216876543], [18.087628397551757, 45.09218939395313], [18.12847557202593, 45.078574530937686], [18.147896799651367, 45.072101198152346], [18.208163294402343, 45.09218939395313], [18.258387598601562, 45.1223216876543], [18.328700098601562, 45.10223349185352], [18.393988642302734, 45.10223349185352], [18.42412284335254, 45.09218939395313], [18.49443534335254, 45.05703314395313], [18.53963569125293, 45.0520091876543], [18.58483603915332, 45.09218939395313], [18.650126490203125, 45.072101198152346], [18.715415033904296, 45.04698904605274], [18.725459131804687, 44.99676474185352], [18.7807054849541, 44.991744600251955], [18.800795588103515, 44.95156439395313], [18.775683436003906, 44.90636404605274], [18.84097388705371, 44.851119600251955], [18.93137458285449, 44.841075502351565], [19.016753229705078, 44.851119600251955], [19.051909479705078, 44.85613974185352], [19.016753229705078, 44.896319948152346], [19.041865381804687, 44.92645224185352], [19.082043680754882, 44.911388002351565], [19.122221979705078, 44.92645224185352], [19.11719802340625, 44.96160849185352], [19.10715392550586, 44.99676474185352], [19.122221979705078, 45.03192099185352], [19.102131876555664, 45.062057100251955], [19.102131876555664, 45.13236578555469], [19.137288126555664, 45.13236578555469], [19.182488474456054, 45.17254599185352], [19.16742232760547, 45.20267828555469], [19.18751052340625, 45.20770224185352], [19.21262267550586, 45.20267828555469], [19.242756876555664, 45.18259008975391], [19.277913126555664, 45.177569948152346], [19.308045420256835, 45.18761404605274], [19.348225626555664, 45.17254599185352], [19.40849212130664, 45.16752203555469], [19.423558268157226, 45.1926341876543], [19.41907379018727, 45.2240272366259], [19.5435117, 45.2525517], [19.5870007, 45.2104505], [19.8534227, 45.2359839], [19.8724406, 45.2643405], [20.0242317, 45.17267769999999], [20.19619, 45.18057550000001], [20.240644265461075, 45.15477461274938], [20.24064426546108, 45.15477461274937], [20.318696412206304, 44.99867031925892], [20.2880502, 44.9708808], [20.3340143, 44.9152485], [20.4053377, 44.8551803], [20.525478, 44.830047], [20.57057436648939, 44.84739634044162], [20.592594658976004, 44.83679397739251], [20.643038307721937, 44.81250629466298], [20.6328844, 44.7566506], [20.715147247323987, 44.698481269352854], [18.0, 44.884476090517964]]], [[[26.524239254288243, 48.826951337822464], [26.98940102500732, 48.68075763845361], [27.107731508510145, 48.643568057924156], [27.107731508510145, 48.83258177775021], [27.485758948162246, 48.6705700178993], [27.485758948162246, 48.75157589782475], [27.647770708013145, 48.75157589782475], [27.70611861666797, 48.43969687075977], [27.72314170321582, 48.43402060122852], [27.819605860320312, 48.39430197329883], [27.882025751677734, 48.33755835147266], [27.944443735686523, 48.31486090274219], [28.01253608187793, 48.30918463321094], [28.057930979338867, 48.28081091494922], [28.080628428069335, 48.25244101138477], [28.11467460116504, 48.218394838289065], [28.160069498625976, 48.22406729312305], [28.216813120452148, 48.212718568757815], [28.29625419100879, 48.2297435626543], [28.347323450652343, 48.2297435626543], [28.358672175017578, 48.20136984439258], [28.318951639739257, 48.15597494693164], [28.301928553191406, 48.133277498201174], [28.347323450652343, 48.15030249209766], [28.387043985930664, 48.138953767732424], [28.387043985930664, 48.10490759463672], [28.41541579684375, 48.08221014590625], [28.426790289144513, 48.09737613564061], [28.90822219965315, 47.818388161083575], [29.01893667674427, 47.53237576193151], [25.506339036231456, 45.8679376327307], [25.448420124776383, 46.30232946864374], [25.65093482459001, 46.40358681855056], [25.853449524403636, 46.67360641830206], [26.190974024093013, 46.80861621817781], [26.292231373999822, 47.213645617805064], [25.684687274558947, 47.61867501743232], [25.24590542496276, 47.68617991737019], [25.380915224838507, 47.85494216721488], [25.78594462446576, 47.95619951712169], [26.12346912415514, 47.85494216721488], [26.12346912415514, 48.12496176696638], [26.359736273937703, 48.12496176696638], [26.16266290937989, 48.9405896176508], [26.524239254288243, 48.826951337822464]]]]}}, {"type": "Feature", "properties": {"NAME": "Safavid Empire", "SUBJECTO": "Safavid Empire", "BORDERPRECISION": 1, "DE": "Ottoman Empire", "MAPA": "world_1700.geojson", "MOTIVO": "Tratado de Zuhab (1639): Azerbaiyán, Ereván y Georgia oriental quedan en la órbita safávida; geometría safávida de world_1715 al norte de 36° N", "FUENTE": "https://en.wikipedia.org/wiki/Treaty_of_Zuhab", "AREA_KM2": 314981}, "geometry": {"type": "Polygon", "coordinates": [[[43.95678618868945, 42.59115561099414], [44.052519831267574, 42.55924566836719], [44.169531855193355, 42.612430177644534], [44.2971792550957, 42.612430177644534], [44.37163833102343, 42.686893068269534], [44.414187464324215, 42.729442201570315], [44.509924921599605, 42.76135214419727], [44.6694822641289, 42.76135214419727], [44.78649428805468, 42.729442201570315], [44.871592554656246, 42.66561850161914], [44.93541625460742, 42.74007757754688], [44.9779653879082, 42.771991334871096], [45.03115371188281, 42.771991334871096], [45.13752654513476, 42.71880301089649], [45.20135024508593, 42.676253877595705], [45.29708388766406, 42.676253877595705], [45.38218596896289, 42.62306936831836], [45.47791961154101, 42.54860647769336], [45.64811614474414, 42.54860647769336], [45.8076773019707, 42.5379711017168], [45.86086181124804, 42.47414740176563], [45.8076773019707, 42.389049135164065], [45.75448897799609, 42.25076254458789], [45.91405013522265, 42.12311514468555], [46.041697535124996, 42.04865225406055], [46.15870955905078, 42.00610312075977], [46.28635695895312, 41.98482855410938], [46.392729792205074, 41.995467744783205], [46.49910262545703, 41.96355398745899], [46.55577758273242, 41.878455720857424], [46.658659967986324, 41.88909491153125], [46.66929915866015, 41.81463202090625], [46.76503661593554, 41.83590658755664], [46.850134882537105, 41.83590658755664], [46.91395858248828, 41.75080832095508], [47.12670424899218, 41.62316092105274], [47.169253382292965, 41.56997641177539], [47.22243789157031, 41.56997641177539], [47.35008529147265, 41.442325197175784], [47.35008529147265, 41.30404242129688], [47.61601928195117, 41.261493287996096], [47.81812957247851, 41.197669588044924], [47.98832610568164, 41.218944154695315], [48.06278518160937, 41.31467779727344], [48.20107177218554, 41.463599763826174], [48.22371258025433, 41.4711466998491], [47.24856164173707, 42.78491050892555], [47.19483867485455, 43.37586314463319], [47.49336150607226, 43.58319052310352], [47.520335230437496, 43.51125677676563], [47.56529525241015, 43.601173006013674], [47.61025527438281, 43.7540355548418], [47.66420653781054, 43.85294684024219], [47.73614028414843, 43.86193808169727], [47.67319777926562, 43.66411551089649], [47.57428649386523, 43.502261720613284], [47.60126403292773, 43.322425447419924], [47.6552114816582, 43.27746542544727], [47.58327773532031, 43.18754919619922], [47.56529525241015, 43.007709108308596], [47.73614028414843, 42.89980658145313], [47.79009154757617, 42.85484655948047], [47.8440428110039, 42.62105902285938], [47.96992782076953, 42.59408529849414], [48.13178161105273, 42.40525396914844], [48.22170165499804, 42.279368959382815], [48.419524225798824, 42.09053763003711], [48.50044921359179, 41.92868383975391], [48.662303003874996, 41.901710115388674], [48.683238062468746, 41.83590658755664], [48.89249709567187, 41.68698462100391], [48.998869928923824, 41.516788087800784], [49.115881952849605, 41.43168982119922], [49.24352935275195, 41.29340323062305], [49.28607848605273, 41.05938299746875], [49.3499021860039, 40.9530101642168], [49.477549585906246, 40.836001954988284], [49.60519698580859, 40.761539064363284], [49.60519698580859, 40.687076173738284], [49.80730346163867, 40.58070334048633], [50.02005294283984, 40.60197790713672], [50.190249476042965, 40.57006796450977], [50.31789687594531, 40.49560507388477], [50.42426970919726, 40.410506807283205], [50.46681884249804, 40.32540854068164], [50.46681884249804, 40.26158484073047], [50.30725768527148, 40.32540854068164], [50.12642577609179, 40.346683107332034], [50.0306883188164, 40.346683107332034], [49.91368010958789, 40.32540854068164], [49.849856409636715, 40.2722240314043], [49.66902068575976, 40.24031027408008], [49.57328322848437, 40.17648657412891], [49.55200866183398, 40.091388307527346], [49.54137328585742, 39.87864264102344], [49.48818496188281, 39.76163061709766], [49.44563582858203, 39.655257783845705], [49.403086695281246, 39.48506125064258], [49.49882415255664, 39.37868841739063], [49.48818496188281, 39.293590150789065], [49.381812128630855, 39.32550009341602], [49.339262995330074, 39.28295096011524], [49.30735305270312, 39.1340289935625], [49.2754392953789, 39.01702078433399], [49.22225478610156, 39.03829535098438], [49.17970565280078, 39.14466818423633], [49.115881952849605, 39.18721731753711], [49.041419062224605, 39.14466818423633], [49.020144495574215, 39.00638159366016], [49.05205825289843, 38.931922517732424], [48.998869928923824, 38.878734193757815], [48.945681604949215, 38.836185060457034], [48.988230738249996, 38.71917685122852], [48.824954065886715, 38.3095775470293], [48.83150771578906, 38.306312166169924], [48.80918792208789, 37.98856695742969], [48.744780573455074, 37.72701605410938], [48.837229761687496, 37.51097448916797], [49.05953124484179, 37.397559724763674], [49.475806269255855, 37.291610322908205], [49.84801391085742, 37.26821478457813], [50.03871444186328, 37.22470434756641], [50.11132338961718, 37.097755037263674], [50.25221160372851, 36.894786439851565], [50.4693731329615, 36.74823225777081], [50.19549231726622, 36.0], [45.36345780806878, 36.0], [45.358653101531246, 36.014503084138674], [45.10513595065234, 36.50318869204883], [44.79458907565234, 37.13180502505664], [44.78417113741992, 37.270370088533205], [44.66005996188281, 37.28615912051563], [44.47119048556445, 37.45463141055469], [44.42675307711718, 37.64417990298633], [44.491763147917965, 37.754344545320315], [44.300913843718746, 37.80425222964649], [44.20520690402148, 37.8674274310625], [44.23192122897265, 37.92491491885547], [44.361460718718746, 38.16555746646289], [44.46447661837695, 38.29198034854297], [44.44704345187304, 38.384933076814455], [44.31755736788867, 38.476363740876955], [44.26924041232226, 38.42894323916797], [44.229075464812496, 38.481631837800784], [44.12827971896289, 38.702918611482424], [44.18318465670703, 38.871539674714846], [44.06482604464648, 39.173289857820315], [44.08210662325976, 39.29454763980274], [44.344885859099605, 39.41442068667774], [44.34892943820117, 39.609481416658205], [44.45294860324023, 39.67275198550586], [44.637278589812496, 39.66220434756641], [44.669585260955074, 39.75698813052539], [44.44808104952929, 39.95989187808399], [43.81239226779101, 40.01388128848438], [43.68453124484179, 40.109115205720705], [43.66971877535937, 40.2945514545], [43.85885909518359, 40.66039236636524], [43.84727004489062, 40.74996527285938], [43.489268335906246, 41.07472952456836], [43.47533706149218, 41.08736761660938], [42.87842467745898, 41.54550512881641], [43.95678618868945, 42.59115561099414]]]}}, {"type": "Feature", "properties": {"NAME": "Yemen (Zaydi Imamate)", "SUBJECTO": "Yemen (Zaydi Imamate)", "BORDERPRECISION": 1, "DE": null, "MAPA": "world_1700.geojson", "MOTIVO": "los otomanos, expulsados del Yemen en 1636 (imanato zaidí qasimí); geometría de Yemen de world_1500", "FUENTE": "https://en.wikipedia.org/wiki/Yemen_Eyalet", "AREA_KM2": 121016}, "geometry": {"type": "Polygon", "coordinates": [[[46.659412505469874, 15.424765841731508], [46.335271204734354, 14.096846193663826], [45.2608118670841, 13.828231359251259], [44.508690330728925, 14.096846193663826], [43.487953959961175, 16.621825637141917], [43.48795395996116, 16.621825637141917], [43.36274326591562, 17.22476677936304], [45.12344130704605, 17.96994671290794], [45.15184478305816, 17.98031335566592], [45.18114749408412, 17.98776827740736], [45.211051781644784, 17.99223575064528], [45.241253876414916, 17.99367039455165], [45.271446983928, 17.992057635938256], [45.30132440101057, 17.987413857291873], [45.33058263128911, 17.979786230360133], [45.35892446812225, 17.969252236978427], [45.38606201364139, 17.955918882005335], [46.42258428864673, 17.380073173669043], [46.446432142324234, 17.365325364252556], [46.46879892958693, 17.348415460788797], [46.48948925964685, 17.32949118406232], [46.50832238683647, 17.308717851930275], [46.525133789558716, 17.286276935146], [46.53977660750745, 17.262364472074857], [46.55212292460319, 17.237189356150992], [46.56206488643672, 17.210971511035325], [46.569515642458896, 17.183939969416198], [46.91761263280064, 15.643242872549846], [46.659412505469874, 15.424765841731508]]]}}, {"type": "Feature", "properties": {"NAME": "Yemen (Zaydi Imamate)", "SUBJECTO": "Yemen (Zaydi Imamate)", "BORDERPRECISION": 1, "DE": "Ottoman Empire", "MAPA": "world_1700.geojson", "MOTIVO": "los otomanos, expulsados del Yemen en 1636 (imanato zaidí qasimí); geometría de Yemen de world_1500", "FUENTE": "https://en.wikipedia.org/wiki/Yemen_Eyalet", "AREA_KM2": 77954}, "geometry": {"type": "Polygon", "coordinates": [[[43.48795395996116, 16.621825637141917], [43.487953959961175, 16.621825637141917], [44.508690330728925, 14.096846193663826], [45.2608118670841, 13.828231359251259], [46.335271204734354, 14.096846193663826], [46.711331972911935, 13.935677293016287], [46.87773410632187, 13.473871601441703], [46.601199183074215, 13.400545679048342], [46.079287561980465, 13.399416528657717], [45.825903925505855, 13.405233941987795], [45.69247725924609, 13.347759805635256], [45.51863769015429, 13.207596384004397], [45.39597991427539, 13.073898874238772], [45.19341567477343, 12.93368300052051], [44.963572535124996, 12.825172029451174], [44.78880217990039, 12.805737100557131], [44.681067499724605, 12.824559770540041], [44.44053557833789, 12.6397777423418], [44.062747034636715, 12.613552652314944], [43.84059050997851, 12.663913331941409], [43.60489847715067, 12.828886858386788], [43.56005004366992, 12.860278688386721], [43.483645472136715, 12.930004678682131], [43.340849909392574, 13.12666567416553], [43.30284789523242, 13.240954004243655], [43.38397887667773, 13.565180383638186], [43.347563776580074, 13.851036630586428], [43.20694259127734, 14.079471193269534], [43.05326369723437, 14.60650786013965], [42.79587844332812, 15.470080934480471], [42.763525995818355, 15.666981302217287], [42.883879694548824, 15.984922014192385], [42.82804778536914, 16.321475587800784], [42.81439879855273, 16.40412863345508], [42.76366332491992, 16.645455919221682], [42.62175610616843, 16.909677697843318], [42.646735497678165, 16.92173093296075], [43.36274326591562, 17.22476677936304], [43.48795395996116, 16.621825637141917]]]}}]}