{"type": "FeatureCollection", "features": [{"type": "Feature", "properties": {"NAME": "Vice Royalty of Peru", "SUBJECTO": "Spanish Habsburg", "BORDERPRECISION": 1, "DE": "Inca Empire", "MAPA": "world_1600.geojson", "MOTIVO": "el Imperio inca cayó en 1532-1533 y Vilcabamba en 1572; en 1600 es el Virreinato del Perú (mismo NAME y SUBJECTO que en world_1650)", "FUENTE": "https://en.wikipedia.org/wiki/Neo-Inca_State", "AREA_KM2": 1171948}, "geometry": {"type": "Polygon", "coordinates": [[[-66.6934585993106, -17.205973084076422], [-66.54293786209772, -18.267023785590155], [-66.54293786209772, -19.765984390912124], [-67.91698508364286, -22.014425298895077], [-67.6671583160892, -23.76321267177071], [-67.91698508364286, -26.261480347307323], [-71.41326809467435, -32.728882234513435], [-71.40336319485547, -32.64457742123242], [-71.44536301175, -32.54304925350781], [-71.5198487905586, -32.181175626798826], [-71.65150162258985, -31.241445936247068], [-71.69539352932813, -30.85409013180371], [-71.68157669583204, -30.60000077633496], [-71.49606796780469, -30.34556046871777], [-71.32951065579297, -30.10385362057324], [-71.23666092434766, -29.849592603727537], [-71.23363968411329, -29.519295133634763], [-71.38621231594922, -29.28459206966992], [-71.43014999905469, -29.100479520841795], [-71.29720016995313, -28.668276227995115], [-71.19901749173047, -28.244963087125974], [-71.14201065579297, -27.994638837858396], [-70.93462082425, -27.727417387052732], [-70.85741135159375, -27.314379133268552], [-70.84899998023421, -27.280671044895715], [-70.74798294583204, -26.875851072355466], [-70.69128128567579, -26.513653196378904], [-70.65462967434766, -26.259478010221677], [-70.68299576321485, -25.77041283993359], [-70.49319168606641, -25.471443571134763], [-70.3981446889961, -25.24891320614453], [-70.49769302883985, -24.829849638029295], [-70.51942917385938, -24.455095686002927], [-70.45283981839063, -24.34695664791699], [-70.46275040188672, -23.934050001188474], [-70.35946365872266, -23.660654462858396], [-70.41524979153516, -23.527374662443357], [-70.5796403555, -23.489599622770506], [-70.55272385159375, -23.343433774992185], [-70.57323929348829, -23.16559449581738], [-70.4730729726875, -23.07644311337109], [-70.29201218167188, -22.987125791593748], [-70.23022934475782, -22.796404279752927], [-70.23394485989454, -22.42795030026074], [-70.20114278946988, -22.217460822211553], [-70.19234940091016, -22.161034025236326], [-70.11063095608594, -21.74793664364453], [-70.11244675198438, -20.6933521404707], [-70.18984695950391, -19.75962869076367], [-70.20851608792188, -19.06719819454785], [-70.29601761380079, -18.629028715177732], [-70.36356827298047, -18.45498315243359], [-70.4539308218086, -18.2227768078291], [-70.58412643948438, -18.083280958219724], [-71.2240495351875, -17.805118955656248], [-71.36520096341016, -17.69742051510449], [-71.47015854397657, -17.392696775480466], [-71.611866918, -17.22145501522656], [-71.86322495022657, -17.120342649503904], [-72.08997818508985, -16.993765272184568], [-72.30994888821485, -16.879755415006834], [-72.58723923245313, -16.74070779232617], [-72.98006149807813, -16.53188554195996], [-73.28297897854688, -16.367351926847654], [-73.67259689846875, -16.19666139034863], [-74.04964157620313, -16.044990934416013], [-74.62142654934766, -15.665019430204588], [-75.2309083608711, -15.221601881071287], [-75.78529068508985, -14.727239049955564], [-76.05259415188672, -14.410147108122068], [-76.24178024807813, -14.105595983549314], [-76.2382096914375, -13.9086259975874], [-76.23803421536329, -13.502021230741697], [-76.359181371125, -13.229079641386228], [-76.71058365383985, -12.759679235502439], [-77.33550735989454, -11.509389318510252], [-77.4639405874336, -11.388950742765623], [-77.67389389553907, -11.29409734158154], [-77.70724960842969, -11.256047643705564], [-77.68253799954297, -11.014555372282224], [-77.69160934964063, -10.836669363065916], [-77.75874802151563, -10.65892068295117], [-78.30214401760938, -9.668905653043943], [-78.75094315091016, -8.786702550932127], [-79.06024643460157, -8.215522207304197], [-79.67460342923047, -7.352711595579343], [-79.79706284085157, -7.194126524015623], [-80.06590744534375, -6.756278909727293], [-80.27396866360547, -6.566111959501463], [-80.61159225979688, -6.369872011228757], [-81.02270218411329, -6.205557741209226], [-81.29700943508985, -6.040935911222654], [-81.24355789700391, -5.964570917173582], [-81.16232010403516, -5.913574136778074], [-80.88809677639844, -5.90026942638989], [-80.82338425198438, -5.715860761686521], [-80.87624832669141, -5.588887132688718], [-81.14286514798047, -5.195517458006101], [-81.30149551907422, -4.998885549589353], [-81.41761490383985, -4.675080694242673], [-81.41332718411329, -4.567058004423338], [-81.30361649075391, -4.331714548155027], [-81.04177567044141, -4.051563180967527], [-80.58289810696485, -3.656617797895628], [-80.37157150784375, -3.567196287199216], [-80.22890945950391, -3.471247114225584], [-80.14415451565625, -3.414210237547117], [-80.02521225491407, -3.274164356275755], [-79.76177689114454, -2.797014869734006], [-79.74477097073438, -2.676250852628904], [-79.83896347561719, -2.346026577039915], [-79.81301590481641, -2.170478500410276], [-80.02785965481641, -2.448112644239622], [-80.35725876370313, -2.728416360899168], [-80.50732895413282, -2.684253610655027], [-80.77762314358594, -2.538698591276365], [-80.96104904690625, -2.354813732191282], [-80.78616043606641, -2.22734371571179], [-80.74118515530469, -2.119224466367918], [-80.81634232083204, -1.858862794920164], [-80.81377884426954, -1.661865867658811], [-80.75389572659375, -1.452044643446165], [-80.80300613919141, -1.325063265844541], [-80.96610733548047, -1.033107079549985], [-80.87936111966016, -0.956666149183469], [-80.66320511380079, -0.86723629383679], [-80.33884903469922, -0.66318116335507], [-80.48226639309766, -0.485572792574125], [-80.48215958157422, -0.383899874969678], [-80.403126683625, -0.224856026455122], [-80.17984482327344, -0.016971983], [-80.1089601186836, 0.049028903261465], [-80.04623886624219, 0.430440627054018], [-80.09817215481641, 0.633673213437838], [-80.13487717190625, 0.716208599523348], [-80.08556076565625, 0.817998133615298], [-79.77687546292188, 0.863141022638125], [-79.37601181546094, 1.016531787828249], [-79.19764420071485, 1.124947510675234], [-78.98431107083204, 1.296987973169131], [-78.94347855130079, 1.380803190187258], [-78.92853256741407, 1.411497674897952], [-78.9811296133125, 1.551179490999026], [-79.06246658841016, 1.678105674699587], [-79.01388260403516, 1.773532710984988], [-78.78475662747266, 1.824865661577029], [-78.5752687124336, 1.774477444604678], [-78.49182602444532, 1.920829616502566], [-78.64825150051954, 2.174676977113528], [-78.60953232327344, 2.365407787278933], [-78.46819778958204, 2.467397294954104], [-78.07328506985547, 2.493669830278201], [-77.98651596585157, 2.474799953416628], [-77.94148993056844, -1.724464599665186], [-78.5616013224577, -2.128662113961151], [-78.39231762535397, -2.912757309929439], [-77.92672331976947, -3.10164348977513], [-77.88516689942037, -6.977321235497577], [-74.28756765626122, -12.645921515632779], [-70.52024877574033, -13.743517451082983], [-69.6018889310102, -14.22980964606285], [-69.27241573917452, -15.218229221569857], [-67.00362839996394, -15.7854260563725], [-66.6934585993106, -17.205973084076422]]]}}, {"type": "Feature", "properties": {"NAME": "Pashalik of Timbuktu", "SUBJECTO": "Saadi Morocco", "BORDERPRECISION": 1, "DE": "Songhai", "MAPA": "world_1600.geojson", "MOTIVO": "Tondibi (13-3-1591): Tombuctú, Gao y Djenné, marroquíes; geometría de Morocco en world_1650 recortada a Songhai. El resto de Songhai queda como Dendi", "FUENTE": "https://en.wikipedia.org/wiki/Battle_of_Tondibi", "AREA_KM2": 307139}, "geometry": {"type": "Polygon", "coordinates": [[[-3.537597756658419, 21.268569801647622], [-1.468193477440945, 21.564198984392974], [-0.5459746914327244, 20.996679731464834], [-0.46497298978341467, 20.87517717899087], [0.3279642390429083, 19.047973999521517], [1.200910312058618, 15.618542998388365], [-0.096882265748185, 15.294094853936665], [-0.745778554651586, 15.375206890049592], [-3.260251674152265, 14.969646709484964], [-3.746923890829816, 15.618542998388365], [-3.50358778249104, 17.72745593732442], [-4.52413940277709, 19.819586758910823], [-3.537597756658419, 21.268569801647622]]]}}, {"type": "Feature", "properties": {"NAME": "Mughal Empire", "SUBJECTO": "Mughal Empire", "BORDERPRECISION": 1, "DE": "Rajputana", "MAPA": "world_1600.geojson", "MOTIVO": "conquistas de Akbar: Guyarat 1572-73, Bengala 1574-76, Cachemira 1585-89, Sind 1591 (y Berar 1596); geometría mogola de world_1650 al norte de 21° N (sin las conquistas del Decán de Shah Jahan)", "FUENTE": "https://en.wikipedia.org/wiki/Akbar", "AREA_KM2": 308999}, "geometry": {"type": "Polygon", "coordinates": [[[72.71840910902648, 23.453927576570877], [69.01259806383516, 24.63304927276811], [68.81512932417279, 25.77916466665867], [69.64597762361677, 28.10553990510186], [70.7475914168111, 28.10303597871996], [72.93738885260596, 28.94526576171799], [75.29563224500043, 28.94526576171799], [75.75043632781937, 28.17041436135981], [75.41354441462016, 26.991292665162582], [75.75043632781937, 25.81217096896534], [72.71840910902648, 23.453927576570877]]]}}, {"type": "Feature", "properties": {"NAME": "Mughal Empire", "SUBJECTO": "Mughal Empire", "BORDERPRECISION": 1, "DE": "Bengal", "MAPA": "world_1600.geojson", "MOTIVO": "conquistas de Akbar: Guyarat 1572-73, Bengala 1574-76, Cachemira 1585-89, Sind 1591 (y Berar 1596); geometría mogola de world_1650 al norte de 21° N (sin las conquistas del Decán de Shah Jahan)", "FUENTE": "https://en.wikipedia.org/wiki/Akbar", "AREA_KM2": 119282}, "geometry": {"type": "Polygon", "coordinates": [[[86.42911327238554, 21.54183833949428], [87.17687674188514, 24.865231537270272], [89.91867613005033, 24.865231537270272], [90.0, 22.96055182071094], [90.0, 22.922177873567385], [90.0, 22.68076094241504], [90.0, 22.560958467439455], [90.0, 22.325391374543948], [90.0, 22.134809099153323], [90.0, 22.05844648929004], [90.0, 22.0199046954668], [90.0, 21.930253587678713], [89.90268996676562, 22.107825838044924], [89.86968520602343, 22.13322790713672], [89.796336207, 21.832069002107424], [89.67017653903125, 21.719838701204104], [89.57895186862109, 21.70058210940723], [89.4566145273125, 21.94171293826465], [89.23388198336718, 21.65538176150684], [89.07225326022265, 21.77433928103809], [88.99476912936328, 21.62947615237598], [89.02553847750781, 21.546960435823244], [88.88093856295703, 21.51488646121387], [88.7234602304375, 21.53995283694629], [88.65697768649218, 21.857440553621096], [88.56759932955859, 21.89536627383594], [88.45388320407031, 21.73631437869434], [88.37705520114062, 21.577336870149416], [88.29957107028125, 21.551770769075198], [88.24792769869921, 21.596122346833987], [88.12160781344531, 21.86265143008594], [88.05304244479296, 21.93874128909473], [87.86748794039843, 21.696960054353518], [87.64071944674609, 21.563081346467776], [87.19423964938281, 21.384255968049807], [86.93719771823046, 21.288428865388674], [86.81869796237109, 21.186534486726565], [86.7961912485039, 21.13566931338672], [86.82121403703009, 21.0], [86.56139884856057, 21.0], [86.02711232718897, 21.235551905058802], [86.42911327238554, 21.54183833949428]]]}}, {"type": "Feature", "properties": {"NAME": "Mughal Empire", "SUBJECTO": "Mughal Empire", "BORDERPRECISION": 1, "DE": "Islamic and Hindu states", "MAPA": "world_1600.geojson", "MOTIVO": "conquistas de Akbar: Guyarat 1572-73, Bengala 1574-76, Cachemira 1585-89, Sind 1591 (y Berar 1596); geometría mogola de world_1650 al norte de 21° N (sin las conquistas del Decán de Shah Jahan)", "FUENTE": "https://en.wikipedia.org/wiki/Akbar", "AREA_KM2": 912759}, "geometry": {"type": "Polygon", "coordinates": [[[92.06685927828906, 21.115090928987307], [91.94604781588671, 21.362578950837893], [91.84590438326953, 21.908670030549807], [91.57107070407031, 22.543313585237307], [91.41017440280078, 22.720834337190432], [91.08137801608203, 22.561330400422854], [90.0, 22.560958467439455], [90.0, 22.599036775544924], [90.0, 22.6940933093584], [90.0, 22.96055182071094], [89.91867613005033, 24.865231537270272], [87.17687674188514, 24.865231537270272], [86.42911327238554, 21.54183833949428], [86.02711232718897, 21.235551905058802], [85.35081719723252, 21.533711412871725], [85.20920974310317, 22.38335613764783], [85.70483583255589, 23.162197135359264], [85.63403210549122, 23.87023440600602], [84.28876129126238, 24.224253041329398], [82.37706066051614, 23.65782322481199], [77.49160349305352, 23.65782322481199], [77.06678113066546, 22.808178500035886], [77.27919231185949, 22.029337502324452], [76.99597740360079, 21.10888905048367], [77.01671817512148, 21.0], [76.28393230639954, 21.0], [76.09256220492745, 21.046963981675567], [76.9282456403432, 23.89692302722776], [73.71308028726574, 22.945315502172253], [74.27144928500712, 21.905666264880928], [73.91528624200888, 21.0], [72.8922288945525, 21.0], [72.76573470553515, 21.150355897859377], [72.71466353854296, 21.436120592073244], [72.6659422250664, 21.848943315461916], [72.69562056979296, 22.128535829500002], [72.31904891451953, 22.11503180117969], [72.2329817148125, 22.01955183596973], [72.12713912448046, 21.8287425860918], [72.13103774508593, 21.746179185823244], [72.25569442233203, 21.632083497957034], [72.28899672946093, 21.549569688752932], [72.25619796237109, 21.352563463166994], [72.12086013278125, 21.155339799836916], [71.9085370693141, 21.0], [70.1570449091356, 21.0], [69.75222304782031, 21.398070894197268], [69.12606337985156, 21.9685073718584], [68.89417556246875, 22.285655580476565], [69.0142317148125, 22.30496748538379], [69.49224379977343, 22.248809419587893], [69.76916793307421, 22.287507615999026], [69.96852401217578, 22.351457200959963], [70.17620376071093, 22.478955827668948], [70.41056350192187, 22.752622209504885], [70.38064864596484, 22.860560975984377], [70.31022170504687, 22.828643403962893], [70.0459471078789, 22.777261339143557], [69.66488936862109, 22.789163194612307], [69.39181807955859, 22.83940466494922], [69.10719588717578, 22.898904405549807], [68.88241103610156, 22.997148118928713], [68.79081252535937, 23.028724275544924], [68.37294295748828, 23.326415620759768], [68.07217696627734, 23.675187669709963], [68.04699996432421, 23.764070115999026], [67.69232467135546, 23.81415518374805], [67.48602584323046, 23.92806013675098], [67.31589034518359, 24.092885576204104], [67.20423415621875, 24.588166795686526], [67.15359786471484, 24.65159185977344], [66.99953750094531, 24.714782319978518], [66.70171645602343, 24.75227888675098], [66.65421584567187, 24.783935152009768], [66.64811233004687, 24.90462454409961], [66.70050338229296, 25.114379487947268], [66.62050918063281, 25.31748541446094], [66.43233016451953, 25.488610826448244], [66.30008986910937, 25.494687639192385], [66.92825506441484, 28.1118712695545], [66.76700786297181, 30.415433873199976], [67.62924398768496, 31.13396397712759], [67.49488032905803, 32.343236904769846], [68.72623993761584, 32.651076806909295], [69.56846972061388, 33.83019850310654], [70.2422535470123, 33.49330658990733], [70.2422535470123, 31.13506319751285], [69.56846972061388, 29.95594150131562], [68.56587483433958, 29.102557864434658], [69.06313185081505, 28.10303597871996], [69.64597762361677, 28.10553990510186], [68.81512932417279, 25.77916466665867], [69.01259806383516, 24.63304927276811], [72.71840910902648, 23.453927576570877], [75.75043632781937, 25.81217096896534], [77.77178780701463, 25.64372501236574], [78.27712567681345, 24.296157359568895], [78.95090950321186, 23.95926544636969], [83.8358422446004, 25.980616925564952], [83.7792216243594, 27.294046275190677], [84.50919587590644, 27.311578717767826], [85.86197376608332, 28.20085647844244], [85.8593633763676, 28.20207711625048], [85.87641976717065, 28.206476953999232], [85.97204879244921, 28.11858519168262], [86.03566268405078, 27.910255037263674], [86.14223769625781, 27.954904161409182], [86.13785079440234, 28.11858519168262], [86.44574264010546, 27.947461687043948], [86.56804946383593, 27.984662614778323], [86.60393813571093, 28.133468233064455], [86.78721145114062, 28.133468233064455], [87.07065871676562, 28.006982408479494], [87.21436599215625, 27.843293748811526], [87.5965071054375, 27.873056016877932], [87.74962142428515, 27.820973955110354], [87.90232375582812, 27.947461687043948], [88.19726088961718, 27.87575491519336], [88.21383956393359, 27.865617357209963], [88.16182424717722, 27.74135000362828], [88.07058242282031, 27.523368440583987], [88.03892806491015, 27.1290298327959], [88.23191359957812, 26.757009111360354], [88.60182180866893, 26.640441529355197], [88.86752608737109, 26.908403001741213], [89.153758082, 26.827533327058596], [89.40531447848437, 26.790891252473635], [89.79632857760546, 26.69479902835254], [89.83439162692187, 26.685449205354494], [90.0, 26.71859510989551], [90.0, 26.778745256379885], [90.59682157908377, 26.764092722507584], [91.0642740656503, 26.75261632213409], [91.16184524020312, 26.750220857576174], [90.0, 26.360255315069487], [90.0, 25.9662434512302], [91.43432931871358, 26.097580739176628], [91.56566660666, 26.053801643194483], [91.43432931871358, 25.791127067301623], [91.56566660666, 25.70356887533734], [91.47810841469573, 25.484673395426626], [91.43432931871358, 25.26577791551591], [91.74078299058858, 25.003103339623053], [91.52188751067787, 25.003103339623053], [91.56566660666, 24.346416899890905], [91.30299203076714, 24.346416899890905], [91.25921293478501, 24.12752141998019], [91.47810841469573, 24.08374232399805], [91.82834118255286, 23.733509556140906], [91.82834118255286, 23.558393172212334], [91.91589937451715, 23.51461407623019], [92.04723666246358, 23.689730460158763], [92.17857395041001, 23.427055884265904], [92.26613214237429, 22.94548582846233], [92.52880671826715, 22.595253060605188], [92.50995162448046, 22.110425554231448], [92.59760573825, 21.387023530916018], [92.23697188815234, 21.149966798738284], [92.12630158103221, 21.0], [92.12195906979163, 21.0], [92.06685927828906, 21.115090928987307]]]}}, {"type": "Feature", "properties": {"NAME": "Mughal Empire", "SUBJECTO": "Mughal Empire", "BORDERPRECISION": 1, "DE": "Ahmadnagar", "MAPA": "world_1600.geojson", "MOTIVO": "conquistas de Akbar: Guyarat 1572-73, Bengala 1574-76, Cachemira 1585-89, Sind 1591 (y Berar 1596); geometría mogola de world_1650 al norte de 21° N (sin las conquistas del Decán de Shah Jahan)", "FUENTE": "https://en.wikipedia.org/wiki/Akbar", "AREA_KM2": 66795}, "geometry": {"type": "Polygon", "coordinates": [[[76.09256220492745, 21.046963981675567], [76.28393230639954, 21.0], [74.83282117098692, 21.0], [74.80106186459585, 21.10888905048367], [74.09302459394908, 21.10888905048367], [73.96992218130211, 21.0], [73.91528624200888, 21.0], [74.27144928500712, 21.905666264880928], [73.71308028726574, 22.945315502172253], [76.9282456403432, 23.89692302722776], [76.09256220492745, 21.046963981675567]]]}}, {"type": "Feature", "properties": {"NAME": "Siberians", "SUBJECTO": "Siberians", "BORDERPRECISION": 1, "DE": "central Asian khanates", "MAPA": "world_1600.geojson", "MOTIVO": "Siberia oriental (yakutos, evenkos): los rusos llegan a Yakutsk en 1632; «central Asian khanates» no puede llegar al Pacífico. Geometría de Siberians en world_1500", "FUENTE": "", "AREA_KM2": 5662233}, "geometry": {"type": "Polygon", "coordinates": [[[92.66296897054943, 58.14659743284645], [91.07874951521885, 59.09712910604479], [89.96979589648748, 60.5229266158423], [89.96979589648748, 61.790302180106764], [87.59346671349161, 63.53294358097038], [87.91031060455774, 66.22611665503234], [86.64293504029328, 67.4934922192968], [86.24232630713448, 68.99577496864232], [92.29610482658107, 69.82407964155732], [90.66660371857405, 72.41388791632032], [82.43625930341051, 72.05058630560545], [82.43625930259968, 72.0505863058156], [82.32062056968952, 72.22227820034685], [82.02602675865437, 72.24522741909685], [81.58525374840046, 72.35400732632341], [80.98231795738484, 72.44697912808122], [80.84419539890813, 72.58019598587849], [80.87170699557421, 72.83999212832813], [80.82886794528125, 73.01351507754688], [80.82886794522622, 73.01351507759213], [80.8288679451778, 73.01351507778826], [80.46401504004821, 73.31357916458401], [80.50051406344531, 73.42474707217579], [80.62013534030078, 73.49647101016407], [80.83822921237109, 73.55255468936329], [81.87746718844531, 73.60222204776173], [83.02044204196093, 73.61229284854298], [83.97656539401171, 73.66978796573048], [84.61605361422656, 73.74268683047657], [84.82945540866015, 73.59973486514454], [85.00149825533984, 73.5761905536211], [85.38118270358203, 73.69632299991017], [85.85619643649218, 73.82476385684376], [86.49205306491015, 73.87382849307423], [86.75694564262815, 73.78657110795439], [86.32635024498249, 73.63435705776872], [86.12352279136921, 73.4511218893117], [86.12352279180442, 73.45112188937004], [86.12352279147265, 73.45112188907032], [86.90497115573046, 73.55588873477345], [87.13968184908984, 73.60405310244923], [87.5696287485039, 73.77212866397267], [87.69079116305468, 73.90001257510548], [87.6907911629077, 73.90001257530089], [87.69079116295124, 73.90001257534685], [87.54062179039265, 74.09967383022966], [87.39396956871296, 74.1794925558156], [86.97762587974812, 74.29900702114763], [86.81353286227207, 74.43529089557458], [86.81261733492968, 74.53988226504688], [86.9583235116875, 74.78206213565235], [87.48745254000781, 74.96091803164845], [87.92226699313281, 75.05988653750782], [89.28468612155078, 75.46612127871876], [89.68456557711718, 75.50820501895313], [89.79632857760546, 75.5244327411211], [90.0, 75.55852850528126], [90.0, 75.55852850552263], [90.0, 75.60154303164845], [91.63467696627734, 75.6527286395586], [92.67054274996875, 75.7626148089922], [93.59205916842578, 75.88084753604298], [94.30955031832812, 76.07406958194142], [94.69433883151171, 76.18358191104298], [95.48768142184375, 76.16833075137501], [95.96726516207812, 76.16923864932423], [96.13936904369478, 76.08590277296555], [95.9818220467403, 75.90201147671404], [95.98182204703251, 75.90201147669299], [95.98182204684375, 75.90201147647267], [96.65822890719531, 75.85330542178517], [97.11641219576953, 75.87083014102345], [97.68372634371875, 75.9552188739336], [98.28865340670703, 76.0565372333086], [98.71624282321093, 76.07403906436329], [99.15855697116015, 75.99971350283985], [99.4672346445, 75.96692236514454], [99.77942946871875, 76.05931433291798], [99.83340743502734, 76.21003302188282], [99.83340743489649, 76.21003302204764], [99.8334074349239, 76.2100330221242], [99.77360824074742, 76.28535040473585], [99.98323348483203, 76.43696936221485], [100.4073973031914, 76.47143896670704], [100.83031753024218, 76.45540960879688], [101.38946059664843, 76.62499579043751], [101.38946059640558, 76.6249957906366], [101.38946059654499, 76.62499579067888], [101.11151412452392, 76.85285528762877], [101.16646102389453, 77.00576361270313], [101.69046309908984, 77.20258673282032], [102.38966659030078, 77.37482031436329], [103.39330581149218, 77.55778845401173], [103.94659713229296, 77.59216650576954], [104.39374068698046, 77.56721838565235], [105.06251052340625, 77.56850775332813], [105.44954207851582, 77.44913824651262], [105.46972945640827, 77.32931860562029], [104.78229049156452, 77.14876898403826], [104.4851408333614, 76.99502905483904], [104.48514083371882, 76.99502905472906], [104.48514083346484, 76.99502905459767], [104.70460799655078, 76.92750128360157], [105.5281477304375, 76.98001440616017], [106.24293807467578, 76.91346319766407], [107.16025832614062, 76.94913061709767], [107.24013045725852, 76.89837225542728], [107.07137587974812, 76.77097662563982], [106.53744033287312, 76.56722601528826], [106.40403274009968, 76.4322772848195], [106.40403274044237, 76.43227728482015], [106.40403274020312, 76.43227728457813], [106.8671232094333, 76.43314988243023], [97.97733841936244, 74.36169335293792], [92.42822653804119, 73.38331782427201], [99.91512352077622, 71.35814155943672], [105.364780709818, 72.74959229884978], [105.27881911715625, 72.75153692813282], [105.60022262057421, 72.74426611514454], [106.0869856210625, 72.85539587588673], [106.50154403170703, 73.06131323428517], [107.24994185885546, 73.13382299991017], [107.80428603610156, 73.14277227969532], [108.74962905367968, 73.2632251605547], [109.59518722018359, 73.39159735293751], [109.99058822116015, 73.43995245547657], [110.44228652438281, 73.56786688418751], [110.40001967867968, 73.74287756533985], [110.40001967863164, 73.74287756535185], [110.40001967857624, 73.74287756558122], [110.17844680259968, 73.79822119351091], [110.1632337900161, 73.8300891742339], [110.28963759860156, 73.94206579776173], [110.55127242526171, 74.03844793887501], [110.94413283785937, 73.94327124209767], [111.21531203707812, 73.76829870791798], [111.49485305270312, 73.74487646670704], [111.76165297946093, 73.65779455752735], [112.09338668307421, 73.63455542178517], [112.47680190524218, 73.65914496035938], [112.99697402438281, 73.77956732364063], [113.22158339938281, 73.74810370059376], [113.30773452232766, 73.61295660602725], [113.31173995445515, 73.38266333218279], [113.31173995455575, 73.38266333210508], [113.31173995455859, 73.38266333194142], [113.54699233492968, 73.20093115420704], [114.18667891940234, 73.55099829287892], [114.93411544283984, 73.5603214129961], [115.61149123629687, 73.62520178408985], [116.67113784274218, 73.61922796817188], [117.53464797457812, 73.54927404971485], [117.91884902438281, 73.53409155459767], [118.46038344802106, 73.519229494056], [118.33846572349812, 73.18611487026872], [118.33846572364078, 73.18611487013453], [118.33846572360156, 73.18611487002735], [118.49779799899218, 73.03624304385548], [119.41744521578906, 72.96692999453907], [119.79856399020312, 72.91246374698048], [120.11277297457812, 72.88152655215626], [120.57851699313281, 72.83511694522267], [121.69950393160937, 72.90021856875782], [122.24328139742968, 72.90912207217579], [122.88243392428515, 72.75281103701954], [123.51475051364062, 73.17200811953907], [123.51475051353161, 73.17200811977675], [123.51475051353718, 73.17200811978044], [123.4422026010388, 73.33018835638039], [123.4249754281914, 73.43322332950001], [123.40985396823046, 73.48077734561329], [124.22215560397265, 73.69691046328907], [124.45666793307421, 73.70529516787892], [124.81766036471484, 73.65822943301563], [125.33462813815234, 73.52407415957813], [125.71732619723437, 73.39780005069142], [126.48701766451953, 73.38340338321095], [127.09683516940234, 73.41625555606251], [127.71956160983203, 73.40153845401173], [128.31478408297656, 73.20751532168751], [128.49888137294363, 73.12594183539129], [128.52492812584188, 72.9523425924367], [128.29104140709188, 72.91247900601091], [128.17055800865438, 72.89652594204607], [127.31350234459187, 72.71388586636247], [126.2164411873653, 72.38231238003435], [126.11130050133015, 72.28037603970232], [126.1113005016053, 72.28037603962743], [126.11130050143359, 72.28037603946095], [126.22529891451953, 72.24934729190235], [126.69000533541796, 72.21892889590626], [127.12090590914843, 72.2119327411211], [127.41754439791796, 72.14218481631642], [127.71409896334765, 72.01011236758595], [128.17013076266406, 71.83187445254688], [128.43249038180468, 71.75462683291798], [128.78353408297656, 71.53804358096485], [129.35520461520312, 71.17568548770313], [130.17171767672656, 70.8153491839922], [130.77927688082812, 70.678340517], [131.05480483492968, 70.68650396914845], [131.41268447360156, 70.86376532168751], [131.79166701754687, 71.18792303653126], [132.28361037692187, 71.66087683291798], [132.55375197848437, 71.80897101016407], [132.68426040133593, 71.8014102801836], [132.79061416110156, 71.59201391787892], [133.13840774020312, 71.45321234317188], [133.74390700778125, 71.32284887881642], [134.2413587900078, 71.26194342227345], [134.62290481051562, 71.3013110980547], [135.51061538180468, 71.51182135196095], [135.86063674410937, 71.54344519229298], [136.22661879977343, 71.51315649600392], [136.76502517184375, 71.4057803973711], [137.62967971285937, 71.07541998477345], [137.7712660165703, 71.09882696719532], [137.85494521578906, 71.1298023089922], [138.07578566989062, 71.24595221133595], [138.1754408212578, 71.36201056094532], [138.17544082102276, 71.3620105610334], [138.17544082115438, 71.3620105611867], [138.11381057224736, 71.38510473838917], [138.11939528903125, 71.47020300479298], [138.4461164804375, 71.6102710589922], [138.6748762460625, 71.6184497699297], [138.899851832, 71.50264319033985], [139.1587629648125, 71.41796454043751], [139.74447158297656, 71.40359839053517], [139.82569411715625, 71.62836035342579], [139.73856643160937, 71.83789404483204], [139.8059797616875, 72.00147589297657], [139.84789565524218, 72.23560675235157], [139.84789565509178, 72.23560675233053], [139.84789565513876, 72.23560675259294], [139.33877089927938, 72.1643558370656], [139.04995253990438, 72.16382177944841], [138.96934035753588, 72.21052130323012], [139.16831496676562, 72.3437915668047], [139.3117933603203, 72.3831973895586], [139.75561049899218, 72.42317541690235], [140.21502212008593, 72.43185003848438], [140.58907607516406, 72.49523504825001], [141.2939710946953, 72.78707464785938], [141.408396753875, 72.78729590030079], [142.20023635348437, 72.67872198672657], [142.90252212008593, 72.61721380801563], [143.81882766207812, 72.53262671084767], [144.26743606051562, 72.50207861514454], [144.5618391366875, 72.45562323184376], [145.59995559105263, 72.42622717473505], [144.82036879967, 72.14334448452654], [144.82036880033232, 72.14334448448797], [144.82036879977343, 72.14334448428517], [145.20955947360156, 72.12067755313282], [145.6646223398125, 72.16052588076954], [145.81499770580092, 72.0983997211935], [145.67818740318563, 71.92672308560076], [145.2614088387325, 71.8403812276906], [144.88077834556844, 71.72314795132341], [144.80126479576376, 71.5911136495656], [144.80126479600528, 71.59111364955355], [144.80126479586718, 71.59111364932423], [145.10038283785937, 71.57618292422657], [145.33378127535937, 71.63085516543751], [145.7462416025078, 71.69371374698048], [146.1860609384453, 71.84209784121876], [146.91512587985156, 72.20190008731251], [148.15946486910937, 72.19639929385548], [148.69796279391406, 72.16618689151173], [149.10447219332812, 72.08892401309376], [149.53032973727343, 72.0273624286211], [149.62253859957812, 71.94185980410938], [149.72198012753157, 71.89520605672291], [148.71085647056844, 71.62939795132341], [148.71085647109737, 71.6293979511939], [148.71085647067187, 71.62939795108204], [148.96216872653125, 71.56785925479298], [149.71541884860156, 71.43764837832813], [150.69370559176562, 71.34668310733204], [151.11947158297656, 71.25476416201954], [151.47996047457812, 71.08581122012501], [151.6448469491875, 70.89377935977345], [151.8990736337578, 70.73301275821095], [152.13401320895312, 70.66443213076954], [152.31795238609797, 70.66907025871122], [151.75087498359463, 69.71748244463377], [161.9248583925694, 68.14581896997709], [162.6183639908987, 69.54029795336498], [163.0382337900078, 69.5452075824297], [163.72240737399218, 69.67448767276173], [164.05369094332812, 69.66003759951954], [164.31817153414843, 69.46485479922657], [164.63646987399218, 69.41282232852345], [164.92460804382762, 69.41022686030789], [159.18889183955508, 61.60077436350278], [159.1064253182247, 61.70729025479021], [158.84125808189657, 61.78396948452654], [158.11835769127157, 61.719474397856615], [157.52826980064657, 61.66927298184099], [157.09798720787313, 61.63339956875505], [156.82523635338094, 61.56281241055193], [156.423152002795, 61.40100439663591], [156.38117507408407, 61.20508154507341], [156.38117507418877, 61.20508154483805], [156.3811750741875, 61.205081544832034], [156.41843703697134, 61.121329866605215], [155.8507643074825, 60.88296850796404], [155.6666822762325, 60.778041444975756], [155.73389724205282, 60.55536612148943], [155.15180495689657, 60.39435156460466], [154.69332412193563, 60.199019991118334], [154.3156538338497, 59.98334845181169], [154.09215835045126, 59.775878511626146], [153.9429731697872, 59.56882818813982], [153.94446853111532, 59.39667852993669], [153.944468531217, 59.3966785298956], [153.94446853121875, 59.396678529695315], [154.1817884775078, 59.3007770404375], [154.75280288180468, 59.28121908755664], [154.87804702242968, 59.15770300479297], [154.90589431234747, 59.102767549709924], [154.38708022545126, 59.03995092983904], [153.92443374107626, 58.922347627837084], [153.45414260338094, 58.94891699429216], [153.13988784263876, 59.010123811919115], [152.9682417244747, 58.99606665249529], [152.82833388756063, 58.947738252837084], [152.504206690295, 58.76871832485857], [152.19124892662313, 58.9259410726613], [151.6906538338497, 58.75345953579607], [151.35448745201376, 58.691119753081225], [151.13540175865438, 58.73182638760271], [151.0074873301075, 58.79334219562928], [151.0561781259453, 58.923812471345705], [151.39268020114062, 58.979373537019534], [151.78330520114062, 59.03504904361133], [151.85726455172656, 59.05581244082813], [151.85726455149023, 59.055812441032195], [151.85726455162313, 59.055812441069506], [151.52360061119344, 59.34394415493669], [151.14020827720907, 59.43957098599138], [150.66341689537313, 59.4318004476613], [150.27865127037313, 59.36224707241716], [150.12006667564657, 59.3894534933156], [149.72957900474813, 59.595328890044115], [149.3803053231075, 59.60845526333513], [149.04528335045126, 59.58715399380388], [148.7284498543575, 59.476337038237475], [148.74720290611532, 59.29743155117693], [148.63029006431844, 59.19402655239763], [148.41608718345907, 59.09739264126482], [148.10282424400594, 59.20679815884294], [147.91918471763876, 59.261474214751146], [147.3522291512325, 59.23288687344255], [146.99962905357626, 59.19095953579607], [146.7064009041622, 59.22479590054216], [146.3073530525997, 59.28595312710466], [146.05396560142782, 59.25107153530779], [146.02347854088094, 59.19599493618669], [145.9569654793575, 58.98285635586443], [145.65258315513876, 58.97540625210466], [145.51279738862019, 59.03694876305445], [145.49566176852343, 59.208751283601565], [145.4956617684325, 59.20875128371755], [145.49566176842, 59.20875128384294], [145.40413955162313, 59.32550390835466], [144.84569838951376, 59.283195100981615], [144.38981154869344, 59.309859834868334], [143.82409194420126, 59.29501303311052], [143.30285170982626, 59.2665286886281], [142.92681411217, 59.27957113857927], [142.84585097740438, 59.27252539272966], [142.3577680916622, 59.140956484038256], [141.92383864830282, 58.94089468594255], [141.59083083580282, 58.727531038481615], [141.34955886314657, 58.50086554165544], [140.99425795982626, 58.39063223477068], [140.58739760826376, 58.239310823637865], [140.49984267662313, 58.17075689907732], [140.0287428231075, 57.64412649746599], [139.29383376549032, 57.33617743130388], [138.86675551842, 57.12446554775896], [138.3459272713497, 56.80420645352068], [137.60193923424032, 56.240348421294115], [137.22909072349813, 55.98272284146013], [136.52126601646688, 55.5898929464406], [136.11939528892782, 55.420646272856615], [135.26954177330282, 55.02874334927263], [134.98522475670126, 54.853934847075365], [134.8937330574825, 54.71992453213396], [134.90200332115438, 54.55941732998552], [134.90200332124857, 54.55941732992357], [134.9020033212578, 54.55941732974414], [135.0945082040703, 54.432784639314455], [135.31255629977343, 54.413165651277346], [135.72582534274218, 54.407264314607424], [136.19642165621875, 54.47499807925586], [136.49160293046924, 54.45549353214753], [136.34353164146688, 53.88782843228044], [136.35065749595907, 53.70121344204607], [136.3506574960545, 53.70121344201362], [136.3506574960625, 53.70121344180469], [136.48705581042677, 53.654841982205966], [130.67089491619097, 54.38539936726437], [130.90828342601753, 55.239998002639986], [130.3904298248652, 56.05376794730791], [129.20676445080278, 56.86753789197583], [128.83686902140826, 56.645600634339125], [128.17105724849816, 56.71957972021803], [127.58098302158292, 56.61544897429181], [126.39010253031276, 54.92831371798124], [118.10962183723511, 56.89317354345729], [109.07678326070727, 57.59886405724852], [102.58571378556123, 57.29554305373703], [93.97500626557478, 56.89317354345729], [92.43337112652793, 57.11340713474969], [92.66296897054943, 58.14659743284645]]]}}]}