{"type": "FeatureCollection", "features": [{"type": "Feature", "properties": {"NAME": "Safavid Empire", "SUBJECTO": "Safavid Empire", "BORDERPRECISION": 1, "DE": "Ottoman Empire", "MAPA": "world_1530.geojson", "MOTIVO": "Bagdad y Mesopotamia (conquista otomana en 1534), Azerbaiyán y Tabriz: safávidas en 1530; recorte de la geometría del emirato Ak Koyunlu de world_1500", "FUENTE": "https://en.wikipedia.org/wiki/Ottoman%E2%80%93Safavid_War_(1532%E2%80%931555)", "AREA_KM2": 904500}, "geometry": {"type": "Polygon", "coordinates": [[[43.34713748780006, 42.0], [46.195328283609385, 42.0], [46.28635695895312, 41.98482855410938], [46.392729792205074, 41.995467744783205], [46.49910262545703, 41.96355398745899], [46.55577758273242, 41.878455720857424], [46.658659967986324, 41.88909491153125], [46.66929915866015, 41.81463202090625], [46.76503661593554, 41.83590658755664], [46.850134882537105, 41.83590658755664], [46.91395858248828, 41.75080832095508], [47.12670424899218, 41.62316092105274], [47.169253382292965, 41.56997641177539], [47.22243789157031, 41.56997641177539], [47.35008529147265, 41.442325197175784], [47.35008529147265, 41.30404242129688], [47.61601928195117, 41.261493287996096], [47.81812957247851, 41.197669588044924], [47.98832610568164, 41.218944154695315], [48.06278518160937, 41.31467779727344], [48.20107177218554, 41.463599763826174], [48.22371258025433, 41.4711466998491], [47.831167292876806, 42.0], [48.46479197388639, 42.0], [48.50044921359179, 41.92868383975391], [48.662303003874996, 41.901710115388674], [48.683238062468746, 41.83590658755664], [48.89249709567187, 41.68698462100391], [48.998869928923824, 41.516788087800784], [49.115881952849605, 41.43168982119922], [49.24352935275195, 41.29340323062305], [49.28607848605273, 41.05938299746875], [49.3499021860039, 40.9530101642168], [49.477549585906246, 40.836001954988284], [49.60519698580859, 40.761539064363284], [49.60519698580859, 40.687076173738284], [49.80730346163867, 40.58070334048633], [50.02005294283984, 40.60197790713672], [50.190249476042965, 40.57006796450977], [50.31789687594531, 40.49560507388477], [50.42426970919726, 40.410506807283205], [50.46681884249804, 40.32540854068164], [50.46681884249804, 40.26158484073047], [50.30725768527148, 40.32540854068164], [50.12642577609179, 40.346683107332034], [50.0306883188164, 40.346683107332034], [49.91368010958789, 40.32540854068164], [49.849856409636715, 40.2722240314043], [49.66902068575976, 40.24031027408008], [49.57328322848437, 40.17648657412891], [49.55200866183398, 40.091388307527346], [49.54137328585742, 39.87864264102344], [49.48818496188281, 39.76163061709766], [49.44563582858203, 39.655257783845705], [49.403086695281246, 39.48506125064258], [49.49882415255664, 39.37868841739063], [49.48818496188281, 39.293590150789065], [49.381812128630855, 39.32550009341602], [49.339262995330074, 39.28295096011524], [49.30735305270312, 39.1340289935625], [49.2754392953789, 39.01702078433399], [49.22225478610156, 39.03829535098438], [49.17970565280078, 39.14466818423633], [49.115881952849605, 39.18721731753711], [49.041419062224605, 39.14466818423633], [49.020144495574215, 39.00638159366016], [49.05205825289843, 38.931922517732424], [48.998869928923824, 38.878734193757815], [48.945681604949215, 38.836185060457034], [48.988230738249996, 38.71917685122852], [48.824954065886715, 38.3095775470293], [48.83150771578906, 38.306312166169924], [48.80918792208789, 37.98856695742969], [48.744780573455074, 37.72701605410938], [48.837229761687496, 37.51097448916797], [49.05953124484179, 37.397559724763674], [49.475806269255855, 37.291610322908205], [49.84801391085742, 37.26821478457813], [50.03871444186328, 37.22470434756641], [50.11132338961718, 37.097755037263674], [50.25221160372851, 36.894786439851565], [50.4693731329615, 36.74823225777081], [49.55710308687251, 34.255944236249405], [49.47792328981614, 30.0528471823046], [49.45236495455859, 30.07772596927051], [49.321360621062496, 30.102862916902346], [49.235083613005855, 30.223380647615237], [49.2222280832207, 30.47745855899219], [49.020171198455074, 30.43257101626758], [48.94572356661914, 30.387942872957034], [48.8013296457207, 30.08272513003711], [48.713843378630855, 29.99996145816211], [48.5536489816582, 29.99462278933887], [48.51058486422656, 29.993188463166994], [48.21184829196093, 29.94809301944141], [48.02827743014453, 29.973121248201174], [47.95715239962695, 29.94756468387012], [47.91136077365039, 29.89029272647266], [47.935923609343746, 29.80140646548633], [47.9960317941582, 29.490258775666994], [47.8449087472832, 29.50315435977344], [46.90507516233225, 29.437615717313662], [45.86971438514614, 29.85600173414204], [44.839021615724675, 29.993427436731572], [44.08318025148226, 30.33699169320539], [40.02912202509114, 34.39104991959652], [39.34199351214349, 34.59718847348081], [38.03644933754296, 34.59718847348081], [38.90606634258856, 36.005565224263044], [38.09988235091777, 35.996351692929665], [38.251706504452926, 36.3], [43.0, 36.3], [43.0, 41.66339258428658], [43.34713748780006, 42.0]]]}}, {"type": "Feature", "properties": {"NAME": "Hafsid Caliphate", "SUBJECTO": "Hafsid Caliphate", "BORDERPRECISION": 1, "DE": "Ottoman Empire", "MAPA": "world_1530.geojson", "MOTIVO": "Túnez y Tripolitania interior, hafsíes en 1530 (Túnez otomano en 1574; Trípoli en 1551); geometría hafsí de world_1500", "FUENTE": "https://en.wikipedia.org/wiki/Conquest_of_Tunis_(1574)", "AREA_KM2": 178542}, "geometry": {"type": "Polygon", "coordinates": [[[7.4375540312625334, 32.63842808893284], [6.502893292241122, 32.73261356616335], [6.923042807189209, 36.81784018130664], [7.063241037932617, 36.881854616121096], [7.204853090850097, 36.99046667666797], [7.306981119719726, 37.06078299136524], [7.544922861663085, 37.04214438052539], [7.719043287841064, 36.95327719302539], [7.792040857878906, 36.83235891909961], [7.913174662200195, 36.77524908633594], [8.145014795867187, 36.813949190095705], [8.636709246245605, 36.885257326082034], [8.865518602935058, 36.96835287661914], [9.150280031768066, 37.17287405581836], [9.416118654814941, 37.27537878604297], [9.732199701873046, 37.28239782901172], [10.021354708281738, 37.20013388247852], [10.132734331694824, 37.104747377351565], [10.15887168368457, 36.99647482486133], [10.27150824984668, 36.754554353669924], [10.392797503081542, 36.716571412996096], [10.580582651702148, 36.79342230410938], [10.843251261321289, 36.99148901553516], [11.023757013884765, 37.06832464785938], [11.039403948394042, 36.90904577823047], [10.92006209811328, 36.6539378985918], [10.633412394133789, 36.424014650300784], [10.509244951812011, 36.21355398745899], [10.511460337249023, 36.08616980166797], [10.60260776003955, 35.88894613833789], [10.830826792327148, 35.679278932527346], [10.988951716033203, 35.622298799470705], [11.12510875186084, 35.2406078204668], [11.082800898162109, 35.14503439517383], [10.839357409087402, 34.8011546954668], [10.574025187102539, 34.648109041169924], [10.116421732512695, 34.234168611482424], [10.01948073825, 34.08147390933399], [10.148656878081542, 33.87839850039844], [10.412600550261718, 33.63112600894336], [10.650217089263183, 33.49818380923633], [10.778140101042968, 33.473033510164065], [10.956539187041503, 33.575057588533205], [11.09911826571582, 33.53722723575], [11.20892051180957, 33.25152166934375], [11.47068694552539, 33.14409216494922], [12.117019686309082, 32.87850149722461], [12.413444788605547, 32.46433563585597], [12.444915429402535, 32.02643275940865], [8.770583097822628, 33.18925043867925], [8.020752939788085, 33.02027853579883], [7.4375540312625334, 32.63842808893284]]]}}, {"type": "Feature", "properties": {"NAME": "Zayyanid Caliphate", "SUBJECTO": "Zayyanid Caliphate", "BORDERPRECISION": 1, "DE": "Ottoman Empire", "MAPA": "world_1530.geojson", "MOTIVO": "Tremecén y Orán: zayaníes (hasta 1554) y presidio español de Orán (1509-1708); Argel, otomana desde 1519-1525, se queda en el Imperio otomano (corte en 1° E, aproximado)", "FUENTE": "https://en.wikipedia.org/wiki/Kingdom_of_Tlemcen", "AREA_KM2": 91044}, "geometry": {"type": "Polygon", "coordinates": [[[-1.112570431622284, 32.54910620303516], [-1.340927687081116, 32.694007478669924], [-1.610150661858338, 33.04845007510547], [-1.68113121071698, 33.257815919832034], [-1.673919525536316, 33.829951845125], [-1.663989510926026, 34.205054841951174], [-1.738150325211304, 34.60509451480274], [-1.823284712227601, 34.69997366519336], [-2.076577034386414, 34.82567556949024], [-2.192973938378113, 35.05424841494922], [-2.035251822861451, 35.054568849519534], [-1.738327947052735, 35.11883123965625], [-1.495096531304139, 35.23390158267383], [-1.329105701836365, 35.48890646548633], [-1.146667149456757, 35.62936743350391], [-0.917491999062317, 35.66803701968555], [-0.734306838902253, 35.73846014590625], [-0.428770822080391, 35.86006888003711], [-0.282988813313263, 35.75847586245899], [-0.203663793, 35.75072058291797], [-0.09165417084338, 35.73976858706836], [0.015310812202674, 35.803668580964846], [0.198671731559021, 36.033309541658205], [0.474390897361022, 36.22496374698047], [0.781242343989593, 36.38485296817188], [1.0, 36.44580631070969], [1.0, 32.58038480711981], [-1.081275251301545, 32.45392569156055], [-1.112570431622284, 32.54910620303516]]]}}, {"type": "Feature", "properties": {"NAME": "Yemen", "SUBJECTO": "Yemen", "BORDERPRECISION": 1, "DE": "Ottoman Empire", "MAPA": "world_1530.geojson", "MOTIVO": "Yemen y Adén: tahiríes en 1530 (Adén otomano en 1538); geometría de Yemen en world_1500", "FUENTE": "https://en.wikipedia.org/wiki/Yemen_Eyalet", "AREA_KM2": 75251}, "geometry": {"type": "Polygon", "coordinates": [[[43.48795395996116, 16.621825637141917], [44.508690330728925, 14.096846193663826], [45.2608118670841, 13.828231359251259], [46.335271204734354, 14.096846193663826], [46.711331972911935, 13.935677293016287], [46.87773410632187, 13.473871601441703], [46.601199183074215, 13.400545679048342], [46.079287561980465, 13.399416528657717], [45.825903925505855, 13.405233941987795], [45.69247725924609, 13.347759805635256], [45.51863769015429, 13.207596384004397], [45.39597991427539, 13.073898874238772], [45.19341567477343, 12.93368300052051], [44.963572535124996, 12.825172029451174], [44.78880217990039, 12.805737100557131], [44.681067499724605, 12.824559770540041], [44.44053557833789, 12.6397777423418], [44.062747034636715, 12.613552652314944], [43.84059050997851, 12.663913331941409], [43.60489847715067, 12.828886858386788], [43.56005004366992, 12.860278688386721], [43.483645472136715, 12.930004678682131], [43.340849909392574, 13.12666567416553], [43.30284789523242, 13.240954004243655], [43.38397887667773, 13.565180383638186], [43.347563776580074, 13.851036630586428], [43.20694259127734, 14.079471193269534], [43.05326369723437, 14.60650786013965], [42.79587844332812, 15.470080934480471], [42.763525995818355, 15.666981302217287], [42.883879694548824, 15.984922014192385], [42.82804778536914, 16.321475587800784], [42.81439879855273, 16.40412863345508], [42.76366332491992, 16.645455919221682], [43.42492776663269, 16.92532275681682], [43.48795395996116, 16.621825637141917]]]}}, {"type": "Feature", "properties": {"NAME": "Cyprus (Venice)", "SUBJECTO": "Venice", "BORDERPRECISION": 1, "DE": "Ottoman Empire", "MAPA": "world_1530.geojson", "MOTIVO": "Chipre, veneciana de 1489 a 1570-1571", "FUENTE": "https://en.wikipedia.org/wiki/Ottoman_Cyprus", "AREA_KM2": 9183}, "geometry": {"type": "Polygon", "coordinates": [[[32.78413680514453, 34.625228486970705], [32.60339263400195, 34.61473425479297], [32.357180628386715, 34.680335603669924], [32.27109054049609, 34.71969565005664], [32.27097991427539, 34.81415518374805], [32.19850066622851, 34.86138876529102], [32.14372161349414, 35.042544923738284], [32.18047622164843, 35.05831488223438], [32.23445800265429, 35.01363333316211], [32.30098632296679, 35.01626165957813], [32.48311522921679, 35.15294226260547], [32.5969839425957, 35.15557440371875], [32.74495223483203, 35.11427267642383], [32.77952483615039, 35.15294226260547], [32.81907180270312, 35.2817455157793], [32.79511168917773, 35.36061056704883], [33.07747939547656, 35.3186107501543], [33.37370971163867, 35.30648001284961], [33.53904250582812, 35.33169516177539], [33.907317194548824, 35.436847291902346], [34.21733764132617, 35.573566041902346], [34.45821288546679, 35.64456137271289], [34.24465468844531, 35.511844240144534], [34.04842666110156, 35.40793188662891], [33.78049758395312, 35.2081371173418], [33.77266601046679, 35.129283510164065], [33.92467406710742, 34.95322760196094], [33.79195693453906, 34.95737036319141], [33.73257735690234, 34.90862234683399], [33.685820612517574, 34.93486746402149], [33.5385122629082, 34.944156251863284], [33.4839353891289, 34.79579123111133], [33.13139251193164, 34.680335603669924], [32.95861724337695, 34.659339509919924], [32.91454604586718, 34.635726533845705], [32.91451552828906, 34.54125937075977], [32.81665709933398, 34.538638673738284], [32.78413680514453, 34.625228486970705]]]}}, {"type": "Feature", "properties": {"NAME": "Crete (Venice)", "SUBJECTO": "Venice", "BORDERPRECISION": 1, "DE": "Ottoman Empire", "MAPA": "world_1530.geojson", "MOTIVO": "Creta (reino de Candia), veneciana hasta 1669", "FUENTE": "https://en.wikipedia.org/wiki/Cretan_War_(1645%E2%80%931669)", "AREA_KM2": 8157}, "geometry": {"type": "Polygon", "coordinates": [[[23.696656260100585, 35.698123537019534], [23.733677897063476, 35.62731894107227], [23.742875132170898, 35.56175955386524], [23.87945273837207, 35.55241736026172], [23.956812891570312, 35.52767141909961], [24.03900435885547, 35.56175955386524], [24.033263239470703, 35.59847220034961], [24.081856760588867, 35.611583314851565], [24.152676615325195, 35.56438025088672], [24.135817560759765, 35.52242621035938], [24.091456446257812, 35.51980169864063], [24.073323282805664, 35.49620398135547], [24.11320403536914, 35.48571737857227], [24.17774489840625, 35.46998556704883], [24.21970275363086, 35.44900091739063], [24.22960380038379, 35.39131888003711], [24.38828376254199, 35.37296637149219], [24.768567118254882, 35.42802771182422], [24.99748137911914, 35.42102011294727], [25.01360038241504, 35.36247976870899], [25.100091013518554, 35.34674795718555], [25.374018702117187, 35.31790503116016], [25.51163581332324, 35.29476507754688], [25.67320731600879, 35.349368654207034], [25.713534388152343, 35.327010713533205], [25.66846755465625, 35.18682058902149], [25.741803202239257, 35.13700445742969], [25.788973841277343, 35.13700445742969], [25.935492548552734, 35.21303518863086], [26.0641527505791, 35.23924978824024], [26.099352869597656, 35.215648256257815], [26.16882613619922, 35.247108064607424], [26.2735090585625, 35.312659822419924], [26.236044916716796, 35.228763185457034], [26.24266723116992, 35.144874177888674], [26.16048530062793, 35.02428396792774], [25.898680719939453, 35.04525717349414], [25.74173644503711, 35.008853517488284], [25.590724024382812, 35.01641806216602], [24.693467173186523, 34.94047125430469], [24.715638193694335, 35.03477057071094], [24.69006637057422, 35.09244116397266], [24.324357065764648, 35.20778997989063], [24.013197931853515, 35.21041449160938], [23.7855940195, 35.26285132022266], [23.567723307219726, 35.254981599763674], [23.513134989348632, 35.275958620027346], [23.466885599700195, 35.31790503116016], [23.529439005461914, 35.569625459626955], [23.67146590670703, 35.572249971345705], [23.669087442961914, 35.611583314851565], [23.665133509246093, 35.66665609927539], [23.696656260100585, 35.698123537019534]]]}}, {"type": "Feature", "properties": {"NAME": "Funj", "SUBJECTO": "Funj", "BORDERPRECISION": 1, "DE": "Ottoman Empire", "MAPA": "world_1530.geojson", "MOTIVO": "Sultanato funj de Sennar (1504-1821), nunca otomano (derrota otomana en Hannik, 1585); geometría funj de world_1500", "FUENTE": "https://en.wikipedia.org/wiki/Funj_Sultanate", "AREA_KM2": 104690}, "geometry": {"type": "Polygon", "coordinates": [[[33.631829354691504, 15.741861923134486], [33.999442700408196, 13.658719630739924], [33.141678227069264, 11.575577338345376], [32.11667270375557, 11.575577338345376], [31.777096473385242, 12.382070885474892], [31.850804724052285, 14.88815140815445], [32.145637726720466, 16.28860817082832], [33.25126148672615, 16.509732922829457], [33.69351099072843, 16.43602467216241], [33.8374990487221, 16.23032744645716], [33.631829354691504, 15.741861923134486]]]}}]}