{"type": "FeatureCollection", "features": [{"type": "Feature", "properties": {"NAME": "New France", "SUBJECTO": "France", "BORDERPRECISION": 1, "DE": "sin datos", "MAPA": "world_1715.geojson", "MOTIVO": "Quebec y Montreal, Nueva Francia hasta 1763", "FUENTE": "https://en.wikipedia.org/wiki/New_France", "ORIGEN_GEOMETRIA": "world_1783 Quebec (recortado al sur de 50° N)", "AREA_KM2": 372693}, "geometry": {"type": "Polygon", "coordinates": [[[-77.8915334739086, 47.19745724770486], [-76.05252860641265, 47.75715438129058], [-74.61330740576365, 47.59724091455181], [-72.7743025382677, 49.1164188485702], [-72.24415384740982, 50.0], [-66.93632502547146, 50.0], [-67.0963639883125, 49.82562979312305], [-67.18860336819532, 49.576304994539065], [-67.31770798245313, 49.42533453555469], [-67.58378311673047, 49.33966024966602], [-68.06532761135938, 49.29287298770313], [-68.30696579495313, 49.22692068667774], [-68.80112167874219, 48.97719534488086], [-69.14960190335157, 48.734481416658205], [-69.50712296048047, 48.459212861970705], [-69.65325638333204, 48.295604310945315], [-69.80172440091016, 48.190806947664065], [-70.1923341421211, 47.81147726626758], [-70.41080185452344, 47.556720338777346], [-70.5988282827461, 47.432506166414065], [-70.80607315579297, 47.171512208894534], [-71.03921982327344, 46.73586233706836], [-70.70225235501172, 47.067523561433596], [-70.53371902981641, 47.12645681949024], [-70.22405716458204, 47.342017732576174], [-69.74747177639844, 47.76669653506641], [-69.25392624417188, 48.12005575747852], [-68.34129044094922, 48.546458803132815], [-67.78133102932813, 48.72406729312305], [-67.35399553963548, 48.845890707072265], [-66.43519489122934, 45.13295071256959], [-66.50201126614454, 45.18606527896289], [-66.96033188382032, 45.210155092195315], [-67.0159425405586, 45.143905244783205], [-67.18675705471875, 45.25231894107227], [-67.27174088040235, 45.183658204988284], [-67.34384628811719, 45.314559541658205], [-67.25745865383985, 45.34921606631641], [-67.26611801663282, 45.464759431794924], [-67.20206162014844, 45.495582185701174], [-67.22073074856641, 45.56493338199024], [-67.32132431546094, 45.56493338199024], [-67.59396835842969, 45.66897924991016], [-67.55923935452344, 45.77224691958789], [-67.698536839875, 47.0410114154375], [-67.77693649807813, 47.16450461001758], [-67.9964112905586, 47.29381140323047], [-68.34302231350782, 47.305003725007815], [-68.52740952053907, 47.22569616885547], [-68.6989030508125, 47.263927064851565], [-68.92590805569532, 47.42587622256641], [-69.04906937161329, 47.46438177676563], [-69.33331772366407, 47.22787054629688], [-69.56453415432813, 46.94613989444141], [-70.07698532620313, 45.94710501284961], [-70.5894288686836, 45.294620119050784], [-71.11182877102735, 45.35020788760547], [-71.2928971914375, 45.3232494220293], [-71.45621964016797, 45.127643190339846], [-71.53464981594922, 44.95860632510547], [-72.02667709866407, 45.00128134341602], [-72.86158463040235, 45.00320395083789], [-73.00128251287805, 45.0048535206267], [-72.99612784508847, 45.02175112566054], [-74.7776438735629, 45.02175112566054], [-74.88751972520186, 44.95542966566225], [-75.21803757229688, 44.776839815095705], [-75.45849319973829, 44.63969763369922], [-76.13288973210057, 44.326666671896945], [-76.357065225, 44.2601069], [-76.46298705000001, 44.243476325], [-76.44859455, 44.277386775], [-76.5862093, 44.23346285], [-76.8758313, 44.11170455], [-77.03485635, 44.058924425], [-77.06328445000001, 44.075122475], [-77.029225675, 44.1007872], [-76.932680025, 44.1359186], [-76.884787225, 44.15882875], [-76.885547275, 44.16951765], [-76.89721895000001, 44.17485835], [-76.91980224999999, 44.17485085], [-76.93157104999999, 44.181585625], [-76.93252535, 44.195062675], [-76.966712625, 44.1776418], [-77.034132875, 44.129323], [-77.0371744, 44.141380775], [-76.9758372, 44.213815125], [-76.950951625, 44.24654665], [-76.962517675, 44.23957535], [-76.973807075, 44.226885625], [-76.984819825, 44.208477475], [-77.00181615, 44.199459325], [-77.02479605, 44.199831175], [-77.07485645, 44.189339025], [-77.15199735, 44.167982875], [-77.230864975, 44.15916715], [-77.31145932499999, 44.16289185], [-77.414444175, 44.140022125], [-77.53981952500001, 44.090557975], [-77.5300751, 44.08654465], [-77.3852109, 44.12798215], [-77.311789375, 44.130016225], [-77.309810525, 44.092646875], [-77.248359825, 44.098923675], [-77.127437275, 44.148846625], [-77.08436087499999, 44.132538925], [-77.119130625, 44.050000575], [-77.129760075, 44.017243475], [-77.116249225, 44.034267625], [-77.08042, 44.041919975], [-77.0222724, 44.040200525], [-76.9557191, 44.057128475], [-76.8807601, 44.092703825], [-76.895384325, 44.062621575], [-76.96354439257618, 44.0], [-77.60719519140777, 44.0], [-77.622794675, 44.010243675], [-77.78349389597733, 44.0], [-80.0, 44.0], [-80.0, 44.85076317927142], [-79.99440322499999, 44.8526295], [-79.950714925, 44.8417129], [-79.949700975, 44.7910809], [-79.946659175, 44.767006075], [-79.94158952500001, 44.769488425], [-79.937306775, 44.78012285], [-79.933810925, 44.79890935], [-79.92033575, 44.80930895], [-79.89688125, 44.81132165], [-79.886527225, 44.797264675], [-79.889273675, 44.767138025], [-79.831520925, 44.747810025], [-79.713268975, 44.739280675], [-79.6713068, 44.749804575], [-79.7056344, 44.779381725], [-79.7108719, 44.799315975], [-79.6870193, 44.809607325], [-79.675348075, 44.83211125], [-79.675858225, 44.86682775], [-79.693740675, 44.882016375], [-79.728995425, 44.877677125], [-79.743583475, 44.871175275], [-79.737504825, 44.862510825], [-79.726172075, 44.85277045], [-79.70958522500001, 44.84195415], [-79.7026564, 44.836658975], [-79.7053856, 44.836884925], [-79.70074775, 44.83491705], [-79.68874285, 44.83075535], [-79.69553785, 44.82628065], [-79.72113275000001, 44.82149295], [-79.7333226, 44.812243275], [-79.7321074, 44.798531625], [-79.7468371, 44.796441825], [-79.7775117, 44.805973875], [-79.799131025, 44.8410799], [-79.81169507499999, 44.9017599], [-79.85134614999998, 44.9436775], [-79.91808425, 44.9668327], [-79.932333725, 44.988493425], [-79.894094575, 45.008659675], [-79.930695825, 45.0354616], [-80.0, 45.05625602723595], [-80.0, 45.09645106936928], [-79.967116275, 45.10009135], [-79.978024075, 45.1289717], [-80.0, 45.138673763678746], [-80.0, 47.2012755004129], [-79.97040854151271, 47.19745724770486], [-77.8915334739086, 47.19745724770486]]]}}, {"type": "Feature", "properties": {"NAME": "South Carolina", "SUBJECTO": "Great Britain", "BORDERPRECISION": 1, "DE": "sin datos", "MAPA": "world_1715.geojson", "MOTIVO": "Charleston y la costa de Carolina del Sur (1670)", "FUENTE": "https://en.wikipedia.org/wiki/Province_of_Carolina", "ORIGEN_GEOMETRIA": "world_1783 EE. UU. recortado", "AREA_KM2": 33165}, "geometry": {"type": "Polygon", "coordinates": [[[-79.74940536190311, 33.87182260285899], [-79.30544754544141, 33.26877935977344], [-79.34851547757032, 33.10972937198047], [-79.7171144155586, 32.79741247744922], [-80.02908035794141, 32.62508352847461], [-80.22191330471875, 32.53567465396289], [-80.5806398061836, 32.496783815339846], [-80.73827072659375, 32.235763154939455], [-80.81800552883985, 32.146583162263674], [-80.92341054239957, 32.0], [-81.5, 32.0], [-81.5, 34.0], [-79.62122796476211, 34.0], [-79.74940536190311, 33.87182260285899]]]}}, {"type": "Feature", "properties": {"NAME": "Ottoman Empire", "SUBJECTO": "Ottoman Empire", "BORDERPRECISION": 1, "DE": "sin datos", "MAPA": "world_1715.geojson", "MOTIVO": "Rodas, otomana desde 1522", "FUENTE": "https://en.wikipedia.org/wiki/Siege_of_Rhodes_(1522)", "ORIGEN_GEOMETRIA": "", "AREA_KM2": 1437}, "geometry": {"type": "Polygon", "coordinates": [[[27.803055, 36.268326], [27.805832, 36.27055400000012], [27.876106, 36.31971], [27.895828, 36.332222], [27.909161, 36.339722], [28.068333, 36.404999], [28.107494, 36.41861], [28.207222000000115, 36.44249], [28.210831, 36.452492], [28.212772, 36.455544000000145], [28.215832, 36.45776400000011], [28.219166, 36.456940000000145], [28.225826, 36.453049], [28.233887, 36.441376], [28.238049, 36.431107], [28.206944, 36.343597], [28.186939, 36.299988], [28.141388, 36.210541], [28.122772, 36.185822000000144], [28.063606, 36.111931], [28.009163, 36.068886], [27.95666100000011, 36.044991], [27.945827, 36.03471400000012], [27.931664, 36.0186], [27.906109, 35.988052], [27.898888000000113, 35.975555], [27.89277600000014, 35.960831], [27.865555, 35.93222], [27.842777000000126, 35.91360500000013], [27.839443, 35.911659], [27.799721, 35.893326], [27.786663, 35.890549], [27.781387, 35.890274], [27.768608, 35.893608], [27.733055, 35.91111], [27.730274, 35.91333], [27.728611, 35.916664], [27.722221, 35.929718], [27.719166, 35.94082600000013], [27.72138600000011, 35.94944], [27.730831000000137, 35.978882], [27.740829000000133, 36.10443900000013], [27.719719, 36.1661], [27.788883000000112, 36.251656], [27.803055, 36.268326]]]}}, {"type": "Feature", "properties": {"NAME": "Manchu Empire", "SUBJECTO": "Manchu Empire", "BORDERPRECISION": 1, "DE": "sin datos", "MAPA": "world_1715.geojson", "MOTIVO": "Taiwán, Qing desde 1683", "FUENTE": "https://en.wikipedia.org/wiki/Dutch_Formosa", "ORIGEN_GEOMETRIA": "", "AREA_KM2": 39628}, "geometry": {"type": "Polygon", "coordinates": [[[120.90708832887697, 24.84496432147109], [120.921097, 24.875828], [120.951393, 24.92332800000014], [120.958702, 24.933046], [121.00166300000012, 25.001663], [121.00916300000017, 25.008888], [121.058319, 25.047218], [121.062759, 25.049999], [121.19470200000012, 25.109997000000135], [121.223602, 25.115551], [121.275871, 25.118906], [121.310532, 25.126106], [121.338593, 25.132496], [121.363037, 25.14333], [121.371918, 25.149162], [121.375526, 25.152775], [121.384987, 25.157497], [121.390549, 25.15888600000011], [121.396942, 25.159161], [121.409416, 25.155273000000136], [121.4180530000001, 25.149162], [121.441109, 25.129103], [121.444122, 25.134743], [121.396942, 25.176105], [121.394707, 25.18055], [121.39498900000012, 25.186939], [121.398041, 25.191105], [121.435257, 25.236660000000143], [121.44274900000016, 25.243885], [121.476089, 25.26888700000012], [121.4805530000001, 25.271942], [121.512497, 25.281666], [121.51805100000013, 25.282776], [121.559418, 25.284164], [121.56694, 25.283054], [121.583328, 25.275829], [121.598038, 25.26722], [121.606934, 25.26083], [121.610809, 25.2575], [121.616928, 25.249439], [121.636658, 25.214439], [121.68127400000014, 25.168667], [121.734711, 25.138885], [121.788597, 25.126583], [121.881653, 25.114719], [121.999153, 25.01083], [122.002213, 25.006943], [122.001099, 25.000275], [121.99720800000011, 24.99666200000013], [121.992752, 24.993885], [121.978317, 24.986938], [121.96951300000012, 24.985033], [121.947197, 24.976383], [121.913879, 24.959995], [121.882477, 24.93277400000011], [121.878593, 24.929161000000136], [121.828323, 24.86694], [121.819443, 24.85277600000012], [121.81694000000016, 24.847775], [121.813873, 24.834995], [121.805252, 24.789997], [121.799713, 24.756664], [121.800812, 24.74527400000011], [121.817207, 24.637218], [121.819992, 24.626942], [121.82222, 24.622498], [121.828323, 24.614441], [121.843597, 24.606384], [121.84942600000011, 24.59222], [121.853317, 24.56361], [121.853043, 24.533607], [121.839706, 24.476383000000112], [121.8311000000001, 24.470829], [121.81667300000015, 24.463882], [121.8035890000001, 24.455551], [121.79609700000015, 24.44833], [121.780548, 24.426384], [121.77665700000011, 24.414162], [121.75943, 24.335274], [121.759163, 24.328884], [121.76053600000012, 24.323887], [121.772491, 24.301661], [121.75305200000014, 24.292774], [121.74498000000017, 24.286385], [121.67608600000017, 24.204994], [121.659416, 24.184719], [121.60748300000012, 24.085831], [121.60498, 24.080551], [121.60192900000015, 24.060829], [121.603317, 24.055832], [121.609154, 24.041664], [121.616089, 24.034164], [121.611366, 23.98333], [121.596367, 23.899998], [121.536926, 23.70138500000013], [121.496368, 23.485271000000125], [121.476326, 23.422417], [121.47580700000015, 23.414719000000105], [121.473312, 23.401108000000136], [121.453049, 23.327221], [121.355553, 23.087498], [121.25916300000017, 22.899998], [121.168053, 22.762497], [121.137497, 22.735271], [121.12886, 22.72805], [121.119141, 22.724716], [121.108322, 22.72221800000011], [121.079437, 22.70916], [121.030273, 22.656384], [121.014427, 22.634995], [120.969711, 22.568329], [120.955551, 22.535831], [120.878593, 22.341385000000116], [120.873306, 22.323608], [120.872208, 22.316666], [120.871368, 22.291943], [120.873032, 22.274998], [120.879425, 22.23256300000014], [120.88472, 22.098053], [120.88247700000011, 22.039440000000127], [120.880257, 22.034443], [120.824158, 21.927773000000116], [120.722763, 21.927773000000116], [120.716377, 21.928051], [120.71138, 21.930828], [120.70665, 21.933605], [120.6997070000001, 21.94083], [120.698318, 21.945827], [120.69555011626643, 21.970797727102234], [120.62239364108203, 21.92519911380176], [120.57657912692187, 21.950509630159182], [120.52810195407031, 22.096486650422854], [120.11343673190234, 22.6418529376543], [119.96409133395312, 23.086133562043948], [119.95028212985156, 23.28300818057422], [120.02075484713671, 23.61978491397266], [120.26632216891406, 23.97598608584766], [120.6741596638849, 24.551345763515954], [120.694702, 24.59638600000011], [120.697746, 24.60083], [120.72771726931316, 24.626902540359385], [120.85697463473437, 24.80925329776172], [120.90708832887697, 24.84496432147109]]]}}, {"type": "Feature", "properties": {"NAME": "Korea", "SUBJECTO": "Korea", "BORDERPRECISION": 1, "DE": "sin datos", "MAPA": "world_1715.geojson", "MOTIVO": "hueco dentro de Joseon (Seúl)", "FUENTE": "https://en.wikipedia.org/wiki/Joseon", "ORIGEN_GEOMETRIA": "world_1650 Korea", "AREA_KM2": 11459}, "geometry": {"type": "MultiPolygon", "coordinates": [[[[126.261108, 33.193878], [126.226929, 33.216385], [126.20720700000015, 33.229431], [126.18609600000013, 33.24749], [126.170532, 33.262497], [126.157761, 33.278877000000136], [126.15525800000012, 33.289436], [126.158333, 33.314713], [126.176376, 33.344154], [126.183594, 33.352776], [126.270264, 33.422768], [126.312477, 33.450272], [126.31749, 33.452774], [126.372208, 33.47304500000013], [126.378036, 33.47470900000013], [126.633614, 33.531662], [126.695824, 33.539993], [126.793053, 33.550827], [126.813026, 33.55193300000013], [126.821381, 33.550545], [126.827477, 33.547775], [126.835823, 33.54055000000011], [126.839661, 33.536369], [126.890823, 33.525269], [126.898041, 33.52332300000012], [126.941093, 33.45388], [126.936653, 33.424438], [126.918869, 33.392769], [126.915817, 33.387772], [126.908333, 33.379158], [126.847488, 33.311661], [126.843048, 33.308327], [126.76470900000015, 33.282768], [126.725273, 33.270271], [126.622208, 33.23999], [126.599426, 33.23333000000014], [126.586929, 33.231377], [126.508614, 33.223602], [126.48248300000012, 33.221375], [126.47608900000012, 33.22248800000011], [126.445534, 33.229431], [126.424698, 33.234718], [126.416931, 33.23555], [126.34055300000011, 33.227211], [126.330833, 33.225548], [126.314697, 33.21915400000012], [126.30970800000011, 33.216385], [126.301086, 33.209435], [126.297211, 33.205269], [126.290543, 33.195541], [126.285812, 33.193047], [126.27388, 33.190269], [126.26638800000012, 33.190826], [126.261108, 33.193878]]], [[[126.524986, 34.316101], [126.50121526637658, 34.33095713549882], [126.61678603610156, 34.40909155459766], [126.67125902437378, 34.414196646187754], [126.60027300000013, 34.30027], [126.594147, 34.29943800000012], [126.556374, 34.300545], [126.524986, 34.316101]]], [[[126.380257, 34.494713], [126.38111900000013, 34.491653], [126.383331, 34.483879], [126.383614, 34.478325], [126.382751, 34.471931], [126.36775200000011, 34.441658], [126.346939, 34.40470900000014], [126.342484, 34.401382], [126.261932, 34.37137600000011], [126.25637800000015, 34.369713], [126.199142, 34.353325], [126.186653, 34.351387], [126.17970300000013, 34.35110500000013], [126.171921, 34.35193600000014], [126.150269, 34.354439], [126.1436000000001, 34.3555530000001], [126.112488, 34.378876], [126.10608700000012, 34.387215], [126.101646, 34.39666000000011], [126.099152, 34.406937], [126.098877, 34.412766], [126.09971600000017, 34.419159], [126.10192900000015, 34.424995], [126.23887600000012, 34.569992], [126.243317, 34.573326], [126.253326, 34.573051], [126.27332300000012, 34.56582600000013], [126.29831700000011, 34.555824], [126.33499100000017, 34.539993], [126.376923, 34.498878], [126.380257, 34.494713]]], [[[126.311371, 34.749161], [126.31667300000015, 34.746101000000124], [126.328323, 34.7347180000001], [126.343323, 34.712769], [126.351089, 34.699158], [126.35425670708109, 34.694227683002055], [126.36014083346484, 34.6688304767168], [126.3809323997136, 34.54690151701245], [126.31832900000018, 34.564995000000124], [126.31275900000014, 34.56805400000013], [126.288307, 34.590271], [126.273041, 34.633881], [126.265266, 34.67083], [126.266937, 34.683327], [126.28942900000015, 34.742218], [126.29276300000015, 34.74749], [126.296944, 34.751106], [126.303864, 34.751106], [126.311371, 34.749161]]], [[[125.971916, 34.647217000000126], [125.96360800000014, 34.648605], [125.92637600000012, 34.668884], [125.91776300000015, 34.676102], [125.915543, 34.680824], [125.91442900000015, 34.685822], [125.914993, 34.692215], [125.9180530000001, 34.69748700000014], [125.92330900000013, 34.699997], [125.9561000000001, 34.712769], [125.981369, 34.716934], [125.99379, 34.707802], [126.003052, 34.700272], [126.006378, 34.696098], [126.008614, 34.691376], [126.006104, 34.685547], [126.002487, 34.681107], [125.991364, 34.668053], [125.971916, 34.647217000000126]]], [[[125.93830900000012, 34.74527], [125.939148, 34.728043], [125.93609600000013, 34.722763], [125.932213, 34.718323], [125.911926, 34.716934], [125.90442700000017, 34.717766], [125.890549, 34.728043], [125.88832100000013, 34.732491], [125.888893, 34.738884], [125.892212, 34.751106], [125.893883, 34.763885], [125.898041, 34.767212], [125.908333, 34.772766], [125.915268, 34.772766], [125.921654, 34.77388000000013], [125.944427, 34.771935], [125.95082100000013, 34.773048], [125.955833, 34.775826], [125.97360200000014, 34.789719], [125.9791560000001, 34.791664], [125.985527, 34.79249600000014], [125.993042, 34.791939], [126.000549, 34.789993], [126.0008160000001, 34.791939], [126.003883, 34.789993], [126.006378, 34.785271], [126.003052, 34.773048], [126.005257, 34.768326000000116], [126.008614, 34.76416], [126.009163, 34.759995], [126.00332600000013, 34.75804900000014], [125.995819, 34.758606], [125.988312, 34.760551], [125.983597, 34.75804900000014], [125.98027000000013, 34.752777], [125.97387700000013, 34.751938], [125.966927, 34.75444], [125.951103, 34.756660000000124], [125.945251, 34.754715], [125.94081100000017, 34.751106], [125.93830900000012, 34.74527]]], [[[126.04248, 34.85388200000011], [125.993042, 34.85833], [125.986923, 34.860825], [125.983597, 34.864998], [125.98526000000015, 34.868324], [126.002213, 34.890274], [126.057747, 34.925552], [126.06275900000014, 34.928329], [126.069992, 34.92610200000013], [126.075272, 34.92305], [126.076637, 34.921349000000134], [126.094437, 34.909714], [126.09108700000013, 34.890274], [126.089706, 34.88499500000012], [126.082207, 34.866936], [126.078598, 34.862495], [126.074158, 34.859161], [126.063599, 34.854439], [126.04248, 34.85388200000011]]], [[[126.09971600000017, 35.04583], [126.093048, 35.047218], [126.059418, 35.055267], [126.05609100000015, 35.059433], [126.058319, 35.08387800000014], [126.0599820000001, 35.090828], [126.063873, 35.094994], [126.068047, 35.09860200000014], [126.11747700000012, 35.130547], [126.1372070000001, 35.14222000000012], [126.14888, 35.145828], [126.155823, 35.146103], [126.162201, 35.143326000000116], [126.14971900000012, 35.133331], [126.146942, 35.132523], [126.14444000000015, 35.08027600000014], [126.11554000000012, 35.053047], [126.10608700000012, 35.046944], [126.09971600000017, 35.04583]]], [[[126.52485732824043, 35.668818811486446], [126.52496521549281, 35.5788688936746], [126.52137800000014, 35.57666], [126.514999, 35.575829], [126.507217, 35.576385], [126.498596, 35.578049], [126.488037, 35.58416], [126.477203, 35.5961], [126.470833, 35.604439], [126.46859700000016, 35.609161], [126.474701, 35.63582600000012], [126.479431, 35.639992], [126.52485732824043, 35.668818811486446]]], [[[126.375259, 36.403877000000136], [126.36554, 36.41054500000013], [126.338318, 36.434158], [126.33582300000012, 36.438599], [126.32527200000015, 36.559715], [126.32499700000017, 36.565544], [126.32747700000016, 36.571663], [126.334427, 36.581108], [126.341927, 36.588326], [126.346939, 36.591103], [126.352768, 36.592766], [126.359993, 36.593048], [126.37064024021359, 36.59160496744358], [126.40061477145312, 36.474803529695315], [126.39824398799846, 36.401395913536874], [126.382202, 36.40277100000014], [126.375259, 36.403877000000136]]], [[[126.29298233688893, 36.65750336476507], [126.3341046430074, 36.63945817923419], [126.315536, 36.599434], [126.293053, 36.58194], [126.299149, 36.627769], [126.298866, 36.639435000000105], [126.29298233688893, 36.65750336476507]]], [[[126.2291560000001, 36.680824], [126.192749, 36.671379], [126.18609600000013, 36.67027300000012], [126.17276000000015, 36.67276800000013], [126.16609200000016, 36.67527], [126.13793104231274, 36.6974688797998], [126.23150161227343, 36.68448217959766], [126.23545005699879, 36.68274953314972], [126.234993, 36.682495], [126.2291560000001, 36.680824]]], [[[126.184418, 36.878326], [126.188309, 36.882492], [126.286102, 36.959991], [126.291092, 36.962494], [126.29776, 36.963608], [126.304428, 36.962212], [126.308868, 36.942215], [126.3118464812468, 36.9287653938262], [126.25480178317187, 36.90731009097461], [126.186174842905, 36.86416048451861], [126.184418, 36.878326]]], [[[126.43718700000011, 37.002777], [126.442467, 36.99971800000014], [126.44914200000017, 36.99137900000011], [126.478043, 36.933601], [126.479156, 36.92832900000013], [126.47708887526082, 36.92329625128242], [126.39093306979296, 36.95851095767383], [126.35740194459343, 36.94589943600068], [126.352768, 36.948875], [126.348328, 36.95249200000012], [126.344994, 36.95665700000012], [126.33499100000017, 36.9855500000001], [126.339706, 36.989159], [126.34999100000016, 36.994438], [126.35582, 36.996384], [126.392761, 37.004715], [126.422493, 37.004715], [126.429428, 37.004715], [126.43718700000011, 37.002777]]], [[[126.37168006408618, 37.62979709087647], [126.39185622653125, 37.614322267488284], [126.39749561397814, 37.598875194797316], [126.397491, 37.598877], [126.38638300000014, 37.60527], [126.381927, 37.608887], [126.375259, 37.61721], [126.373032, 37.621658], [126.371918, 37.62693800000011], [126.37168006408618, 37.62979709087647]]], [[[124.7391510000001, 37.946098], [124.701393, 37.918053], [124.695534, 37.9161], [124.651932, 37.914436], [124.643333, 37.915825], [124.63665800000012, 37.918327], [124.63304100000016, 37.922493], [124.613312, 37.947487], [124.609711, 37.957214000000135], [124.615257, 37.968597], [124.62387100000012, 37.9741590000001], [124.688873, 37.982491], [124.709991, 37.984161], [124.718048, 37.983604], [124.72554000000014, 37.981659], [124.72554000000014, 37.97804300000013], [124.73165900000015, 37.97637900000012], [124.743042, 37.964714], [124.745529, 37.959991], [124.746643, 37.954712], [124.74359100000015, 37.949715], [124.7391510000001, 37.946098]]], [[[126.77498600000013, 34.286942], [126.771927, 34.281937], [126.765549, 34.280823], [126.7391510000001, 34.278603], [126.731369, 34.279160000000104], [126.70082100000013, 34.284164], [126.695534, 34.287216], [126.65138200000013, 34.316101], [126.648041, 34.320274], [126.64582800000017, 34.324997], [126.649147, 34.349998], [126.654709, 34.370544], [126.65776100000016, 34.375549], [126.663879, 34.382492], [126.668869, 34.384995], [126.687187, 34.388885], [126.694138, 34.38916], [126.701393, 34.38694], [126.713882, 34.37832600000013], [126.73082, 34.363884], [126.77082800000017, 34.296387], [126.77498600000013, 34.286942]]], [[[127.219437, 34.420547], [127.213608, 34.418884], [127.160538, 34.414436], [127.145828, 34.414993], [127.133614, 34.420273], [127.11580700000013, 34.434433000000126], [127.111366, 34.460274], [127.1141510000001, 34.463882000000126], [127.12580900000012, 34.471657], [127.13165300000014, 34.473602], [127.199142, 34.485268], [127.213043, 34.48555], [127.222717, 34.483627000000126], [127.239433, 34.4741590000001], [127.24359100000015, 34.470543], [127.245819, 34.465828], [127.244141, 34.453323], [127.241653, 34.447212], [127.232758, 34.43110700000011], [127.22886700000015, 34.426659], [127.219437, 34.420547]]], [[[126.989433, 34.537773], [126.98858600000017, 34.531662], [126.98552700000016, 34.526382], [126.966377, 34.504166], [126.93830900000012, 34.487213], [126.896942, 34.449158], [126.887772, 34.43499], [126.889427, 34.412491], [126.83415371187921, 34.43536604477128], [126.9921366431519, 34.546361701462295], [126.989433, 34.537773]]], [[[127.780823, 34.47470900000013], [127.758331, 34.487495], [127.716087, 34.517212], [127.713043, 34.521378], [127.711929, 34.526657], [127.71582, 34.530823], [127.741364, 34.538887], [127.751099, 34.54193900000013], [127.764427, 34.540833], [127.77082800000017, 34.53833], [127.776321, 34.533669], [127.78637700000013, 34.519440000000145], [127.798317, 34.490829], [127.798317, 34.484993000000145], [127.795258, 34.47971300000012], [127.790817, 34.47637900000012], [127.785538, 34.473877], [127.780823, 34.47470900000013]]], [[[127.793053, 34.573326], [127.78665200000012, 34.576103], [127.758614, 34.5908280000001], [127.74832200000014, 34.596939000000134], [127.739967, 34.604439], [127.73664900000017, 34.608604], [127.734421, 34.613327], [127.733322, 34.61859900000013], [127.73304700000017, 34.635826], [127.736923, 34.639992], [127.76805100000013, 34.66415400000011], [127.794144, 34.661377], [127.81218700000011, 34.64138800000012], [127.81275900000014, 34.621933000000126], [127.806641, 34.5816650000001], [127.803864, 34.575554], [127.799713, 34.57222], [127.793053, 34.573326]]], [[[127.71720900000014, 34.841660000000104], [127.773613, 34.84388000000013], [127.77388, 34.82638500000013], [127.76944, 34.794998], [127.747757, 34.727486], [127.743874, 34.72332], [127.640823, 34.616936], [127.634987, 34.614998], [127.576393, 34.638329], [127.556374, 34.651382000000126], [127.554153, 34.656097], [127.556374, 34.692215], [127.558319, 34.704712], [127.562759, 34.717491], [127.567757, 34.766663], [127.52249100000017, 34.856941], [127.49387400000012, 34.851662], [127.41832000000011, 34.81860400000011], [127.39888, 34.802216], [127.363876, 34.75138900000013], [127.387497, 34.701935000000105], [127.391937, 34.69832600000012], [127.4086, 34.68943], [127.429428, 34.67694100000011], [127.48580900000013, 34.641937], [127.48887600000012, 34.637772], [127.51332100000013, 34.59665700000011], [127.514427, 34.591377], [127.50998700000014, 34.578606], [127.389427, 34.4711], [127.315262, 34.443604], [127.24359100000015, 34.511383], [127.16832000000011, 34.51194], [127.13970900000015, 34.515831], [127.135536, 34.519440000000145], [127.12915, 34.527771], [127.124687, 34.537216000000114], [127.123306, 34.54805], [127.125259, 34.554993], [127.13165300000014, 34.565269], [127.20166000000017, 34.633049], [127.206383, 34.635551000000135], [127.211929, 34.632492], [127.213043, 34.627213], [127.213043, 34.620827], [127.211113, 34.614159], [127.202766, 34.596939000000134], [127.19165, 34.574715], [127.192749, 34.569443], [127.20720700000015, 34.568886], [127.242203, 34.569443], [127.328598, 34.652214], [127.332489, 34.65638000000013], [127.352768, 34.692764], [127.351646, 34.698044], [127.338318, 34.73777], [127.33527400000014, 34.74193600000012], [127.328598, 34.74305], [127.27388, 34.727486], [127.2262558159065, 34.71084916295268], [127.35909560641406, 34.80417975039844], [127.57686679550423, 34.886313824887345], [127.60498, 34.8491590000001], [127.611366, 34.840828], [127.638603, 34.81415600000014], [127.654709, 34.811935], [127.66748, 34.813881], [127.673027, 34.815544], [127.686371, 34.825829], [127.690262, 34.830276], [127.704987, 34.838882000000126], [127.71082300000012, 34.84054600000013], [127.71720900000014, 34.841660000000104]]], [[[127.85720800000013, 34.723877], [127.852768, 34.738884], [127.82222000000013, 34.843048], [127.826927, 34.855827], [127.836929, 34.879715], [127.86763354490853, 34.917350804794765], [127.91561994654498, 34.88001695692602], [127.909714, 34.874161], [127.90664700000013, 34.869156], [127.909149, 34.84721400000012], [127.910263, 34.841934], [127.916382, 34.832771], [127.9561, 34.800827], [127.962196, 34.798332], [127.968048, 34.79999500000014], [127.990257, 34.817215], [128.00192300000015, 34.820831], [128.032471, 34.817772], [128.055542, 34.813324], [128.0691220000001, 34.80832700000013], [128.07330300000012, 34.80471], [128.075531, 34.79999500000014], [128.062469, 34.706383], [128.060791, 34.701103], [128.056641, 34.69748700000014], [128.044434, 34.69499200000013], [127.984993, 34.696938], [127.97720300000015, 34.697769], [127.888603, 34.710548], [127.88025700000014, 34.712212], [127.860527, 34.719711], [127.85720800000013, 34.723877]]], [[[128.526093, 34.80582400000014], [128.521088, 34.80915800000014], [128.49801600000012, 34.832214000000135], [128.494965, 34.83638], [128.490509, 34.845825000000104], [128.488556, 34.856384], [128.490509, 34.868881], [128.494415, 34.880272000000105], [128.501923, 34.887497], [128.507202, 34.889992], [128.641083, 34.95249200000012], [128.663605, 34.960274], [128.71109000000013, 34.976654], [128.72821, 34.943047], [128.72995, 34.942215], [128.735229, 34.933327], [128.754425, 34.882767], [128.754425, 34.87693800000011], [128.743011, 34.788048], [128.741913, 34.781662], [128.68551600000012, 34.724159], [128.67996200000016, 34.722214], [128.641937, 34.70916], [128.636108, 34.707214], [128.612457, 34.701103], [128.594116, 34.697769], [128.58828700000015, 34.699432000000115], [128.58523600000012, 34.70388], [128.60107400000015, 34.760277], [128.604126, 34.80915800000014], [128.60080000000016, 34.830551], [128.597748, 34.834991], [128.591919, 34.836655], [128.55218500000012, 34.823608], [128.53970300000015, 34.81610100000012], [128.53579700000012, 34.811935], [128.526093, 34.80582400000014]]], [[[127.63839835280051, 34.901322832411125], [127.66134178252156, 34.90553943758313], [127.660812, 34.905266], [127.643051, 34.900826], [127.63839835280051, 34.901322832411125]]], [[[128.501373, 35.008331], [128.4699710000001, 34.88582600000012], [128.463013, 34.868599], [128.451904, 34.845543], [128.445801, 34.838882000000126], [128.434967, 34.834717000000126], [128.408875, 34.83194], [128.40304600000013, 34.833603], [128.3355100000001, 34.871376], [128.346344, 34.899994], [128.356628, 34.905266], [128.356079, 34.909714], [128.35107400000015, 34.9313810000001], [128.34079, 34.943604], [128.329132, 34.949432], [128.32027994091945, 34.94809832783519], [128.37973462348842, 35.00482007174317], [128.391083, 35.008331], [128.396088, 35.010826], [128.405243, 35.017769], [128.407196, 35.024437], [128.410522, 35.02971600000012], [128.415527, 35.03221100000013], [128.465515, 35.05027], [128.477173, 35.05387900000011], [128.483307, 35.051102], [128.487457, 35.047493], [128.501373, 35.008331]]], [[[126.614151, 35.919441], [126.615257, 35.925827], [126.6216650248748, 35.94355289077901], [126.62643722018359, 35.92805441470508], [126.614151, 35.90496600220924], [126.614151, 35.919441]]], [[[129.342468, 37.257217], [129.3530270000001, 37.23360400000013], [129.354126, 37.228325], [129.362488, 37.150024], [129.365784, 37.14694200000014], [129.37634300000013, 37.134995], [129.429413, 37.068329], [129.433594, 37.058884], [129.43191500000012, 37.053322], [129.428589, 37.048332], [129.423859, 37.044998000000135], [129.417206, 37.034721], [129.414978, 37.02804600000013], [129.413879, 37.02166], [129.413879, 37.016106], [129.416077, 36.942215], [129.423584, 36.899994000000106], [129.427765, 36.878876], [129.43081700000016, 36.8688810000001], [129.453857, 36.816101], [129.459137, 36.807213000000104], [129.46856700000012, 36.7888870000001], [129.474976, 36.774437], [129.474976, 36.768883], [129.47302200000013, 36.710274], [129.471619, 36.69249], [129.4696960000001, 36.685822], [129.466919, 36.679718], [129.462189, 36.676384], [129.451904, 36.671379], [129.44247400000017, 36.664711], [129.438568, 36.66027100000014], [129.422211, 36.634163], [129.41775500000017, 36.622765], [129.416931, 36.616661000000136], [129.41885400000012, 36.583054], [129.41998300000012, 36.577774], [129.423035, 36.567772], [129.427185, 36.55832700000013], [129.43692, 36.54583000000014], [129.441071, 36.53611], [129.450531, 36.506386], [129.450531, 36.500549], [129.439148, 36.40638000000013], [129.438019, 36.400269], [129.435242, 36.394157], [129.41803, 36.369713], [129.405823, 36.357216], [129.390533, 36.33940100000012], [129.385254, 36.327461], [129.38192700000013, 36.3144], [129.38192700000013, 36.308563], [129.386902, 36.036018], [129.38885500000015, 36.025742], [129.394104, 36.016579], [129.398285, 36.01296200000013], [129.419037, 36.000481], [129.425537, 35.997215], [129.449982, 35.99305], [129.457184, 35.99305], [129.463013, 35.994713000000104], [129.471832, 36.0], [129.481628, 36.008003], [129.490265, 36.015747], [129.528137, 36.05104100000011], [129.551147, 36.077103000000136], [129.557251, 36.078773000000126], [129.5644840000001, 36.076553000000104], [129.573914, 36.064041], [129.585297, 36.034866], [129.588348, 36.01931000000013], [129.588348, 36.007645], [129.586914, 35.999596], [129.583862, 35.988884], [129.486633, 35.683327], [129.464752, 35.644608], [129.47329700000012, 35.60277600000012], [129.47525, 35.592216], [129.474396, 35.580276], [129.469421, 35.55027], [129.46637, 35.537216000000114], [129.43942300000015, 35.475822], [129.347473, 35.344994], [129.342194, 35.342491], [129.281097, 35.30082700000014], [129.277771, 35.29583], [129.241638, 35.208885], [129.237488, 35.18990300000013], [129.174683, 35.146942], [129.136932, 35.11221300000011], [128.978577, 35.084991], [128.97818684997517, 35.08915449392663], [129.06002334078906, 35.169784151033205], [129.28525832614062, 35.50729712100391], [129.41224196871875, 35.742896638826174], [129.46677688082812, 35.9274860248125], [129.24174025973437, 35.90793951602344], [129.17754653414843, 35.958697877839846], [129.23533156832812, 36.2451244220293], [129.2508039804375, 36.671527467683596], [129.24999526461718, 37.00887640567188], [129.12926772555468, 37.3078571185625], [128.98092177828906, 37.530406557039065], [128.45106032809375, 38.25542410464649], [128.26961771441506, 38.42048735938178], [128.279694, 38.43027500000011], [128.293304, 38.450546], [128.301361, 38.46832300000011], [128.307739, 38.488602], [128.312744, 38.51416], [128.313599, 38.520546], [128.313599, 38.531937], [128.307739, 38.55804400000011], [128.305542, 38.562767], [128.30191, 38.578331], [128.303589, 38.58387800000014], [128.3071900000001, 38.588882], [128.32135000000017, 38.5991590000001], [128.36355600000013, 38.625244], [128.38916000000017, 38.579437], [128.532471, 38.330551], [128.625793, 38.14444], [128.63443, 38.125549], [128.637756, 38.121376], [128.641083, 38.11721], [128.858002, 37.859436], [128.863281, 37.856102], [128.878296, 37.85193600000014], [128.88272100000017, 37.848045], [128.998566, 37.736107], [129.010529, 37.724434], [129.049988, 37.685822], [129.063019, 37.668884000000105], [129.063019, 37.657494], [129.059967, 37.638603], [129.066376, 37.62443500000012], [129.136108, 37.525551], [129.18969700000014, 37.46471400000013], [129.258881, 37.371376], [129.342468, 37.257217]]], [[[126.76138300000014, 36.969986], [126.76915, 36.969154], [126.776657, 36.967209], [126.781097, 36.963608], [126.79735306486327, 36.944461180891366], [126.6853514047539, 36.838172517732424], [126.50699608683318, 36.911072191989064], [126.51416, 36.941376], [126.49054000000012, 36.99554400000011], [126.499153, 37.049721], [126.502487, 37.052773], [126.517761, 37.0522160000001], [126.525269, 37.05027], [126.56749000000013, 37.024994], [126.571663, 37.02137800000014], [126.61998000000017, 36.9727630000001], [126.682213, 36.971657], [126.76138300000014, 36.969986]]], [[[126.78633407076953, 37.07390173526172], [126.79267884232613, 37.0131365250065], [126.756104, 37.044441], [126.752777, 37.04860700000012], [126.754173, 37.054161000000136], [126.76666837642266, 37.09683521379677], [126.78633407076953, 37.07390173526172]]], [[[126.718597, 37.128044], [126.70748900000012, 37.123604], [126.69442700000013, 37.12165800000014], [126.68775900000014, 37.124435], [126.661102, 37.156097], [126.660812, 37.161934], [126.65946741158606, 37.221849412769494], [126.73009938641582, 37.13948075341403], [126.723038, 37.131660000000124], [126.718597, 37.128044]]], [[[130.868561, 37.450829], [130.81884800000012, 37.467766], [130.815796, 37.471931], [130.811646, 37.481377], [130.80581700000016, 37.507217], [130.80581700000016, 37.513054], [130.807465, 37.518326000000116], [130.838562, 37.529991], [130.844696, 37.53138], [130.912201, 37.545547], [130.919434, 37.545273], [130.924133, 37.51915700000012], [130.9220580000001, 37.515266], [130.922485, 37.48193400000014], [130.920807, 37.476654], [130.887482, 37.453323], [130.875519, 37.449997], [130.868561, 37.450829]]]]}}, {"type": "Feature", "properties": {"NAME": "Vice-Royalty of Peru", "SUBJECTO": "Spain", "BORDERPRECISION": 1, "DE": "Amazon hunter-gatherers", "MAPA": "world_1715.geojson", "MOTIVO": "«Amazon hunter-gatherers» sube por los Andes y cubre Cuzco, Potosí y Bogotá, españolas desde 1533-1545; se devuelven al Virreinato del Perú (Nueva Granada se separa en 1717)", "FUENTE": "https://en.wikipedia.org/wiki/Potos%C3%AD ; https://en.wikipedia.org/wiki/Captaincy_General_of_Chile ; https://es.wikipedia.org/wiki/Nuevo_Reino_de_Granada", "AREA_KM2": 714116}, "geometry": {"type": "MultiPolygon", "coordinates": [[[[-66.82204898499876, -16.6882802937121], [-66.69912545261629, -15.581968502269937], [-66.33003950413747, -15.001976297517515], [-64.5049406540838, -16.097035607549724], [-64.66180129731615, -16.804676207468987], [-65.71878024503351, -18.084155408373633], [-65.49350658965456, -19.135432466808773], [-66.29065675176017, -22.058316394529324], [-67.1888932851875, -22.983517087980466], [-67.14041611233594, -23.00864449886914], [-67.04498764553907, -23.071604169889646], [-66.97242447415235, -23.14105836300488], [-67.01447006741407, -23.427114881559568], [-67.25753494778516, -24.082739271208006], [-67.41947647610547, -24.19800988583203], [-67.72257454766967, -24.31737498757537], [-67.6671583160892, -23.76321267177071], [-67.91698508364286, -22.014425298895077], [-66.69912545261629, -20.253062732803503], [-66.3303548554689, -18.286286214684107], [-66.82204898499876, -16.6882802937121]]], [[[-74.28756765626122, -12.645921515632779], [-77.88516689942037, -6.977321235497577], [-76.65593157559574, -6.977321235497577], [-74.32038446032895, -7.960709494557271], [-73.8653855137637, -7.455155109484765], [-73.84206100979688, -7.578698553129392], [-73.56371780911329, -8.009167589231687], [-72.9640397695625, -8.984194196745115], [-72.91613480130079, -9.041099943205076], [-72.54514526630913, -9.09142455615144], [-72.0, -10.0], [-69.04348429041339, -12.956515709586604], [-68.78882550311815, -14.22980964606285], [-70.2639078917077, -14.22980964606285], [-74.28756765626122, -12.645921515632779]]], [[[-75.68539267305526, 1.55787241269859], [-74.47353824786833, 4.385532738134767], [-72.72308185593164, 6.674591096821196], [-71.87666714367839, 6.973325701145875], [-72.0, 5.0], [-73.5, 0.0], [-74.32683134595011, -2.756104486500354], [-76.04131391368342, -2.797921134493848], [-76.41502879181613, -1.634285606880208], [-75.68539267305526, 1.55787241269859]]]]}}]}