{"type": "FeatureCollection", "features": [{"type": "Feature", "properties": {"NAME": "Vice Royalty of Peru", "SUBJECTO": "Spanish Habsburg", "BORDERPRECISION": 1, "DE": "sin datos", "MAPA": "world_1600.geojson", "MOTIVO": "Andes españoles sin datos: Santiago (1541), Potosí (1545), Bogotá (1538); geometría de los virreinatos de world_1650/world_1783 recortada a los Andes", "FUENTE": "https://en.wikipedia.org/wiki/Potos%C3%AD ; https://en.wikipedia.org/wiki/Captaincy_General_of_Chile ; https://es.wikipedia.org/wiki/Nuevo_Reino_de_Granada", "ORIGEN_GEOMETRIA": "world_1650 Vice Royalty of Peru + world_1783 virreinatos", "AREA_KM2": 1546666}, "geometry": {"type": "MultiPolygon", "coordinates": [[[[-68.4096187266585, -30.483797582471198], [-68.44473910803109, -30.9403625403149], [-69.36699927002375, -32.6004308319017], [-69.36699927002375, -33.0931064277352], [-69.81549545803907, -34.07170907406445], [-69.84934708157422, -34.25593987850781], [-70.33677383938672, -35.09016839413281], [-70.48040482083204, -35.35797921566601], [-70.4408692983711, -35.542137540861326], [-70.35577866116407, -36.01860848812695], [-70.39072128811719, -36.16510049252148], [-70.99118515530469, -36.664654172941404], [-71.09505173245313, -36.805218137785154], [-71.14907545765897, -37.215619901293486], [-73.27789017239454, -37.283462919279295], [-73.18790146389844, -37.21957436947461], [-73.14423080960157, -37.15579644589062], [-72.95995804348829, -36.575889982267576], [-72.8463639883125, -36.35919991879101], [-72.70962235012891, -35.938797391935545], [-72.62884995022657, -35.645878233], [-72.33002182522657, -35.282581724210935], [-72.16658493557813, -34.957909025236326], [-72.0761232046211, -34.67194405941601], [-71.96271225491407, -34.24619332699414], [-71.82275864163282, -33.934708036466795], [-71.73862167874219, -33.87738076595898], [-71.61574265042188, -33.70565453915234], [-71.60992142239454, -33.57227746395703], [-71.75040146389844, -33.191490568205076], [-71.71336838284375, -33.108848966642576], [-71.50858017483594, -32.90518990902539], [-71.41605087796094, -32.752567686125], [-71.4132681292792, -32.728882529049976], [-71.41326809467435, -32.728882234513435], [-67.91698508364286, -26.261480347307323], [-67.54385005680815, -26.39317506266075], [-68.26028707563256, -28.542486119133965], [-68.4096187266585, -30.483797582471198]]], [[[-65.71878024503351, -18.084155408373633], [-65.49350658965456, -19.135432466808773], [-66.29065675176017, -22.058316394529324], [-67.1888932851875, -22.983517087980466], [-67.14041611233594, -23.00864449886914], [-67.04498764553907, -23.071604169889646], [-66.97242447415235, -23.14105836300488], [-67.01447006741407, -23.427114881559568], [-67.25753494778516, -24.082739271208006], [-67.41947647610547, -24.19800988583203], [-67.72257454766967, -24.31737498757537], [-67.6671583160892, -23.76321267177071], [-67.91698508364286, -22.014425298895077], [-66.54293786209772, -19.765984390912124], [-66.54293786209772, -18.267023785590155], [-66.6934585993106, -17.205973084076422], [-67.00362839996394, -15.7854260563725], [-69.27241573917452, -15.218229221569857], [-69.6018889310102, -14.22980964606285], [-70.52024877574033, -13.743517451082983], [-74.28756765626122, -12.645921515632779], [-77.88516689942037, -6.977321235497577], [-77.92672331976947, -3.1016434897751317], [-77.8998559610522, -3.112543263869829], [-77.2535000266561, -2.759051555925397], [-77.2535000266561, -2.097904193884223], [-77.8536876800239, -1.66723383131634], [-77.94148993056844, -1.724464599665186], [-77.98651596585157, 2.474799953416628], [-77.80209824124219, 2.576873622850222], [-77.60178848782422, 2.882342182115359], [-77.39906784573438, 3.314928613618655], [-77.10599991360547, 3.792188964799685], [-77.16080185452344, 3.912821851686282], [-77.41248032132032, 4.096569620088381], [-77.44452377835157, 4.179111562684817], [-77.30672928372266, 4.503531537965578], [-77.26658340969922, 4.73875530810718], [-77.33365341702344, 5.126281343416018], [-77.50037857571485, 5.513577543214602], [-77.46189590969922, 5.628058992341799], [-77.24131485501172, 5.692084394410891], [-77.18051620999219, 5.787540517762942], [-77.22030350247266, 5.876424871400637], [-77.47459885159375, 6.091959558442873], [-77.49352737942579, 6.193592630342287], [-77.44711014309766, 6.282669626191897], [-77.33848282376172, 6.429078184083743], [-77.32217117825391, 6.543500028566164], [-77.40016647854688, 6.670446001008791], [-75.25407706533127, 7.885133959440891], [-73.2449437524619, 10.195637269240686], [-72.5417470929576, 10.195637269240686], [-72.5417470929576, 9.59289727537987], [-72.2403770960272, 8.990157281519055], [-71.75897288195493, 8.8564338887212], [-72.0, 5.0], [-73.5, 0.0], [-75.0, -5.0], [-73.66229836609097, -7.229502723181726], [-73.8653855137637, -7.455155109484763], [-73.84206100979688, -7.578698553129392], [-73.56371780911329, -8.009167589231687], [-72.9640397695625, -8.984194196745115], [-72.91613480130079, -9.041099943205076], [-72.54514526630913, -9.09142455615144], [-72.0, -10.0], [-68.0, -14.0], [-64.5049406540838, -16.097035607549724], [-64.66180129731615, -16.804676207468987], [-65.71878024503351, -18.084155408373633]]]]}}, {"type": "Feature", "properties": {"NAME": "Portuguese Brazil", "SUBJECTO": "Portugal", "BORDERPRECISION": 1, "DE": "sin datos", "MAPA": "world_1600.geojson", "MOTIVO": "Brasil portugués (capitanías desde 1534; São Paulo, 1554)", "FUENTE": "https://en.wikipedia.org/wiki/Colonial_Brazil", "ORIGEN_GEOMETRIA": "world_1650 Portuguese Brazil", "AREA_KM2": 711103}, "geometry": {"type": "Polygon", "coordinates": [[[-45.33543488064649, -1.769296921774107], [-45.256310429962895, -1.762774623914915], [-45.07563873806836, -1.603522099538999], [-44.93192383328321, -1.622268237158018], [-44.79592606106641, -1.736357845350462], [-44.55380722561719, -2.091690696760374], [-44.4617433218086, -2.269413150831419], [-44.52027222195508, -2.38392273335095], [-44.65867706814649, -2.568504013105589], [-44.711029973419926, -2.759242214246946], [-44.670277562531254, -2.968854822202879], [-44.59336563626172, -3.146605648084837], [-44.22212311306836, -2.77724377064343], [-44.05594727078321, -2.706992782636839], [-43.78189941922071, -2.636500991865354], [-43.33403870144727, -2.432190097852903], [-43.23323151150586, -2.419258274122434], [-43.06809326687696, -2.450668014570432], [-42.724476781281254, -2.621496595426756], [-42.31647202053907, -2.817604698225217], [-42.1083497671211, -2.861631073042112], [-41.60564514675977, -2.936803497358518], [-41.10252472439649, -2.973839916273313], [-40.89364334622266, -2.947966970487791], [-40.67771240750196, -2.934785999342161], [-40.41797348538282, -2.857973493620115], [-40.23088928738477, -2.851210989042478], [-39.72181030789258, -3.008974947019773], [-39.39290329495313, -3.192543424650388], [-39.050106969269535, -3.407845415159422], [-38.78636261502149, -3.604257978483396], [-38.06839844265821, -4.231795229002195], [-37.73482224026563, -4.529729284330564], [-37.365109410675785, -4.80216208843823], [-37.180600133332035, -4.954271711393552], [-36.96609970608594, -5.042764581724363], [-36.635949101837895, -5.118308462187009], [-36.074940648468754, -5.161570943876463], [-35.664765324982426, -5.179744638487058], [-35.46437164822461, -5.268277086302], [-35.34490295925977, -5.477704919859129], [-35.30568024197461, -5.750867761656004], [-35.039113011750004, -6.652605451627927], [-34.91841599026563, -7.167046941801267], [-34.890675511750004, -7.611789144560056], [-34.924611058625004, -7.872391618772703], [-35.00502487698438, -8.279249586149412], [-35.114186253937504, -8.660737432523923], [-35.36562058010938, -9.245868124052244], [-35.59859940091016, -9.627626813932615], [-36.20459839383008, -10.156334318205076], [-36.82893463650586, -10.735910810514646], [-37.026905980500004, -10.825291074796873], [-37.18652435818555, -10.844699300810056], [-37.36214157620313, -11.131019987150388], [-37.40425583401563, -11.30901948361035], [-37.40968033352735, -11.467892087980466], [-37.63658997097852, -11.951296247526365], [-37.90627762356641, -12.390306867643552], [-38.266137090119145, -12.886686719938474], [-38.38593002835157, -12.982259191557127], [-38.47313019314649, -12.98879949001904], [-38.50883194485547, -12.798260129972654], [-38.633839574250004, -12.665090002104002], [-38.79886719265821, -12.627316869779783], [-38.82786270657422, -12.983214773222166], [-39.069691625031254, -13.720789350553709], [-39.09182449856641, -14.051242269560056], [-39.126217809113285, -14.324533857389646], [-38.983212438019535, -15.556898511930662], [-38.94815537014844, -16.001592077299314], [-39.20771118679883, -17.145834363981443], [-39.22504135647657, -17.44450417904492], [-39.16210266629102, -17.73663941769238], [-39.14249893704297, -17.77471772579785], [-39.48419662991407, -17.997833646818357], [-39.666134801300785, -18.226957716032224], [-39.783497777375004, -18.58301392941113], [-39.80140015164258, -18.748253263517576], [-39.69133850613477, -19.408796705290037], [-39.73901840725782, -19.574093259855466], [-39.83545776883008, -19.701372541471677], [-40.13977524319532, -19.975227750822263], [-40.478302922638676, -20.64943925289746], [-40.93281647244336, -21.2794117107832], [-41.02341553250196, -21.521047987028318], [-41.04813858548047, -21.660875715299802], [-40.98350235501172, -22.086429990812498], [-41.524872746857426, -22.252769865080076], [-41.769642796906254, -22.3803638592207], [-41.929196324738285, -22.5458912029707], [-41.96725937405469, -22.75564233212109], [-41.95784470120313, -22.92082253841992], [-42.138424840363285, -22.972029127165037], [-42.52707764187696, -22.953785337492185], [-42.967404332550785, -23.030962385221677], [-43.261872258576176, -23.03158036617871], [-43.60584732571485, -23.006899274870115], [-43.81523987332227, -22.95650712399121], [-44.23002716580274, -22.98916093258496], [-44.56129547634961, -22.989857114835935], [-44.657502141388676, -23.26325837521191], [-44.79012772122266, -23.352487958952146], [-45.148156133087895, -23.49302140621777], [-45.36444946804883, -23.69678918270703], [-45.45921036282422, -23.855831541105466], [-45.79530426541211, -23.735821165128904], [-45.95288559475782, -23.767919935270506], [-46.20621201077344, -23.882822431608396], [-47.04512497464063, -24.43733636288281], [-47.28293320217969, -24.615724958463865], [-47.60905548611524, -24.7879566326582], [-47.88615128079297, -24.98549882320996], [-48.12549683133008, -25.290943540617185], [-48.34439941922071, -25.3994068279707], [-48.599450078400395, -25.431719221159177], [-48.72452255764844, -25.425621427580076], [-48.72175690213086, -25.53362313656445], [-48.57032105008008, -25.634952940031248], [-48.5161866811836, -25.876251615568357], [-48.56617065945508, -26.11778298763867], [-48.61063095608594, -26.244936384245115], [-48.73746582547071, -26.31508294491406], [-48.77539536038282, -26.38503686337109], [-48.60260864773633, -26.676922239347654], [-48.586300816925785, -27.210539259000974], [-48.56390854397657, -27.680593885465818], [-48.58936020413282, -27.820417799040037], [-48.63908096829297, -28.08733979611035], [-48.72837921658399, -28.367052473112302], [-48.85215473075115, -28.563025097024802], [-48.852154730931154, -28.56302509690464], [-48.85215473085459, -28.563025096783424], [-48.796904749948716, -28.475548314302703], [-49.83871578487881, -26.797313680361846], [-49.48718016007792, -24.553337158794967], [-48.46896037885509, -23.748769173313708], [-48.735456882361326, -23.20633508408783], [-42.614164503450226, -21.457394404398947], [-41.13945273296335, -19.528925166069953], [-40.572255898160705, -15.445107955490915], [-40.68569526512124, -12.609123781477695], [-37.84971109110802, -9.886578974425], [-36.14812058670009, -7.617791635214424], [-36.37499932062114, -6.937155433451252], [-38.076589825029075, -6.256519231688074], [-40.005059063358075, -4.554928727280142], [-41.70664956776601, -4.328049993359087], [-44.20231564089764, -4.895246828161731], [-45.10983057658187, -4.554928727280142], [-46.35766361314768, -3.1936563237538], [-45.37131592312696, -1.756672538801389], [-45.33543488064649, -1.769296921774107]]]}}, {"type": "Feature", "properties": {"NAME": "Philippines (Spain)", "SUBJECTO": "Spanish Habsburg", "BORDERPRECISION": 1, "DE": "sin datos", "MAPA": "world_1600.geojson", "MOTIVO": "Filipinas españolas desde 1571 (Manila)", "FUENTE": "https://es.wikipedia.org/wiki/Capitan%C3%ADa_General_de_Filipinas", "ORIGEN_GEOMETRIA": "world_1650 Philippines", "AREA_KM2": 232187}, "geometry": {"type": "MultiPolygon", "coordinates": [[[[125.07284835299609, 5.722916685060305], [125.16346267184375, 5.907373033479494], [125.12945846041796, 6.053437314943118], [124.96576980075, 6.084847532228274], [124.80300429782031, 5.78587444873218], [124.72530654391406, 5.811126314119143], [124.22405532321093, 6.089605890229983], [123.9734602304375, 6.336855493501467], [123.88060286959765, 6.565385423616213], [123.86417678317187, 6.851268373445315], [124.07358077487109, 7.258353792146487], [124.02478316744921, 7.474268041566653], [123.81526473483203, 7.658065401033205], [123.46498397311328, 7.790728651002688], [123.33368209323046, 7.771390043214602], [123.30615523776171, 7.695080839113039], [123.24790481051562, 7.59330328555469], [123.02297500094531, 7.478448949769778], [122.7254133554375, 7.45239695163135], [122.71332076510546, 7.674750886873049], [122.63507369479296, 7.782581411317629], [122.45516494235156, 7.693248353914065], [122.22833541354296, 7.260722242311282], [121.99187758883593, 6.872631154969973], [121.8936033578789, 6.910547815278811], [121.83990767916796, 6.967609964326662], [121.82449630221484, 7.056522451356692], [121.84884932955859, 7.196360670045657], [122.01048568209765, 7.533452115968508], [122.09366897067187, 7.775066934541506], [122.21169570407031, 7.902391992524905], [122.38402846774218, 7.98535593600635], [122.63799575289843, 8.004962526277346], [122.73632338961718, 8.062362276033205], [122.79649642428515, 8.272155366853518], [122.88876632174609, 8.342245660737795], [123.13582137545703, 8.45078619571094], [123.48587325533984, 8.496016107515139], [123.61694625338671, 8.337462030366702], [123.66279891451953, 8.013531290010256], [123.8054685922539, 8.083725534395022], [124.02393630465625, 8.109618745759768], [124.11720565280078, 8.192410074189944], [124.210398707, 8.446743570283694], [124.37160018405078, 8.561454378083987], [124.58719161471484, 8.466619096711916], [124.6705808969414, 8.428687654451174], [124.74164107760546, 8.918048463777346], [124.87212661227343, 8.924685083345217], [124.99087050875781, 8.715273462251467], [125.13256362399218, 8.931600175813479], [125.22484878024218, 8.995329462007327], [125.40131667575, 8.951235376313967], [125.46097091158984, 9.053023897126955], [125.4395017953789, 9.370639406160159], [125.36229232272265, 9.624602876619143], [125.4280500741875, 9.783579431489748], [125.6138410898125, 9.536205850557131], [125.93394759616015, 9.17475088687305], [126.03708938082812, 8.958961091951174], [126.07461074313281, 8.81291826815967], [125.92319777926562, 8.482217393831057], [126.02999404391406, 8.38079222293262], [126.27187636813281, 8.425783716157717], [126.30630019625781, 8.235264383271975], [126.25448897799609, 8.044540964082522], [126.27994063815234, 7.733274064973635], [126.37267592867968, 7.536518655732912], [126.37203505953906, 7.339562021211428], [126.321726832, 7.148838602021975], [126.1946287485039, 6.888064943269534], [126.0452375741875, 6.608192525819582], [125.95463088473437, 6.652467809633059], [125.91082290133593, 6.849339567140383], [125.74777511080859, 7.185722433046145], [125.61458114108203, 7.236262880281252], [125.44320968112109, 6.962694250062746], [125.28043654879687, 6.593827806428713], [125.39131453951953, 6.422524057344241], [125.46597579440234, 6.244781576112551], [125.53285506686328, 5.93994053454761], [125.46145156344531, 5.717408262208743], [125.28927138766406, 5.488303266481203], [125.15203383883593, 5.60237368197803], [125.07284835299609, 5.722916685060305]]], [[[118.04424575289843, 9.170442186311526], [117.96718886813281, 9.113093934968752], [117.85714248141406, 8.833304964021487], [117.71008590182421, 8.712273202852053], [117.44408706149218, 8.635461412385744], [117.27061751803515, 8.450831018403811], [117.12781051119921, 8.469577394441409], [117.22448256930468, 8.68580874057178], [117.37879470309375, 8.895802102998537], [117.53589156588671, 9.048627458528323], [117.8020735116875, 9.208031259492678], [118.08850387057421, 9.43102415652637], [118.50806716403125, 9.921140275911135], [118.55771163424609, 9.673459611848635], [118.50457290133593, 9.482750497773928], [118.38454726657031, 9.349073015168948], [118.27627089938281, 9.266241632417483], [118.04424575289843, 9.170442186311526]]], [[[123.10443404635546, 10.229646287874026], [122.96222213229296, 9.594010911897463], [123.03656295260546, 9.46075590701465], [123.13299849948046, 9.251307092622561], [123.03712752780078, 9.066852174714846], [122.94163039645312, 9.047589860872073], [122.76859572848437, 9.212398134187502], [122.39562514742968, 9.478434167817873], [122.30312636813281, 9.649777017549319], [122.34745315035937, 9.815056405977053], [122.6020994516289, 9.91090353579883], [122.70073989352343, 10.031832300142092], [122.92015365084765, 10.851844392732424], [123.11761764010546, 10.934868417695803], [123.23906997164843, 10.922424875215334], [123.29033950289843, 10.86535032840137], [123.31205275973437, 10.738339982942385], [123.14426711520312, 10.33137758822803], [123.10443404635546, 10.229646287874026]]], [[[119.51552108248828, 10.450623117402834], [119.21700576266406, 10.291149698213381], [119.03380111178515, 10.12557753177051], [118.8645506235039, 10.0235610827959], [118.69967177828906, 10.035908304170412], [118.75656417330859, 10.169449411348147], [118.84784224948046, 10.214116655305666], [118.98916152438281, 10.392306886628909], [119.10811904391406, 10.627629838899416], [119.14522078951953, 10.90089663119678], [119.20700362643359, 11.129742227510256], [119.35385421237109, 11.212639413789553], [119.41674331149218, 11.13018950076465], [119.34453872164843, 11.002969346956057], [119.46889785250781, 10.755472742036623], [119.56431106051562, 10.50155695529346], [119.51552108248828, 10.450623117402834]]], [[[122.29727462252734, 10.647209726289553], [121.87300399264453, 10.468407236055178], [121.88314345797656, 10.627257905916018], [121.96631911715625, 11.230978570894045], [121.99363997897265, 11.758330903962893], [122.21063521823046, 11.580912195161623], [122.470164332, 11.454417787507815], [122.63502028903125, 11.44205816836719], [122.91992476901171, 11.525263391450686], [122.93236068209765, 11.328354440645022], [122.89682296237109, 11.150391183809084], [122.7887449594414, 11.029453836396975], [122.70619491061328, 10.940329156831545], [122.29727462252734, 10.647209726289553]]], [[[125.2464094491875, 12.292607866243166], [125.27772811373828, 11.92422255130176], [125.33314803561328, 11.56222590060596], [125.44868758639453, 11.206709466890139], [125.39841750582812, 11.149427019075198], [125.32305434664843, 11.123852334932131], [125.06995681246875, 11.244016252473635], [124.98977187594531, 11.358191095308108], [124.88334182223437, 11.434202753022952], [124.85420516451953, 11.491314493135256], [124.91656020602343, 11.643918596223635], [124.87549117526171, 11.834406457856936], [124.62806991061328, 11.992697320894045], [124.33040908297656, 12.208060823396487], [124.26404860934375, 12.417557321504397], [124.49450210055468, 12.462519250825686], [124.95213607272265, 12.527031503633303], [125.1190672250664, 12.476568780854983], [125.2464094491875, 12.292607866243166]]], [[[121.09403518160937, 12.201097093538088], [120.89078811129687, 12.365831933931155], [120.73374465426562, 12.549723230317873], [120.71095565280078, 12.65132101626758], [120.54695418795703, 13.152829729036135], [120.3405027719414, 13.387433610872073], [120.64858535250781, 13.413506113008303], [121.03917983492968, 13.407996736482424], [121.18066695651171, 13.332071863130373], [121.30447677096484, 13.129049859956545], [121.31683639010546, 12.741561494783205], [121.27363875826953, 12.525474153474612], [121.17732528170703, 12.398205362275881], [121.09403518160937, 12.201097093538088]]], [[[120.24656203707812, 16.874698244050784], [120.31154159030078, 17.07176359744434], [120.32303145846484, 17.370326600984377], [120.35980514010546, 17.75788076968555], [120.39307692965625, 18.043792329744143], [120.56437209567187, 18.431623063997073], [120.64886764010546, 18.488971315339846], [120.80041793307421, 18.55281790347461], [121.03637221774218, 18.527911745027346], [121.58078292330859, 18.294051729158205], [121.83984664401171, 18.275552354768557], [121.92465499362109, 18.37100752444629], [122.04959395846484, 18.447494111970705], [122.13901046237109, 18.384166322664065], [122.14715102633593, 18.206330858186526], [122.02781203707812, 18.009172044709963], [122.00743392428515, 17.793162904695315], [122.07029250582812, 17.437577806428713], [122.31363967379687, 17.26024778933887], [122.3955793710625, 17.114329896882815], [122.20331099948046, 16.54222258181934], [122.06395247897265, 16.33230360598926], [121.68860152682421, 16.058362565950198], [121.43898299655078, 15.918075166658205], [121.4022703500664, 15.873532854036135], [121.40356734713671, 15.752832971528811], [121.36817458590625, 15.498668275789065], [121.24220565280078, 15.307833276704592], [121.29929641207812, 15.212662301973147], [121.45681289157031, 14.88268145175342], [121.61163619479296, 14.387521348909182], [121.72879317721484, 14.108259759858889], [121.77041152438281, 14.09564360232715], [121.97345260104296, 13.949970804170412], [122.10659316500781, 13.918491922334475], [122.17925551852343, 14.064768396333498], [122.39741042575, 14.30663164706592], [122.48647597750781, 14.319521509126467], [122.67462447604296, 14.269106470063967], [122.7761717172539, 14.174032770112795], [122.85634139498828, 13.888343416169924], [122.98506453951953, 13.729808412507815], [123.13177016696093, 13.69200762362842], [123.3592024179375, 13.952952943757815], [123.63851455172656, 13.832856737092776], [123.70189956149218, 13.820275865510744], [123.73689559420703, 13.763187013582034], [123.66124251803515, 13.69314344973926], [123.49137404879687, 13.622900567964358], [123.39762404879687, 13.527418695405764], [123.8188963266289, 12.975632272676272], [123.67696670016406, 12.892744623140139], [123.4212141366875, 12.98113401980762], [123.23898604830859, 13.02520903201465], [123.196970972625, 13.241114221528811], [123.09369185885546, 13.380644403413577], [122.82416060885546, 13.6214671954668], [122.48540786227343, 13.881200395540041], [122.36934188326953, 13.88095148654346], [122.32527450045703, 13.779210649446291], [122.49199965914843, 13.430172525361819], [122.3940916391289, 13.302913270906252], [122.06729415377734, 13.651609979585452], [121.62493422946093, 13.898409448579592], [121.48617080172656, 13.891750894502444], [121.33172133883593, 13.827899537996096], [121.24972060641406, 13.7133804187334], [121.18709853610156, 13.681481920198244], [121.00936416110156, 13.655685029939455], [120.86451247653125, 13.757016740754885], [120.59850600680468, 13.921617113069338], [120.51063064059375, 14.1120038852251], [120.79860213717578, 14.38577326388721], [120.94382003268359, 14.290805421785159], [121.10496810397265, 14.25303228946094], [121.28544143160937, 14.342358194307131], [121.2172346445, 14.41843470187549], [120.89658645114062, 14.551147066072268], [120.70640853366015, 14.728614412263674], [120.47143081149218, 14.804338060334963], [120.36362746676562, 14.530945383027834], [120.30511001071093, 14.575292192415041], [119.97168258151171, 14.904903017], [119.77184585055468, 15.469834886506838], [119.78871444186328, 15.660442911104006], [119.81296065768359, 15.978120408967776], [119.68141463717578, 16.187451921418948], [119.76202681979296, 16.359140001252932], [120.20210555514453, 16.04246672244434], [120.29312423190234, 16.233226381257815], [120.30344680270312, 16.417462907747073], [120.2581281991875, 16.614287935212893], [120.24656203707812, 16.874698244050784]]]]}}, {"type": "Feature", "properties": {"NAME": "Korea", "SUBJECTO": "Korea", "BORDERPRECISION": 1, "DE": "sin datos", "MAPA": "world_1600.geojson", "MOTIVO": "hueco dentro de Joseon (Hanseong/Seúl, capital desde 1405)", "FUENTE": "https://en.wikipedia.org/wiki/Joseon", "ORIGEN_GEOMETRIA": "world_1650 Korea", "AREA_KM2": 11459}, "geometry": {"type": "MultiPolygon", "coordinates": [[[[126.26638800000012, 33.190826], [126.261108, 33.193878], [126.226929, 33.216385], [126.20720700000015, 33.229431], [126.18609600000013, 33.24749], [126.170532, 33.262497], [126.157761, 33.278877000000136], [126.15525800000012, 33.289436], [126.158333, 33.314713], [126.176376, 33.344154], [126.183594, 33.352776], [126.270264, 33.422768], [126.312477, 33.450272], [126.31749, 33.452774], [126.372208, 33.47304500000013], [126.378036, 33.47470900000013], [126.633614, 33.531662], [126.695824, 33.539993], [126.793053, 33.550827], [126.813026, 33.55193300000013], [126.821381, 33.550545], [126.827477, 33.547775], [126.835823, 33.54055000000011], [126.839661, 33.536369], [126.890823, 33.525269], [126.898041, 33.52332300000012], [126.941093, 33.45388], [126.936653, 33.424438], [126.918869, 33.392769], [126.915817, 33.387772], [126.908333, 33.379158], [126.847488, 33.311661], [126.843048, 33.308327], [126.76470900000015, 33.282768], [126.725273, 33.270271], [126.622208, 33.23999], [126.599426, 33.23333000000014], [126.586929, 33.231377], [126.508614, 33.223602], [126.48248300000012, 33.221375], [126.47608900000012, 33.22248800000011], [126.445534, 33.229431], [126.424698, 33.234718], [126.416931, 33.23555], [126.34055300000011, 33.227211], [126.330833, 33.225548], [126.314697, 33.21915400000012], [126.30970800000011, 33.216385], [126.301086, 33.209435], [126.297211, 33.205269], [126.290543, 33.195541], [126.285812, 33.193047], [126.27388, 33.190269], [126.26638800000012, 33.190826]]], [[[126.556374, 34.300545], [126.524986, 34.316101], [126.50121526637658, 34.33095713549882], [126.61678603610156, 34.40909155459766], [126.67125902437378, 34.414196646187754], [126.60027300000013, 34.30027], [126.594147, 34.29943800000012], [126.556374, 34.300545]]], [[[126.380257, 34.494713], [126.38111900000013, 34.491653], [126.383331, 34.483879], [126.383614, 34.478325], [126.382751, 34.471931], [126.36775200000011, 34.441658], [126.346939, 34.40470900000014], [126.342484, 34.401382], [126.261932, 34.37137600000011], [126.25637800000015, 34.369713], [126.199142, 34.353325], [126.186653, 34.351387], [126.17970300000013, 34.35110500000013], [126.171921, 34.35193600000014], [126.150269, 34.354439], [126.1436000000001, 34.3555530000001], [126.112488, 34.378876], [126.10608700000012, 34.387215], [126.101646, 34.39666000000011], [126.099152, 34.406937], [126.098877, 34.412766], [126.09971600000017, 34.419159], [126.10192900000015, 34.424995], [126.23887600000012, 34.569992], [126.243317, 34.573326], [126.253326, 34.573051], [126.27332300000012, 34.56582600000013], [126.29831700000011, 34.555824], [126.33499100000017, 34.539993], [126.376923, 34.498878], [126.380257, 34.494713]]], [[[126.303864, 34.751106], [126.311371, 34.749161], [126.31667300000015, 34.746101000000124], [126.328323, 34.7347180000001], [126.343323, 34.712769], [126.351089, 34.699158], [126.35425670708109, 34.694227683002055], [126.36014083346484, 34.6688304767168], [126.3809323997136, 34.54690151701245], [126.31832900000018, 34.564995000000124], [126.31275900000014, 34.56805400000013], [126.288307, 34.590271], [126.273041, 34.633881], [126.265266, 34.67083], [126.266937, 34.683327], [126.28942900000015, 34.742218], [126.29276300000015, 34.74749], [126.296944, 34.751106], [126.303864, 34.751106]]], [[[125.971916, 34.647217000000126], [125.96360800000014, 34.648605], [125.92637600000012, 34.668884], [125.91776300000015, 34.676102], [125.915543, 34.680824], [125.91442900000015, 34.685822], [125.914993, 34.692215], [125.9180530000001, 34.69748700000014], [125.92330900000013, 34.699997], [125.9561000000001, 34.712769], [125.981369, 34.716934], [125.99379, 34.707802], [126.003052, 34.700272], [126.006378, 34.696098], [126.008614, 34.691376], [126.006104, 34.685547], [126.002487, 34.681107], [125.991364, 34.668053], [125.971916, 34.647217000000126]]], [[[125.93830900000012, 34.74527], [125.939148, 34.728043], [125.93609600000013, 34.722763], [125.932213, 34.718323], [125.911926, 34.716934], [125.90442700000017, 34.717766], [125.890549, 34.728043], [125.88832100000013, 34.732491], [125.888893, 34.738884], [125.892212, 34.751106], [125.893883, 34.763885], [125.898041, 34.767212], [125.908333, 34.772766], [125.915268, 34.772766], [125.921654, 34.77388000000013], [125.944427, 34.771935], [125.95082100000013, 34.773048], [125.955833, 34.775826], [125.97360200000014, 34.789719], [125.9791560000001, 34.791664], [125.985527, 34.79249600000014], [125.993042, 34.791939], [126.000549, 34.789993], [126.0008160000001, 34.791939], [126.003883, 34.789993], [126.006378, 34.785271], [126.003052, 34.773048], [126.005257, 34.768326000000116], [126.008614, 34.76416], [126.009163, 34.759995], [126.00332600000013, 34.75804900000014], [125.995819, 34.758606], [125.988312, 34.760551], [125.983597, 34.75804900000014], [125.98027000000013, 34.752777], [125.97387700000013, 34.751938], [125.966927, 34.75444], [125.951103, 34.756660000000124], [125.945251, 34.754715], [125.94081100000017, 34.751106], [125.93830900000012, 34.74527]]], [[[126.063599, 34.854439], [126.04248, 34.85388200000011], [125.993042, 34.85833], [125.986923, 34.860825], [125.983597, 34.864998], [125.98526000000015, 34.868324], [126.002213, 34.890274], [126.057747, 34.925552], [126.06275900000014, 34.928329], [126.069992, 34.92610200000013], [126.075272, 34.92305], [126.076637, 34.921349000000134], [126.094437, 34.909714], [126.09108700000013, 34.890274], [126.089706, 34.88499500000012], [126.082207, 34.866936], [126.078598, 34.862495], [126.074158, 34.859161], [126.063599, 34.854439]]], [[[126.10608700000012, 35.046944], [126.09971600000017, 35.04583], [126.093048, 35.047218], [126.059418, 35.055267], [126.05609100000015, 35.059433], [126.058319, 35.08387800000014], [126.0599820000001, 35.090828], [126.063873, 35.094994], [126.068047, 35.09860200000014], [126.11747700000012, 35.130547], [126.1372070000001, 35.14222000000012], [126.14888, 35.145828], [126.155823, 35.146103], [126.162201, 35.143326000000116], [126.14971900000012, 35.133331], [126.146942, 35.132523], [126.14444000000015, 35.08027600000014], [126.11554000000012, 35.053047], [126.10608700000012, 35.046944]]], [[[126.479431, 35.639992], [126.52485732824043, 35.668818811486446], [126.52496521549281, 35.5788688936746], [126.52137800000014, 35.57666], [126.514999, 35.575829], [126.507217, 35.576385], [126.498596, 35.578049], [126.488037, 35.58416], [126.477203, 35.5961], [126.470833, 35.604439], [126.46859700000016, 35.609161], [126.474701, 35.63582600000012], [126.479431, 35.639992]]], [[[126.375259, 36.403877000000136], [126.36554, 36.41054500000013], [126.338318, 36.434158], [126.33582300000012, 36.438599], [126.32527200000015, 36.559715], [126.32499700000017, 36.565544], [126.32747700000016, 36.571663], [126.334427, 36.581108], [126.341927, 36.588326], [126.346939, 36.591103], [126.352768, 36.592766], [126.359993, 36.593048], [126.37064024021359, 36.59160496744358], [126.40061477145312, 36.474803529695315], [126.39824398799846, 36.401395913536874], [126.382202, 36.40277100000014], [126.375259, 36.403877000000136]]], [[[126.298866, 36.639435000000105], [126.29298233688893, 36.65750336476507], [126.3341046430074, 36.63945817923419], [126.315536, 36.599434], [126.293053, 36.58194], [126.299149, 36.627769], [126.298866, 36.639435000000105]]], [[[126.234993, 36.682495], [126.2291560000001, 36.680824], [126.192749, 36.671379], [126.18609600000013, 36.67027300000012], [126.17276000000015, 36.67276800000013], [126.16609200000016, 36.67527], [126.13793104231274, 36.6974688797998], [126.23150161227343, 36.68448217959766], [126.23545005699879, 36.68274953314972], [126.234993, 36.682495]]], [[[126.186174842905, 36.86416048451861], [126.184418, 36.878326], [126.188309, 36.882492], [126.286102, 36.959991], [126.291092, 36.962494], [126.29776, 36.963608], [126.304428, 36.962212], [126.308868, 36.942215], [126.3118464812468, 36.9287653938262], [126.25480178317187, 36.90731009097461], [126.186174842905, 36.86416048451861]]], [[[126.429428, 37.004715], [126.43718700000011, 37.002777], [126.442467, 36.99971800000014], [126.44914200000017, 36.99137900000011], [126.478043, 36.933601], [126.479156, 36.92832900000013], [126.47708887526082, 36.92329625128242], [126.39093306979296, 36.95851095767383], [126.35740194459343, 36.94589943600068], [126.352768, 36.948875], [126.348328, 36.95249200000012], [126.344994, 36.95665700000012], [126.33499100000017, 36.9855500000001], [126.339706, 36.989159], [126.34999100000016, 36.994438], [126.35582, 36.996384], [126.392761, 37.004715], [126.422493, 37.004715], [126.429428, 37.004715]]], [[[126.37168006408618, 37.62979709087647], [126.39185622653125, 37.614322267488284], [126.39749561397814, 37.598875194797316], [126.397491, 37.598877], [126.38638300000014, 37.60527], [126.381927, 37.608887], [126.375259, 37.61721], [126.373032, 37.621658], [126.371918, 37.62693800000011], [126.37168006408618, 37.62979709087647]]], [[[124.7391510000001, 37.946098], [124.701393, 37.918053], [124.695534, 37.9161], [124.651932, 37.914436], [124.643333, 37.915825], [124.63665800000012, 37.918327], [124.63304100000016, 37.922493], [124.613312, 37.947487], [124.609711, 37.957214000000135], [124.615257, 37.968597], [124.62387100000012, 37.9741590000001], [124.688873, 37.982491], [124.709991, 37.984161], [124.718048, 37.983604], [124.72554000000014, 37.981659], [124.72554000000014, 37.97804300000013], [124.73165900000015, 37.97637900000012], [124.743042, 37.964714], [124.745529, 37.959991], [124.746643, 37.954712], [124.74359100000015, 37.949715], [124.7391510000001, 37.946098]]], [[[126.77082800000017, 34.296387], [126.77498600000013, 34.286942], [126.771927, 34.281937], [126.765549, 34.280823], [126.7391510000001, 34.278603], [126.731369, 34.279160000000104], [126.70082100000013, 34.284164], [126.695534, 34.287216], [126.65138200000013, 34.316101], [126.648041, 34.320274], [126.64582800000017, 34.324997], [126.649147, 34.349998], [126.654709, 34.370544], [126.65776100000016, 34.375549], [126.663879, 34.382492], [126.668869, 34.384995], [126.687187, 34.388885], [126.694138, 34.38916], [126.701393, 34.38694], [126.713882, 34.37832600000013], [126.73082, 34.363884], [126.77082800000017, 34.296387]]], [[[127.22886700000015, 34.426659], [127.219437, 34.420547], [127.213608, 34.418884], [127.160538, 34.414436], [127.145828, 34.414993], [127.133614, 34.420273], [127.11580700000013, 34.434433000000126], [127.111366, 34.460274], [127.1141510000001, 34.463882000000126], [127.12580900000012, 34.471657], [127.13165300000014, 34.473602], [127.199142, 34.485268], [127.213043, 34.48555], [127.222717, 34.483627000000126], [127.239433, 34.4741590000001], [127.24359100000015, 34.470543], [127.245819, 34.465828], [127.244141, 34.453323], [127.241653, 34.447212], [127.232758, 34.43110700000011], [127.22886700000015, 34.426659]]], [[[126.9921366431519, 34.546361701462295], [126.989433, 34.537773], [126.98858600000017, 34.531662], [126.98552700000016, 34.526382], [126.966377, 34.504166], [126.93830900000012, 34.487213], [126.896942, 34.449158], [126.887772, 34.43499], [126.889427, 34.412491], [126.83415371187921, 34.43536604477128], [126.9921366431519, 34.546361701462295]]], [[[127.780823, 34.47470900000013], [127.758331, 34.487495], [127.716087, 34.517212], [127.713043, 34.521378], [127.711929, 34.526657], [127.71582, 34.530823], [127.741364, 34.538887], [127.751099, 34.54193900000013], [127.764427, 34.540833], [127.77082800000017, 34.53833], [127.776321, 34.533669], [127.78637700000013, 34.519440000000145], [127.798317, 34.490829], [127.798317, 34.484993000000145], [127.795258, 34.47971300000012], [127.790817, 34.47637900000012], [127.785538, 34.473877], [127.780823, 34.47470900000013]]], [[[127.799713, 34.57222], [127.793053, 34.573326], [127.78665200000012, 34.576103], [127.758614, 34.5908280000001], [127.74832200000014, 34.596939000000134], [127.739967, 34.604439], [127.73664900000017, 34.608604], [127.734421, 34.613327], [127.733322, 34.61859900000013], [127.73304700000017, 34.635826], [127.736923, 34.639992], [127.76805100000013, 34.66415400000011], [127.794144, 34.661377], [127.81218700000011, 34.64138800000012], [127.81275900000014, 34.621933000000126], [127.806641, 34.5816650000001], [127.803864, 34.575554], [127.799713, 34.57222]]], [[[127.71082300000012, 34.84054600000013], [127.71720900000014, 34.841660000000104], [127.773613, 34.84388000000013], [127.77388, 34.82638500000013], [127.76944, 34.794998], [127.747757, 34.727486], [127.743874, 34.72332], [127.640823, 34.616936], [127.634987, 34.614998], [127.576393, 34.638329], [127.556374, 34.651382000000126], [127.554153, 34.656097], [127.556374, 34.692215], [127.558319, 34.704712], [127.562759, 34.717491], [127.567757, 34.766663], [127.52249100000017, 34.856941], [127.49387400000012, 34.851662], [127.41832000000011, 34.81860400000011], [127.39888, 34.802216], [127.363876, 34.75138900000013], [127.387497, 34.701935000000105], [127.391937, 34.69832600000012], [127.4086, 34.68943], [127.429428, 34.67694100000011], [127.48580900000013, 34.641937], [127.48887600000012, 34.637772], [127.51332100000013, 34.59665700000011], [127.514427, 34.591377], [127.50998700000014, 34.578606], [127.389427, 34.4711], [127.315262, 34.443604], [127.24359100000015, 34.511383], [127.16832000000011, 34.51194], [127.13970900000015, 34.515831], [127.135536, 34.519440000000145], [127.12915, 34.527771], [127.124687, 34.537216000000114], [127.123306, 34.54805], [127.125259, 34.554993], [127.13165300000014, 34.565269], [127.20166000000017, 34.633049], [127.206383, 34.635551000000135], [127.211929, 34.632492], [127.213043, 34.627213], [127.213043, 34.620827], [127.211113, 34.614159], [127.202766, 34.596939000000134], [127.19165, 34.574715], [127.192749, 34.569443], [127.20720700000015, 34.568886], [127.242203, 34.569443], [127.328598, 34.652214], [127.332489, 34.65638000000013], [127.352768, 34.692764], [127.351646, 34.698044], [127.338318, 34.73777], [127.33527400000014, 34.74193600000012], [127.328598, 34.74305], [127.27388, 34.727486], [127.2262558159065, 34.71084916295268], [127.35909560641406, 34.80417975039844], [127.57686679550423, 34.886313824887345], [127.60498, 34.8491590000001], [127.611366, 34.840828], [127.638603, 34.81415600000014], [127.654709, 34.811935], [127.66748, 34.813881], [127.673027, 34.815544], [127.686371, 34.825829], [127.690262, 34.830276], [127.704987, 34.838882000000126], [127.71082300000012, 34.84054600000013]]], [[[127.860527, 34.719711], [127.85720800000013, 34.723877], [127.852768, 34.738884], [127.82222000000013, 34.843048], [127.826927, 34.855827], [127.836929, 34.879715], [127.86763354490853, 34.917350804794765], [127.91561994654498, 34.88001695692602], [127.909714, 34.874161], [127.90664700000013, 34.869156], [127.909149, 34.84721400000012], [127.910263, 34.841934], [127.916382, 34.832771], [127.9561, 34.800827], [127.962196, 34.798332], [127.968048, 34.79999500000014], [127.990257, 34.817215], [128.00192300000015, 34.820831], [128.032471, 34.817772], [128.055542, 34.813324], [128.0691220000001, 34.80832700000013], [128.07330300000012, 34.80471], [128.075531, 34.79999500000014], [128.062469, 34.706383], [128.060791, 34.701103], [128.056641, 34.69748700000014], [128.044434, 34.69499200000013], [127.984993, 34.696938], [127.97720300000015, 34.697769], [127.888603, 34.710548], [127.88025700000014, 34.712212], [127.860527, 34.719711]]], [[[128.526093, 34.80582400000014], [128.521088, 34.80915800000014], [128.49801600000012, 34.832214000000135], [128.494965, 34.83638], [128.490509, 34.845825000000104], [128.488556, 34.856384], [128.490509, 34.868881], [128.494415, 34.880272000000105], [128.501923, 34.887497], [128.507202, 34.889992], [128.641083, 34.95249200000012], [128.663605, 34.960274], [128.71109000000013, 34.976654], [128.72821, 34.943047], [128.72995, 34.942215], [128.735229, 34.933327], [128.754425, 34.882767], [128.754425, 34.87693800000011], [128.743011, 34.788048], [128.741913, 34.781662], [128.68551600000012, 34.724159], [128.67996200000016, 34.722214], [128.641937, 34.70916], [128.636108, 34.707214], [128.612457, 34.701103], [128.594116, 34.697769], [128.58828700000015, 34.699432000000115], [128.58523600000012, 34.70388], [128.60107400000015, 34.760277], [128.604126, 34.80915800000014], [128.60080000000016, 34.830551], [128.597748, 34.834991], [128.591919, 34.836655], [128.55218500000012, 34.823608], [128.53970300000015, 34.81610100000012], [128.53579700000012, 34.811935], [128.526093, 34.80582400000014]]], [[[127.63839835280051, 34.901322832411125], [127.66134178252156, 34.90553943758313], [127.660812, 34.905266], [127.643051, 34.900826], [127.63839835280051, 34.901322832411125]]], [[[128.487457, 35.047493], [128.501373, 35.008331], [128.4699710000001, 34.88582600000012], [128.463013, 34.868599], [128.451904, 34.845543], [128.445801, 34.838882000000126], [128.434967, 34.834717000000126], [128.408875, 34.83194], [128.40304600000013, 34.833603], [128.3355100000001, 34.871376], [128.346344, 34.899994], [128.356628, 34.905266], [128.356079, 34.909714], [128.35107400000015, 34.9313810000001], [128.34079, 34.943604], [128.329132, 34.949432], [128.32027994091945, 34.94809832783519], [128.37973462348842, 35.00482007174317], [128.391083, 35.008331], [128.396088, 35.010826], [128.405243, 35.017769], [128.407196, 35.024437], [128.410522, 35.02971600000012], [128.415527, 35.03221100000013], [128.465515, 35.05027], [128.477173, 35.05387900000011], [128.483307, 35.051102], [128.487457, 35.047493]]], [[[126.614151, 35.90496600220924], [126.614151, 35.919441], [126.615257, 35.925827], [126.6216650248748, 35.94355289077901], [126.62643722018359, 35.92805441470508], [126.614151, 35.90496600220924]]], [[[129.258881, 37.371376], [129.342468, 37.257217], [129.3530270000001, 37.23360400000013], [129.354126, 37.228325], [129.362488, 37.150024], [129.365784, 37.14694200000014], [129.37634300000013, 37.134995], [129.429413, 37.068329], [129.433594, 37.058884], [129.43191500000012, 37.053322], [129.428589, 37.048332], [129.423859, 37.044998000000135], [129.417206, 37.034721], [129.414978, 37.02804600000013], [129.413879, 37.02166], [129.413879, 37.016106], [129.416077, 36.942215], [129.423584, 36.899994000000106], [129.427765, 36.878876], [129.43081700000016, 36.8688810000001], [129.453857, 36.816101], [129.459137, 36.807213000000104], [129.46856700000012, 36.7888870000001], [129.474976, 36.774437], [129.474976, 36.768883], [129.47302200000013, 36.710274], [129.471619, 36.69249], [129.4696960000001, 36.685822], [129.466919, 36.679718], [129.462189, 36.676384], [129.451904, 36.671379], [129.44247400000017, 36.664711], [129.438568, 36.66027100000014], [129.422211, 36.634163], [129.41775500000017, 36.622765], [129.416931, 36.616661000000136], [129.41885400000012, 36.583054], [129.41998300000012, 36.577774], [129.423035, 36.567772], [129.427185, 36.55832700000013], [129.43692, 36.54583000000014], [129.441071, 36.53611], [129.450531, 36.506386], [129.450531, 36.500549], [129.439148, 36.40638000000013], [129.438019, 36.400269], [129.435242, 36.394157], [129.41803, 36.369713], [129.405823, 36.357216], [129.390533, 36.33940100000012], [129.385254, 36.327461], [129.38192700000013, 36.3144], [129.38192700000013, 36.308563], [129.386902, 36.036018], [129.38885500000015, 36.025742], [129.394104, 36.016579], [129.398285, 36.01296200000013], [129.419037, 36.000481], [129.425537, 35.997215], [129.449982, 35.99305], [129.457184, 35.99305], [129.463013, 35.994713000000104], [129.471832, 36.0], [129.481628, 36.008003], [129.490265, 36.015747], [129.528137, 36.05104100000011], [129.551147, 36.077103000000136], [129.557251, 36.078773000000126], [129.5644840000001, 36.076553000000104], [129.573914, 36.064041], [129.585297, 36.034866], [129.588348, 36.01931000000013], [129.588348, 36.007645], [129.586914, 35.999596], [129.583862, 35.988884], [129.486633, 35.683327], [129.464752, 35.644608], [129.47329700000012, 35.60277600000012], [129.47525, 35.592216], [129.474396, 35.580276], [129.469421, 35.55027], [129.46637, 35.537216000000114], [129.43942300000015, 35.475822], [129.347473, 35.344994], [129.342194, 35.342491], [129.281097, 35.30082700000014], [129.277771, 35.29583], [129.241638, 35.208885], [129.237488, 35.18990300000013], [129.174683, 35.146942], [129.136932, 35.11221300000011], [128.978577, 35.084991], [128.97818684997517, 35.08915449392663], [129.06002334078906, 35.169784151033205], [129.28525832614062, 35.50729712100391], [129.41224196871875, 35.742896638826174], [129.46677688082812, 35.9274860248125], [129.24174025973437, 35.90793951602344], [129.17754653414843, 35.958697877839846], [129.23533156832812, 36.2451244220293], [129.2508039804375, 36.671527467683596], [129.24999526461718, 37.00887640567188], [129.12926772555468, 37.3078571185625], [128.98092177828906, 37.530406557039065], [128.45106032809375, 38.25542410464649], [128.26961771441506, 38.42048735938178], [128.279694, 38.43027500000011], [128.293304, 38.450546], [128.301361, 38.46832300000011], [128.307739, 38.488602], [128.312744, 38.51416], [128.313599, 38.520546], [128.313599, 38.531937], [128.307739, 38.55804400000011], [128.305542, 38.562767], [128.30191, 38.578331], [128.303589, 38.58387800000014], [128.3071900000001, 38.588882], [128.32135000000017, 38.5991590000001], [128.36355600000013, 38.625244], [128.38916000000017, 38.579437], [128.532471, 38.330551], [128.625793, 38.14444], [128.63443, 38.125549], [128.637756, 38.121376], [128.641083, 38.11721], [128.858002, 37.859436], [128.863281, 37.856102], [128.878296, 37.85193600000014], [128.88272100000017, 37.848045], [128.998566, 37.736107], [129.010529, 37.724434], [129.049988, 37.685822], [129.063019, 37.668884000000105], [129.063019, 37.657494], [129.059967, 37.638603], [129.066376, 37.62443500000012], [129.136108, 37.525551], [129.18969700000014, 37.46471400000013], [129.258881, 37.371376]]], [[[126.682213, 36.971657], [126.76138300000014, 36.969986], [126.76915, 36.969154], [126.776657, 36.967209], [126.781097, 36.963608], [126.79735306486327, 36.944461180891366], [126.6853514047539, 36.838172517732424], [126.50699608683318, 36.911072191989064], [126.51416, 36.941376], [126.49054000000012, 36.99554400000011], [126.499153, 37.049721], [126.502487, 37.052773], [126.517761, 37.0522160000001], [126.525269, 37.05027], [126.56749000000013, 37.024994], [126.571663, 37.02137800000014], [126.61998000000017, 36.9727630000001], [126.682213, 36.971657]]], [[[126.76666837642266, 37.09683521379677], [126.78633407076953, 37.07390173526172], [126.79267884232613, 37.0131365250065], [126.756104, 37.044441], [126.752777, 37.04860700000012], [126.754173, 37.054161000000136], [126.76666837642266, 37.09683521379677]]], [[[126.723038, 37.131660000000124], [126.718597, 37.128044], [126.70748900000012, 37.123604], [126.69442700000013, 37.12165800000014], [126.68775900000014, 37.124435], [126.661102, 37.156097], [126.660812, 37.161934], [126.65946741158606, 37.221849412769494], [126.73009938641582, 37.13948075341403], [126.723038, 37.131660000000124]]], [[[130.875519, 37.449997], [130.868561, 37.450829], [130.81884800000012, 37.467766], [130.815796, 37.471931], [130.811646, 37.481377], [130.80581700000016, 37.507217], [130.80581700000016, 37.513054], [130.807465, 37.518326000000116], [130.838562, 37.529991], [130.844696, 37.53138], [130.912201, 37.545547], [130.919434, 37.545273], [130.924133, 37.51915700000012], [130.9220580000001, 37.515266], [130.922485, 37.48193400000014], [130.920807, 37.476654], [130.887482, 37.453323], [130.875519, 37.449997]]]]}}]}