{"type": "FeatureCollection", "features": [{"type": "Feature", "properties": {"NAME": "Genoa", "SUBJECTO": "Genoa", "BORDERPRECISION": 1, "DE": "France", "MAPA": "world_1715.geojson", "MOTIVO": "Córcega, genovesa hasta 1768 (Tratado de Versalles)", "FUENTE": "https://en.wikipedia.org/wiki/Republic_of_Genoa", "AREA_KM2": 8679}, "geometry": {"type": "Polygon", "coordinates": [[[9.486711535063964, 42.4063793048418], [9.45250895938037, 42.04830511660938], [9.35745624026416, 41.90121039004688], [9.30453875979541, 41.575267396882815], [9.173024210540039, 41.34990652652149], [9.038939509001953, 41.36949881167774], [9.01326850375293, 41.457679353669924], [8.828752550688964, 41.49197729678516], [8.726921114531738, 41.56056936831836], [8.85464862307666, 41.65367849917774], [8.823254618254882, 41.68797644229297], [8.62692645510791, 41.73208960147266], [8.74244979342578, 41.8815990314043], [8.692829165068847, 41.913463197664065], [8.561865839568359, 41.8815990314043], [8.537932428923828, 41.94778021426563], [8.589588198271972, 41.957591615632815], [8.668312105742675, 42.02868612857227], [8.626454386321289, 42.09734304995899], [8.510698351470214, 42.13412436099414], [8.51724627932666, 42.20770224185352], [8.628421816436035, 42.26165731997852], [8.500446352568847, 42.359778963044924], [8.60930064639209, 42.48734625430469], [8.879002604094726, 42.624766908601565], [9.000392946807128, 42.63458975406055], [9.018427881804687, 42.69103964419727], [9.149460825530273, 42.710670076326174], [9.237692865935546, 42.664039216951174], [9.280391726104003, 42.727855287507815], [9.270520243254882, 42.882510744050784], [9.303189310637695, 42.983192048982424], [9.367051157561523, 42.988101564363284], [9.414238962737304, 42.90952643008594], [9.432161364165527, 42.79413565249805], [9.405494722930175, 42.58059652896289], [9.458552393523437, 42.55605658145313], [9.486711535063964, 42.4063793048418]]]}}, {"type": "Feature", "properties": {"NAME": "France", "SUBJECTO": "France", "BORDERPRECISION": 1, "DE": "Baden", "MAPA": "world_1715.geojson", "MOTIVO": "Estrasburgo y la orilla izquierda del Rin en Alsacia, francesas desde 1681: el polígono de Baden cruza el Rin", "FUENTE": "https://en.wikipedia.org/wiki/Strasbourg", "AREA_KM2": 470}, "geometry": {"type": "Polygon", "coordinates": [[[7.68064263781665, 48.358523927644534], [7.704579386321289, 48.519576631501955], [7.729077848998291, 48.615619264558596], [7.8, 48.675554937072604], [7.8, 48.2], [7.543521628712165, 48.2], [7.68064263781665, 48.358523927644534]]]}}]}