{"type": "FeatureCollection", "features": [{"type": "Feature", "properties": {"NAME": "Vice Royalty of Peru", "SUBJECTO": "Spanish Habsburg", "BORDERPRECISION": 1, "DE": "sin datos", "MAPA": "world_1650.geojson", "MOTIVO": "Potosí y Bogotá sin datos dentro del dominio español (Potosí 1545; Nuevo Reino de Granada, 1538, audiencia del Virreinato del Perú hasta 1717)", "FUENTE": "https://en.wikipedia.org/wiki/Potos%C3%AD ; https://en.wikipedia.org/wiki/Captaincy_General_of_Chile ; https://es.wikipedia.org/wiki/Nuevo_Reino_de_Granada", "ORIGEN_GEOMETRIA": "world_1783 virreinatos, recortados a los Andes", "AREA_KM2": 832048}, "geometry": {"type": "MultiPolygon", "coordinates": [[[[-73.8653855137637, -7.455155109484765], [-73.84206100979688, -7.578698553129392], [-73.56371780911329, -8.009167589231687], [-72.9640397695625, -8.984194196745115], [-72.91613480130079, -9.041099943205076], [-72.54514526630913, -9.09142455615144], [-72.0, -10.0], [-68.0, -14.0], [-64.5049406540838, -16.097035607549724], [-64.66180129731615, -16.804676207468987], [-65.71878024503351, -18.084155408373633], [-65.49350658965456, -19.135432466808773], [-66.29065675176017, -22.058316394529324], [-67.1888932851875, -22.983517087980466], [-67.14041611233594, -23.00864449886914], [-67.04498764553907, -23.071604169889646], [-66.97242447415235, -23.14105836300488], [-67.01447006741407, -23.427114881559568], [-67.25753494778516, -24.082739271208006], [-67.41947647610547, -24.19800988583203], [-67.72257454766967, -24.31737498757537], [-67.6671583160892, -23.76321267177071], [-67.91698508364286, -22.014425298895077], [-66.54293786209772, -19.765984390912124], [-66.54293786209772, -18.267023785590155], [-66.6934585993106, -17.205973084076422], [-67.00362839996394, -15.7854260563725], [-69.27241573917452, -15.218229221569857], [-69.6018889310102, -14.22980964606285], [-70.52024877574033, -13.743517451082983], [-74.28756765626122, -12.645921515632779], [-77.88516689942037, -6.977321235497577], [-76.65593157559574, -6.977321235497577], [-74.32038446032895, -7.960709494557271], [-73.8653855137637, -7.455155109484765]]], [[[-76.41502879181613, -1.634285606880208], [-76.3056564907273, 2.137993923391058], [-74.94438408720096, 5.88149303308851], [-72.72308185593164, 6.674591096821196], [-71.90104663437614, 6.583253849981698], [-72.0, 5.0], [-73.5, 0.0], [-74.32683134595011, -2.756104486500354], [-76.04131391368342, -2.797921134493848], [-76.41502879181613, -1.634285606880208]]]]}}]}