{"type": "FeatureCollection", "features": [{"type": "Feature", "properties": {"NAME": "Crete (Venice)", "SUBJECTO": "Venice", "BORDERPRECISION": 1, "DE": "Ottoman Empire", "MAPA": "world_1600.geojson", "MOTIVO": "Creta, veneciana hasta 1669", "FUENTE": "https://en.wikipedia.org/wiki/Cretan_War_(1645%E2%80%931669)", "AREA_KM2": 8157}, "geometry": {"type": "Polygon", "coordinates": [[[23.742875132170898, 35.56175955386524], [23.87945273837207, 35.55241736026172], [23.956812891570312, 35.52767141909961], [24.03900435885547, 35.56175955386524], [24.033263239470703, 35.59847220034961], [24.081856760588867, 35.611583314851565], [24.152676615325195, 35.56438025088672], [24.135817560759765, 35.52242621035938], [24.091456446257812, 35.51980169864063], [24.073323282805664, 35.49620398135547], [24.11320403536914, 35.48571737857227], [24.17774489840625, 35.46998556704883], [24.21970275363086, 35.44900091739063], [24.22960380038379, 35.39131888003711], [24.38828376254199, 35.37296637149219], [24.768567118254882, 35.42802771182422], [24.99748137911914, 35.42102011294727], [25.01360038241504, 35.36247976870899], [25.100091013518554, 35.34674795718555], [25.374018702117187, 35.31790503116016], [25.51163581332324, 35.29476507754688], [25.67320731600879, 35.349368654207034], [25.713534388152343, 35.327010713533205], [25.66846755465625, 35.18682058902149], [25.741803202239257, 35.13700445742969], [25.788973841277343, 35.13700445742969], [25.935492548552734, 35.21303518863086], [26.0641527505791, 35.23924978824024], [26.099352869597656, 35.215648256257815], [26.16882613619922, 35.247108064607424], [26.2735090585625, 35.312659822419924], [26.236044916716796, 35.228763185457034], [26.24266723116992, 35.144874177888674], [26.16048530062793, 35.02428396792774], [25.898680719939453, 35.04525717349414], [25.74173644503711, 35.008853517488284], [25.590724024382812, 35.01641806216602], [24.693467173186523, 34.94047125430469], [24.715638193694335, 35.03477057071094], [24.69006637057422, 35.09244116397266], [24.324357065764648, 35.20778997989063], [24.013197931853515, 35.21041449160938], [23.7855940195, 35.26285132022266], [23.567723307219726, 35.254981599763674], [23.513134989348632, 35.275958620027346], [23.466885599700195, 35.31790503116016], [23.529439005461914, 35.569625459626955], [23.67146590670703, 35.572249971345705], [23.669087442961914, 35.611583314851565], [23.665133509246093, 35.66665609927539], [23.696656260100585, 35.698123537019534], [23.733677897063476, 35.62731894107227], [23.742875132170898, 35.56175955386524]]]}}, {"type": "Feature", "properties": {"NAME": "Funj", "SUBJECTO": "Funj", "BORDERPRECISION": 1, "DE": "Ottoman Empire", "MAPA": "world_1600.geojson", "MOTIVO": "Sultanato funj de Sennar (1504-1821)", "FUENTE": "https://en.wikipedia.org/wiki/Funj_Sultanate", "AREA_KM2": 104690}, "geometry": {"type": "Polygon", "coordinates": [[[33.631829354691504, 15.741861923134486], [33.999442700408196, 13.658719630739924], [33.141678227069264, 11.575577338345376], [32.11667270375557, 11.575577338345376], [31.777096473385242, 12.382070885474892], [31.850804724052285, 14.88815140815445], [32.145637726720466, 16.28860817082832], [33.25126148672615, 16.509732922829457], [33.69351099072843, 16.43602467216241], [33.8374990487221, 16.23032744645716], [33.631829354691504, 15.741861923134486]]]}}]}