{"type": "FeatureCollection", "features": [{"type": "Feature", "properties": {"NAME": "Qing Empire", "SUBJECTO": "Qing Empire", "BORDERPRECISION": 1, "DE": "sin datos", "MAPA": "world_1783.geojson", "MOTIVO": "Taiwán, Qing desde 1683 (prefectura de Taiwán, provincia de Fujian)", "FUENTE": "https://en.wikipedia.org/wiki/Dutch_Formosa", "ORIGEN_GEOMETRIA": "", "AREA_KM2": 36105}, "geometry": {"type": "Polygon", "coordinates": [[[121.96951300000012, 24.985033], [121.947197, 24.976383], [121.913879, 24.959995], [121.882477, 24.93277400000011], [121.878593, 24.929161000000136], [121.828323, 24.86694], [121.819443, 24.85277600000012], [121.81694000000016, 24.847775], [121.813873, 24.834995], [121.805252, 24.789997], [121.799713, 24.756664], [121.800812, 24.74527400000011], [121.817207, 24.637218], [121.819992, 24.626942], [121.82222, 24.622498], [121.828323, 24.614441], [121.843597, 24.606384], [121.84942600000011, 24.59222], [121.853317, 24.56361], [121.853043, 24.533607], [121.839706, 24.476383000000112], [121.8311000000001, 24.470829], [121.81667300000015, 24.463882], [121.8035890000001, 24.455551], [121.79609700000015, 24.44833], [121.780548, 24.426384], [121.77665700000011, 24.414162], [121.75943, 24.335274], [121.759163, 24.328884], [121.76053600000012, 24.323887], [121.772491, 24.301661], [121.75305200000014, 24.292774], [121.74498000000017, 24.286385], [121.67608600000017, 24.204994], [121.659416, 24.184719], [121.60748300000012, 24.085831], [121.60498, 24.080551], [121.60192900000015, 24.060829], [121.603317, 24.055832], [121.609154, 24.041664], [121.616089, 24.034164], [121.611366, 23.98333], [121.596367, 23.899998], [121.536926, 23.70138500000013], [121.496368, 23.485271000000125], [121.476326, 23.422417], [121.47580700000015, 23.414719000000105], [121.473312, 23.401108000000136], [121.453049, 23.327221], [121.355553, 23.087498], [121.25916300000017, 22.899998], [121.168053, 22.762497], [121.137497, 22.735271], [121.12886, 22.72805], [121.119141, 22.724716], [121.108322, 22.72221800000011], [121.079437, 22.70916], [121.030273, 22.656384], [121.014427, 22.634995], [120.969711, 22.568329], [120.955551, 22.535831], [120.878593, 22.341385000000116], [120.873306, 22.323608], [120.872208, 22.316666], [120.871368, 22.291943], [120.873032, 22.274998], [120.879425, 22.23256300000014], [120.88472, 22.098053], [120.88247700000011, 22.039440000000127], [120.880257, 22.034443], [120.824158, 21.927773000000116], [120.722763, 21.927773000000116], [120.716377, 21.928051], [120.71138, 21.930828], [120.70665, 21.933605], [120.6997070000001, 21.94083], [120.698318, 21.945827], [120.68637100000012, 22.053608], [120.69303900000011, 22.104443], [120.691093, 22.115273000000116], [120.677757, 22.17194], [120.674988, 22.181938], [120.629433, 22.277496], [120.620529, 22.295277], [120.61026, 22.3127750000001], [120.5761030000001, 22.362217], [120.573036, 22.366108], [120.553307, 22.382774], [120.505547, 22.422497], [120.488586, 22.429161], [120.481369, 22.429996], [120.47580700000015, 22.432217], [120.44470200000012, 22.453327000000115], [120.429153, 22.466938], [120.42302700000016, 22.474716], [120.416901, 22.482502], [120.392761, 22.478329], [120.386108, 22.478607], [120.38192700000013, 22.480549], [120.37719700000014, 22.483330000000137], [120.34554300000013, 22.503887], [120.34166000000016, 22.507221], [120.328598, 22.519444], [120.307083, 22.540436], [120.30255100000011, 22.550632], [120.300339, 22.557865], [120.30525200000011, 22.549999], [120.30664100000013, 22.544998], [120.32388300000014, 22.526386000000116], [120.330887, 22.521172], [120.332764, 22.525829], [120.329987, 22.53611], [120.32193, 22.554443], [120.312759, 22.572498], [120.296097, 22.596941], [120.27137800000014, 22.610275], [120.266388, 22.613052], [120.26249700000017, 22.616386], [120.253326, 22.628052], [120.244713, 22.640274], [120.24025700000016, 22.649441], [120.238586, 22.660828], [120.251099, 22.677494000000138], [120.252213, 22.684441000000106], [120.25166300000012, 22.689995000000124], [120.228676, 22.736725], [120.206383, 22.773331], [120.199707, 22.786942], [120.17276, 22.881664], [120.16748, 22.908045], [120.163879, 22.953606], [120.135536, 23.02277400000014], [120.1077580000001, 23.01361100000014], [120.06442300000015, 23.034996], [120.05581700000016, 23.041107], [120.05275700000016, 23.044998], [120.05137600000012, 23.050274], [120.049149, 23.060829], [120.053307, 23.071941], [120.056931, 23.075829], [120.06749, 23.079163], [120.086929, 23.079163], [120.09554300000013, 23.084721], [120.099152, 23.088329], [120.09999100000016, 23.093887], [120.09387200000015, 23.124718000000144], [120.09166, 23.129162], [120.087769, 23.132496000000117], [120.08194000000015, 23.13472000000013], [120.067207, 23.136662], [120.062477, 23.139439], [120.058594, 23.142773], [120.05609100000015, 23.147217000000126], [120.055542, 23.153049], [120.05748, 23.158886], [120.083328, 23.22805000000011], [120.099716, 23.266941], [120.109711, 23.286942000000124], [120.129997, 23.31749900000011], [120.141098, 23.319996], [120.145264, 23.322773], [120.148331, 23.327221], [120.14804100000015, 23.391941], [120.147491, 23.397495], [120.13472, 23.466106], [120.12886, 23.493328], [120.12516800000014, 23.508759], [120.12387100000012, 23.514164000000108], [120.11554, 23.568886], [120.111099, 23.613884], [120.111366, 23.620274], [120.11554, 23.631386], [120.1933140000001, 23.781109], [120.196373, 23.785553], [120.221916, 23.819443], [120.2397, 23.829998], [120.278702, 23.889069], [120.283867, 23.898331], [120.31247700000017, 23.953327], [120.363037, 24.048332], [120.42109700000015, 24.141106], [120.4272, 24.149998], [120.471909, 24.193045], [120.476379, 24.210274], [120.50804100000016, 24.286663], [120.510536, 24.291943], [120.544983, 24.3622170000001], [120.558868, 24.385273], [120.571663, 24.40221800000012], [120.578598, 24.410275], [120.594437, 24.427988], [120.62859300000014, 24.463608], [120.642761, 24.47916], [120.650543, 24.493885], [120.65664700000013, 24.511108], [120.665817, 24.533054], [120.694702, 24.59638600000011], [120.697746, 24.60083], [120.751389, 24.647495], [120.86026, 24.737495], [120.8647, 24.740551], [120.871597, 24.73999], [120.90332000000012, 24.836662], [120.921097, 24.875828], [120.951393, 24.92332800000014], [120.958702, 24.933046], [121.00166300000012, 25.001663], [121.00916300000017, 25.008888], [121.058319, 25.047218], [121.062759, 25.049999], [121.19470200000012, 25.109997000000135], [121.223602, 25.115551], [121.275871, 25.118906], [121.310532, 25.126106], [121.338593, 25.132496], [121.363037, 25.14333], [121.371918, 25.149162], [121.375526, 25.152775], [121.384987, 25.157497], [121.390549, 25.15888600000011], [121.396942, 25.159161], [121.409416, 25.155273000000136], [121.4180530000001, 25.149162], [121.441109, 25.129103], [121.444122, 25.134743], [121.396942, 25.176105], [121.394707, 25.18055], [121.39498900000012, 25.186939], [121.398041, 25.191105], [121.435257, 25.236660000000143], [121.44274900000016, 25.243885], [121.476089, 25.26888700000012], [121.4805530000001, 25.271942], [121.512497, 25.281666], [121.51805100000013, 25.282776], [121.559418, 25.284164], [121.56694, 25.283054], [121.583328, 25.275829], [121.598038, 25.26722], [121.606934, 25.26083], [121.610809, 25.2575], [121.616928, 25.249439], [121.636658, 25.214439], [121.68127400000014, 25.168667], [121.734711, 25.138885], [121.788597, 25.126583], [121.881653, 25.114719], [121.999153, 25.01083], [122.002213, 25.006943], [122.001099, 25.000275], [121.99720800000011, 24.99666200000013], [121.992752, 24.993885], [121.978317, 24.986938], [121.96951300000012, 24.985033]]]}}, {"type": "Feature", "properties": {"NAME": "Ottoman Empire", "SUBJECTO": "Ottoman Empire", "BORDERPRECISION": 1, "DE": "sin datos", "MAPA": "world_1783.geojson", "MOTIVO": "Rodas, otomana de 1522 a 1912", "FUENTE": "https://en.wikipedia.org/wiki/Siege_of_Rhodes_(1522)", "ORIGEN_GEOMETRIA": "", "AREA_KM2": 1437}, "geometry": {"type": "Polygon", "coordinates": [[[27.719719, 36.1661], [27.788883000000112, 36.251656], [27.803055, 36.268326], [27.805832, 36.27055400000012], [27.876106, 36.31971], [27.895828, 36.332222], [27.909161, 36.339722], [28.068333, 36.404999], [28.107494, 36.41861], [28.207222000000115, 36.44249], [28.210831, 36.452492], [28.212772, 36.455544000000145], [28.215832, 36.45776400000011], [28.219166, 36.456940000000145], [28.225826, 36.453049], [28.233887, 36.441376], [28.238049, 36.431107], [28.206944, 36.343597], [28.186939, 36.299988], [28.141388, 36.210541], [28.122772, 36.185822000000144], [28.063606, 36.111931], [28.009163, 36.068886], [27.95666100000011, 36.044991], [27.945827, 36.03471400000012], [27.931664, 36.0186], [27.906109, 35.988052], [27.898888000000113, 35.975555], [27.89277600000014, 35.960831], [27.865555, 35.93222], [27.842777000000126, 35.91360500000013], [27.839443, 35.911659], [27.799721, 35.893326], [27.786663, 35.890549], [27.781387, 35.890274], [27.768608, 35.893608], [27.733055, 35.91111], [27.730274, 35.91333], [27.728611, 35.916664], [27.722221, 35.929718], [27.719166, 35.94082600000013], [27.72138600000011, 35.94944], [27.730831000000137, 35.978882], [27.740829000000133, 36.10443900000013], [27.719719, 36.1661]]]}}, {"type": "Feature", "properties": {"NAME": "Prussia", "SUBJECTO": "Prussia", "BORDERPRECISION": 1, "DE": "sin datos", "MAPA": "world_1783.geojson", "MOTIVO": "Silesia (Breslau), prusiana desde el Tratado de Breslau (1742)", "FUENTE": "https://en.wikipedia.org/wiki/Treaty_of_Breslau", "ORIGEN_GEOMETRIA": "world_1800 Prussia", "AREA_KM2": 35827}, "geometry": {"type": "Polygon", "coordinates": [[[17.750657114592773, 50.03597601504688], [17.74470809420703, 50.13507040591602], [17.745572123137695, 50.248939119294924], [17.597117457, 50.21097906680469], [17.678759607878906, 50.338267885164065], [17.35974601229785, 50.33572348208789], [17.243329081145507, 50.38998755069141], [17.014424357024414, 50.476825319246096], [16.885588678923828, 50.48769339175586], [16.884440455046875, 50.42254599185352], [17.01153281649707, 50.286902986482424], [16.82705787142871, 50.232669435457034], [16.728022608367187, 50.148624025300784], [16.584954294768554, 50.18115194888477], [16.451422724333984, 50.35200461001758], [16.204402002898437, 50.46324881167774], [16.30474570712207, 50.55826147647266], [16.39859107455371, 50.56911810489063], [16.442826304045898, 50.623431764558596], [16.35314658602832, 50.70491751284961], [16.23778441866992, 50.71578940005664], [16.21020797213672, 50.685908876375], [16.00085738619922, 50.65602072329883], [16.00293258151172, 50.732093416169924], [15.87748626193164, 50.71578940005664], [15.81834319552539, 50.79730948062305], [15.56279948672412, 50.82128866763477], [15.472163233367187, 50.832637392], [15.308753046599609, 50.90603598208789], [15.26701262911914, 51.02297552676563], [15.341517139764719, 51.28686133011611], [15.257785812838659, 51.62178663782034], [14.867039620517055, 51.59387619551166], [14.867039620517055, 51.761338849363774], [15.1740544859126, 51.78924929167246], [15.200188659714534, 51.98525559518695], [15.229875370529975, 52.20790592630275], [15.764534781005738, 52.26547121356442], [16.095099082099242, 52.124174599376694], [16.50590590483021, 52.003810816920485], [16.50590590483021, 52.17825108134978], [16.85478643368879, 51.916590684705845], [16.85478643368879, 51.65493028806191], [17.203666962547363, 51.61132022195459], [17.29088709476201, 51.78576048638388], [17.552547491405942, 51.65493028806191], [17.639767623620585, 51.4368799575253], [18.140061199789763, 50.98765893485682], [18.646036580345903, 50.64451035793008], [18.74563352241608, 50.266041978063406], [18.769068769057146, 50.17698804082737], [18.79631522616504, 49.71344717593555], [18.624680552092773, 49.75661429019336], [18.53995612582324, 49.849979005769534], [18.548720392791015, 49.96172674746875], [18.18776801547168, 50.02125509829883], [18.048035654631835, 50.102550111726565], [17.882494959441406, 50.030109010652346], [17.750657114592773, 50.03597601504688]]]}}]}