{"type": "FeatureCollection", "features": [{"type": "Feature", "properties": {"NAME": "Genoa", "SUBJECTO": "Genoa", "BORDERPRECISION": 1, "DE": "Milan", "MAPA": "world_1650.geojson", "MOTIVO": "Córcega, genovesa hasta 1768 (Tratado de Versalles)", "FUENTE": "https://en.wikipedia.org/wiki/Republic_of_Genoa", "AREA_KM2": 8679}, "geometry": {"type": "Polygon", "coordinates": [[[9.458552393523437, 42.55605658145313], [9.486711535063964, 42.4063793048418], [9.45250895938037, 42.04830511660938], [9.35745624026416, 41.90121039004688], [9.30453875979541, 41.575267396882815], [9.173024210540039, 41.34990652652149], [9.038939509001953, 41.36949881167774], [9.01326850375293, 41.457679353669924], [8.828752550688964, 41.49197729678516], [8.726921114531738, 41.56056936831836], [8.85464862307666, 41.65367849917774], [8.823254618254882, 41.68797644229297], [8.62692645510791, 41.73208960147266], [8.74244979342578, 41.8815990314043], [8.692829165068847, 41.913463197664065], [8.561865839568359, 41.8815990314043], [8.537932428923828, 41.94778021426563], [8.589588198271972, 41.957591615632815], [8.668312105742675, 42.02868612857227], [8.626454386321289, 42.09734304995899], [8.510698351470214, 42.13412436099414], [8.51724627932666, 42.20770224185352], [8.628421816436035, 42.26165731997852], [8.500446352568847, 42.359778963044924], [8.60930064639209, 42.48734625430469], [8.879002604094726, 42.624766908601565], [9.000392946807128, 42.63458975406055], [9.018427881804687, 42.69103964419727], [9.149460825530273, 42.710670076326174], [9.237692865935546, 42.664039216951174], [9.280391726104003, 42.727855287507815], [9.270520243254882, 42.882510744050784], [9.303189310637695, 42.983192048982424], [9.367051157561523, 42.988101564363284], [9.414238962737304, 42.90952643008594], [9.432161364165527, 42.79413565249805], [9.405494722930175, 42.58059652896289], [9.458552393523437, 42.55605658145313]]]}}, {"type": "Feature", "properties": {"NAME": "Safavid Empire", "SUBJECTO": "Safavid Empire", "BORDERPRECISION": 1, "DE": "Ottoman Empire", "MAPA": "world_1650.geojson", "MOTIVO": "Tratado de Zuhab (1639): Azerbaiyán, Ereván y Georgia oriental quedan en la órbita safávida; geometría safávida de world_1715 al norte de 36° N", "FUENTE": "https://en.wikipedia.org/wiki/Treaty_of_Zuhab", "AREA_KM2": 314981}, "geometry": {"type": "Polygon", "coordinates": [[[43.95678618868945, 42.59115561099414], [44.052519831267574, 42.55924566836719], [44.169531855193355, 42.612430177644534], [44.2971792550957, 42.612430177644534], [44.37163833102343, 42.686893068269534], [44.414187464324215, 42.729442201570315], [44.509924921599605, 42.76135214419727], [44.6694822641289, 42.76135214419727], [44.78649428805468, 42.729442201570315], [44.871592554656246, 42.66561850161914], [44.93541625460742, 42.74007757754688], [44.9779653879082, 42.771991334871096], [45.03115371188281, 42.771991334871096], [45.13752654513476, 42.71880301089649], [45.20135024508593, 42.676253877595705], [45.29708388766406, 42.676253877595705], [45.38218596896289, 42.62306936831836], [45.47791961154101, 42.54860647769336], [45.64811614474414, 42.54860647769336], [45.8076773019707, 42.5379711017168], [45.86086181124804, 42.47414740176563], [45.8076773019707, 42.389049135164065], [45.75448897799609, 42.25076254458789], [45.91405013522265, 42.12311514468555], [46.041697535124996, 42.04865225406055], [46.15870955905078, 42.00610312075977], [46.28635695895312, 41.98482855410938], [46.392729792205074, 41.995467744783205], [46.49910262545703, 41.96355398745899], [46.55577758273242, 41.878455720857424], [46.658659967986324, 41.88909491153125], [46.66929915866015, 41.81463202090625], [46.76503661593554, 41.83590658755664], [46.850134882537105, 41.83590658755664], [46.91395858248828, 41.75080832095508], [47.12670424899218, 41.62316092105274], [47.169253382292965, 41.56997641177539], [47.22243789157031, 41.56997641177539], [47.35008529147265, 41.442325197175784], [47.35008529147265, 41.30404242129688], [47.61601928195117, 41.261493287996096], [47.81812957247851, 41.197669588044924], [47.98832610568164, 41.218944154695315], [48.06278518160937, 41.31467779727344], [48.20107177218554, 41.463599763826174], [48.22371258025433, 41.4711466998491], [47.24856164173707, 42.78491050892555], [47.19483867485455, 43.37586314463319], [47.49336150607226, 43.58319052310352], [47.520335230437496, 43.51125677676563], [47.56529525241015, 43.601173006013674], [47.61025527438281, 43.7540355548418], [47.66420653781054, 43.85294684024219], [47.73614028414843, 43.86193808169727], [47.67319777926562, 43.66411551089649], [47.57428649386523, 43.502261720613284], [47.60126403292773, 43.322425447419924], [47.6552114816582, 43.27746542544727], [47.58327773532031, 43.18754919619922], [47.56529525241015, 43.007709108308596], [47.73614028414843, 42.89980658145313], [47.79009154757617, 42.85484655948047], [47.8440428110039, 42.62105902285938], [47.96992782076953, 42.59408529849414], [48.13178161105273, 42.40525396914844], [48.22170165499804, 42.279368959382815], [48.419524225798824, 42.09053763003711], [48.50044921359179, 41.92868383975391], [48.662303003874996, 41.901710115388674], [48.683238062468746, 41.83590658755664], [48.89249709567187, 41.68698462100391], [48.998869928923824, 41.516788087800784], [49.115881952849605, 41.43168982119922], [49.24352935275195, 41.29340323062305], [49.28607848605273, 41.05938299746875], [49.3499021860039, 40.9530101642168], [49.477549585906246, 40.836001954988284], [49.60519698580859, 40.761539064363284], [49.60519698580859, 40.687076173738284], [49.80730346163867, 40.58070334048633], [50.02005294283984, 40.60197790713672], [50.190249476042965, 40.57006796450977], [50.31789687594531, 40.49560507388477], [50.42426970919726, 40.410506807283205], [50.46681884249804, 40.32540854068164], [50.46681884249804, 40.26158484073047], [50.30725768527148, 40.32540854068164], [50.12642577609179, 40.346683107332034], [50.0306883188164, 40.346683107332034], [49.91368010958789, 40.32540854068164], [49.849856409636715, 40.2722240314043], [49.66902068575976, 40.24031027408008], [49.57328322848437, 40.17648657412891], [49.55200866183398, 40.091388307527346], [49.54137328585742, 39.87864264102344], [49.48818496188281, 39.76163061709766], [49.44563582858203, 39.655257783845705], [49.403086695281246, 39.48506125064258], [49.49882415255664, 39.37868841739063], [49.48818496188281, 39.293590150789065], [49.381812128630855, 39.32550009341602], [49.339262995330074, 39.28295096011524], [49.30735305270312, 39.1340289935625], [49.2754392953789, 39.01702078433399], [49.22225478610156, 39.03829535098438], [49.17970565280078, 39.14466818423633], [49.115881952849605, 39.18721731753711], [49.041419062224605, 39.14466818423633], [49.020144495574215, 39.00638159366016], [49.05205825289843, 38.931922517732424], [48.998869928923824, 38.878734193757815], [48.945681604949215, 38.836185060457034], [48.988230738249996, 38.71917685122852], [48.824954065886715, 38.3095775470293], [48.83150771578906, 38.306312166169924], [48.80918792208789, 37.98856695742969], [48.744780573455074, 37.72701605410938], [48.837229761687496, 37.51097448916797], [49.05953124484179, 37.397559724763674], [49.475806269255855, 37.291610322908205], [49.84801391085742, 37.26821478457813], [50.03871444186328, 37.22470434756641], [50.11132338961718, 37.097755037263674], [50.25221160372851, 36.894786439851565], [50.4693731329615, 36.74823225777081], [50.19549231726622, 36.0], [45.36345780806878, 36.0], [45.358653101531246, 36.014503084138674], [45.10513595065234, 36.50318869204883], [44.79458907565234, 37.13180502505664], [44.78417113741992, 37.270370088533205], [44.66005996188281, 37.28615912051563], [44.47119048556445, 37.45463141055469], [44.42675307711718, 37.64417990298633], [44.491763147917965, 37.754344545320315], [44.300913843718746, 37.80425222964649], [44.20520690402148, 37.8674274310625], [44.23192122897265, 37.92491491885547], [44.361460718718746, 38.16555746646289], [44.46447661837695, 38.29198034854297], [44.44704345187304, 38.384933076814455], [44.31755736788867, 38.476363740876955], [44.26924041232226, 38.42894323916797], [44.229075464812496, 38.481631837800784], [44.12827971896289, 38.702918611482424], [44.18318465670703, 38.871539674714846], [44.06482604464648, 39.173289857820315], [44.08210662325976, 39.29454763980274], [44.344885859099605, 39.41442068667774], [44.34892943820117, 39.609481416658205], [44.45294860324023, 39.67275198550586], [44.637278589812496, 39.66220434756641], [44.669585260955074, 39.75698813052539], [44.44808104952929, 39.95989187808399], [43.81239226779101, 40.01388128848438], [43.68453124484179, 40.109115205720705], [43.66971877535937, 40.2945514545], [43.85885909518359, 40.66039236636524], [43.84727004489062, 40.74996527285938], [43.489268335906246, 41.07472952456836], [43.47533706149218, 41.08736761660938], [42.87842467745898, 41.54550512881641], [43.95678618868945, 42.59115561099414]]]}}, {"type": "Feature", "properties": {"NAME": "Yemen (Zaydi Imamate)", "SUBJECTO": "Yemen (Zaydi Imamate)", "BORDERPRECISION": 1, "DE": null, "MAPA": "world_1650.geojson", "MOTIVO": "los otomanos, expulsados del Yemen en 1636 (imanato zaidí qasimí); geometría de Yemen de world_1500", "FUENTE": "https://en.wikipedia.org/wiki/Yemen_Eyalet", "AREA_KM2": 121016}, "geometry": {"type": "Polygon", "coordinates": [[[46.659412505469874, 15.424765841731508], [46.335271204734354, 14.096846193663826], [45.2608118670841, 13.828231359251259], [44.508690330728925, 14.096846193663826], [43.487953959961175, 16.621825637141917], [43.48795395996116, 16.621825637141917], [43.36274326591562, 17.22476677936304], [45.12344130704605, 17.96994671290794], [45.15184478305816, 17.98031335566592], [45.18114749408412, 17.98776827740736], [45.211051781644784, 17.99223575064528], [45.241253876414916, 17.99367039455165], [45.271446983928, 17.992057635938256], [45.30132440101057, 17.987413857291873], [45.33058263128911, 17.979786230360133], [45.35892446812225, 17.969252236978427], [45.38606201364139, 17.955918882005335], [46.42258428864673, 17.380073173669043], [46.446432142324234, 17.365325364252556], [46.46879892958693, 17.348415460788797], [46.48948925964685, 17.32949118406232], [46.50832238683647, 17.308717851930275], [46.525133789558716, 17.286276935146], [46.53977660750745, 17.262364472074857], [46.55212292460319, 17.237189356150992], [46.56206488643672, 17.210971511035325], [46.569515642458896, 17.183939969416198], [46.91761263280064, 15.643242872549846], [46.659412505469874, 15.424765841731508]]]}}, {"type": "Feature", "properties": {"NAME": "Yemen (Zaydi Imamate)", "SUBJECTO": "Yemen (Zaydi Imamate)", "BORDERPRECISION": 1, "DE": "Ottoman Empire", "MAPA": "world_1650.geojson", "MOTIVO": "los otomanos, expulsados del Yemen en 1636 (imanato zaidí qasimí); geometría de Yemen de world_1500", "FUENTE": "https://en.wikipedia.org/wiki/Yemen_Eyalet", "AREA_KM2": 77954}, "geometry": {"type": "Polygon", "coordinates": [[[43.48795395996116, 16.621825637141917], [43.487953959961175, 16.621825637141917], [44.508690330728925, 14.096846193663826], [45.2608118670841, 13.828231359251259], [46.335271204734354, 14.096846193663826], [46.711331972911935, 13.935677293016287], [46.87773410632187, 13.473871601441703], [46.601199183074215, 13.400545679048342], [46.079287561980465, 13.399416528657717], [45.825903925505855, 13.405233941987795], [45.69247725924609, 13.347759805635256], [45.51863769015429, 13.207596384004397], [45.39597991427539, 13.073898874238772], [45.19341567477343, 12.93368300052051], [44.963572535124996, 12.825172029451174], [44.78880217990039, 12.805737100557131], [44.681067499724605, 12.824559770540041], [44.44053557833789, 12.6397777423418], [44.062747034636715, 12.613552652314944], [43.84059050997851, 12.663913331941409], [43.60489847715067, 12.828886858386788], [43.56005004366992, 12.860278688386721], [43.483645472136715, 12.930004678682131], [43.340849909392574, 13.12666567416553], [43.30284789523242, 13.240954004243655], [43.38397887667773, 13.565180383638186], [43.347563776580074, 13.851036630586428], [43.20694259127734, 14.079471193269534], [43.05326369723437, 14.60650786013965], [42.79587844332812, 15.470080934480471], [42.763525995818355, 15.666981302217287], [42.883879694548824, 15.984922014192385], [42.82804778536914, 16.321475587800784], [42.81439879855273, 16.40412863345508], [42.76366332491992, 16.645455919221682], [42.62175610616843, 16.909677697843318], [42.646735497678165, 16.92173093296075], [43.36274326591562, 17.22476677936304], [43.48795395996116, 16.621825637141917]]]}}, {"type": "Feature", "properties": {"NAME": "Bijapur", "SUBJECTO": "Bijapur", "BORDERPRECISION": 1, "DE": "Vijayanagara", "MAPA": "world_1650.geojson", "MOTIVO": "Vijayanagara se hundió tras Talikota (1565) y sus restos acabaron en 1646: la mitad norte (Hampi, Goa interior) pasa a Bijapur. Corte en 14,3° N, aproximado", "FUENTE": "https://en.wikipedia.org/wiki/Vijayanagara_Empire", "AREA_KM2": 81034}, "geometry": {"type": "Polygon", "coordinates": [[[73.57273391207812, 16.037927232698244], [73.50805146588435, 16.243956660049577], [73.4942371633562, 16.287958595761864], [74.37585859327099, 16.31164199916177], [75.06687344327455, 15.966134574159993], [76.10339571827987, 15.966134574159993], [76.90957970995069, 16.31164199916177], [77.2245824615065, 16.31164199916177], [77.3097934251547, 16.31164199916177], [77.34999603892416, 15.869413247697672], [77.8456221283769, 14.878161068792211], [77.87605165831333, 14.3], [74.45547180770822, 14.3], [74.421436349163, 14.375454283976262], [74.40150741061328, 14.419635377839846], [74.37707415187178, 14.461922598887266], [74.15313195022648, 14.849504684560506], [74.03218368014453, 15.058832727388186], [73.84143355807421, 15.390475831941409], [73.57273391207812, 16.037927232698244]]]}}, {"type": "Feature", "properties": {"NAME": "Nayaka kingdoms", "SUBJECTO": "Nayaka kingdoms", "BORDERPRECISION": 1, "DE": "Vijayanagara", "MAPA": "world_1650.geojson", "MOTIVO": "el sur de Vijayanagara queda en manos de los nayakas de Madurai, Thanjavur y Keladi y del reino de Mysore", "FUENTE": "https://en.wikipedia.org/wiki/Vijayanagara_Empire", "AREA_KM2": 233838}, "geometry": {"type": "Polygon", "coordinates": [[[78.4120519448943, 12.895656710981294], [79.76935103854296, 11.730975709871096], [79.72527965820734, 11.515919075722639], [79.71073440035937, 11.444942079500002], [79.73182967623828, 11.152719102815432], [79.82626632174609, 10.358728013948244], [79.78994277438281, 10.250633798555178], [79.50091842135546, 10.250013910249514], [79.30626967867968, 10.255945764497561], [79.2224836679375, 10.192222200349612], [79.07228377780078, 9.759851060823244], [78.92660811862109, 9.492679201082034], [78.93772414645312, 9.435519777253909], [79.15964797457812, 9.277156434968752], [78.79764846285937, 9.130231462434573], [78.66012862643359, 9.123585306123537], [78.31383803805468, 8.995764337495608], [78.18113234957812, 8.81121214480762], [78.13577559908984, 8.499774537996096], [78.06494430026171, 8.385257326082034], [77.89976027926562, 8.257814966157717], [77.84802767512738, 8.232693772744899], [77.73392654400604, 8.177286614507493], [77.66318038424609, 8.142932496980471], [77.61860946139453, 8.117421709016604], [77.58883956393359, 8.09830530734424], [77.48439315280078, 8.028187356904787], [77.41947463473437, 8.028042398408694], [77.34137252291796, 8.053283296541018], [76.70353225192187, 8.706356607393069], [76.66238692721484, 8.884175859407229], [76.53785994967578, 9.11899908633594], [76.46720982073163, 9.41012571747114], [76.38528731783984, 9.747702203706545], [76.29400169973896, 9.984946143636972], [76.24837566157197, 10.103524527432205], [76.07506087741015, 10.553955636934084], [75.65175155123828, 11.423489175752444], [75.59069678092534, 11.517517622081254], [75.21094039401171, 12.102367959932131], [74.9617414804375, 12.876961313203616], [74.77759773639653, 13.527907138893337], [74.73362258395312, 13.683358751252932], [74.70298936209612, 13.75127050916374], [74.45547180770822, 14.3], [77.87605165831333, 14.3], [77.91642585544157, 13.532890254563375], [78.4120519448943, 12.895656710981294]]]}}]}