{"type": "FeatureCollection", "name": "sudan-del-sur-vecinos", "features": [{"type": "Feature", "properties": {"NAME": "Kenya", "FUENTE": "Natural Earth 1:50m Admin 0 (dominio público), commit ca96624: tierra que el mapa base asignaba a Sudán y que Natural Earth da a este vecino de Sudán del Sur"}, "geometry": {"type": "Polygon", "coordinates": [[[34.17544724171775, 4.42051263957245], [34.3787679437269, 4.6220743441596275], [34.378775135500916, 4.622081437793812], [34.63844306614712, 4.8769153697311145], [34.87691899682465, 5.110997301685927], [35.08307220689348, 5.313292507853821], [35.24514235569044, 5.472307855662548], [35.24528791856002, 5.472437378237756], [35.245445394095036, 5.472552121875316], [35.24561328766973, 5.472650997524819], [35.24579000577905, 5.472733066741496], [35.24597387116287, 5.472797550593146], [35.246163138725095, 5.472843837053112], [35.24635601209672, 5.472871486809122], [35.24655066068539, 5.4728802374328716], [35.2467452370499, 5.472870005870777], [35.246937894434524, 5.472840889232248], [35.24712680429688, 5.4727931638680065], [35.24731017366294, 5.472727282747198], [35.24748626214441, 5.472643871158188], [35.24765339845706, 5.4725437207738485], [35.24780999628313, 5.472427782137665], [35.247954569327334, 5.472297155641971], [35.24808574542355, 5.472153081083947], [35.25858543229418, 5.459427251053312], [35.26497345939951, 5.455552789568558], [35.265140365892975, 5.455439670876155], [35.26529503479941, 5.4553103219468495], [35.26543589415623, 5.455166057406071], [35.26556151235288, 5.4550083434726355], [35.26567061268088, 5.45483878305697], [35.26576208630951, 5.454659099470088], [35.265835003555324, 5.454471118908878], [35.2658886233309, 5.454276751895737], [35.265922400676786, 5.454077973861148], [35.26593599230017, 5.4538768050665904], [35.26663585286375, 5.412791136719204], [35.2888786576451, 5.385674298593831], [35.32540614666352, 5.367079631216874], [35.37675495082604, 5.3868467307617784], [35.37694759338288, 5.3869098801520305], [35.37714563913884, 5.386953203110596], [35.37734705322329, 5.386976254504904], [35.377549766156854, 5.3869787974876395], [35.3777516951148, 5.386960805930291], [35.37795076532757, 5.3869224646916125], [35.378144931398474, 5.386864167718248], [35.37833219831967, 5.386786513997028], [35.37851064197035, 5.386690301400528], [35.465572405652104, 5.333885664754887], [35.65200578353037, 5.290572484729679], [35.65220628011707, 5.290514730852032], [35.65239966870067, 5.290436403031976], [35.65258384451757, 5.290338353758011], [35.652756803072265, 5.290221650159008], [35.65291666195337, 5.290087562390017], [35.6530616813211, 5.289937549808401], [35.7741554313211, 5.150833183505911], [35.77427864776905, 5.150676514276197], [35.77438565825286, 5.150508358702576], [35.77447539995669, 5.150330386886889], [35.77454698157625, 5.150144366424771], [35.77459969217111, 5.149952144850084], [35.7746330082257, 5.149755631285432], [35.78048341299567, 5.100443694117758], [35.78049648090629, 5.1002667391301335], [35.78049381367361, 5.100089322322014], [35.78047543229131, 5.09991284013391], [35.75815923212647, 4.950388031788053], [35.76505272236435, 4.808740427361456], [35.823679981733974, 4.733877511584037], [35.82378557653639, 4.733729238995477], [35.82387725290858, 4.733571979764914], [35.823954251425874, 4.7334070365894], [35.82401593425138, 4.733235775817905], [35.82406179041962, 4.73305961613282], [35.82409144006932, 4.732880016797944], [35.827378827317496, 4.705171261626008], [35.82739258968288, 4.7049614305268666], [35.827384244641195, 4.704751314242045], [35.827353884443745, 4.704543235527904], [35.81209058393784, 4.6282600797847255], [35.80421854712314, 4.564735581348153], [35.804184497230864, 4.564540517370759], [35.80413132524952, 4.564349776470999], [35.80405955238883, 4.56416522835557], [35.803969882190586, 4.5639886820274045], [35.80386319363236, 4.563821868053214], [35.80374053251142, 4.563666421599894], [35.803603101193474, 4.563523866406058], [35.80345224682671, 4.563395599845845], [35.80328944813655, 4.563282879231382], [35.80311630093073, 4.563186809488188], [35.802934502456615, 4.563108332324319], [35.80274583476422, 4.563048216999431], [35.802552147237954, 4.563007052784235], [35.80235533846836, 4.562985243184263], [35.80215733764143, 4.562983001984579], [35.80196008562812, 4.563000351154178], [35.801765515959254, 4.563037120630645], [35.80157553587242, 4.563092949987155], [35.76609157814566, 4.575459458618007], [35.55779148069414, 4.56787723687346], [35.10397854662764, 4.507989368270653], [35.10372875238327, 4.507972212680704], [34.72954891229538, 4.505751582034952], [34.729381035075626, 4.5057576407319155], [34.42842547634, 4.529305142338861], [34.29815271334268, 4.3831002750749795], [34.04179343820621, 4.082641703466796], [34.0416566017613, 4.082496644782206], [34.041506000065716, 4.0823659337883225], [34.04134313033507, 4.082250869956156], [34.041169611748344, 4.082152597199545], [34.040987169350736, 4.0820720925028615], [34.040797616904044, 4.0820101562082725], [34.040602838855044, 4.081967404059082], [34.04040477160113, 4.08194426107829], [34.04020538423953, 4.081940957343196], [34.04000665899139, 4.081957525698078], [34.039810571495416, 4.081993801427663], [34.03961907116696, 4.082049423894658], [34.03943406181777, 4.082123840125044], [34.03925738272914, 4.082216310305502], [34.03909079036659, 4.082325915138309], [34.03893594091788, 4.08245156498059], [34.03879437382787, 4.082592010677068], [34.0386674964941, 4.082745855978613], [34.03855657027501, 4.082911571423135], [34.03846269795014, 4.083087509540821], [33.97426471314184, 4.219362661414155], [33.97419225976519, 4.219537464990791], [33.97413665068378, 4.219718333485168], [33.974098383679284, 4.219903647862807], [33.97407780129671, 4.22009174929215], [33.974075087778125, 4.220280953993493], [33.97409026741346, 4.220469568311254], [33.974123204323014, 4.220655903874638], [33.974173603673854, 4.220838292710997], [33.97424101431893, 4.221015102176593], [33.974324832835514, 4.221184749571122], [33.97442430892673, 4.221345716305168], [33.97453855213776, 4.22149656149378], [33.974666539826714, 4.221635934854464], [34.17544724171775, 4.42051263957245]]]}}, {"type": "Feature", "properties": {"NAME": "Democratic Republic of the Congo", "FUENTE": "Natural Earth 1:50m Admin 0 (dominio público), commit ca96624: tierra que el mapa base asignaba a Sudán y que Natural Earth da a este vecino de Sudán del Sur"}, "geometry": {"type": "MultiPolygon", "coordinates": [[[[30.75788209624015, 3.62610866899645], [30.758060142967075, 3.6260372059279455], [30.758230523194246, 3.625949011907072], [30.75839166909955, 3.625844898486548], [30.758542097834187, 3.6257258237078425], [30.75868042516772, 3.6255928832853748], [30.758805378225617, 3.6254473005238546], [30.798551378225618, 3.5743733005238543], [30.798664609607656, 3.5742119849742577], [30.798761413746625, 3.5740403079195935], [30.815175631589305, 3.541252244519855], [30.815256208063385, 3.5410688885332697], [30.815318042310075, 3.540878393095194], [30.815360514255772, 3.5406826684932127], [30.815383197991945, 3.54048367745295], [30.815385866046174, 3.54028341545586], [30.815368491663218, 3.540083890728549], [30.815331249073328, 3.539887104104283], [30.815274511745063, 3.5396950289586413], [30.815198848640154, 3.539509591420512], [30.815105018507953, 3.5393326510568777], [30.8149939622767, 3.539165982225085], [30.814866793617888, 3.539011256279596], [30.81472478777838, 3.5388700248116503], [30.814569368792245, 3.538743704089913], [30.814402095200528, 3.53863356085814], [30.814224644422218, 3.538540699632274], [30.737988605503364, 3.5033899530972006], [30.73781328365621, 3.5033189652976104], [30.73763203977586, 3.503264857316537], [30.737446494953694, 3.50322811310953], [30.73725830874982, 3.503209061326127], [30.737069164349517, 3.503207872370325], [30.73688075350844, 3.503224556876449], [30.736694761421084, 3.503258965614029], [30.73651285164801, 3.5033107908225625], [30.736336651236506, 3.503379568964197], [30.73616773616789, 3.503464684869733], [30.736007617261517, 3.503565377240855], [30.735857726661624, 3.503680745459375], [30.73571940502788, 3.5038097576425913], [30.614940012366546, 3.627645883747117], [30.614808749446702, 3.6277945518039445], [30.614692855924627, 3.627955489173089], [30.61459347138553, 3.6281271133515562], [30.614511573081188, 3.6283077367525665], [30.614447966320608, 3.6284955832996593], [30.61440327655137, 3.628688805890916], [30.614377943209604, 3.6288855045615813], [30.614372215398976, 3.629083745166483], [30.61438614944126, 3.629281578398555], [30.614419608322503, 3.629477058956443], [30.61447226304032, 3.6296682646727225], [30.614543595838953, 3.629853315414643], [30.614632905300407, 3.6300303915715393], [30.614739313241504, 3.630197751947131], [30.61486177334909, 3.6303537508807677], [30.61499908146849, 3.6304968544292704], [30.61514988744397, 3.6306256554502503], [30.615312708394903, 3.6307388874385906], [30.615485943296967, 3.6308354369800395], [30.615667888725074, 3.630914354699449], [30.61585675560323, 3.630974864596019], [30.616050686796555, 3.631016371673739], [30.64730810386728, 3.636100696763669], [30.699527435387036, 3.6460566122647267], [30.699734248637608, 3.6460849524531245], [30.699942889324838, 3.646091581972092], [30.700151084575143, 3.6460764286014937], [30.700356566367404, 3.6460396574179326], [30.70055709624015, 3.64598166899645], [30.75788209624015, 3.62610866899645]]], [[[30.558199373528506, 3.6908969094133415], [30.558206091671963, 3.690700943260908], [30.55819358797943, 3.690505261059305], [30.558161982635994, 3.6903117436993167], [30.558111579431145, 3.6901222512633405], [30.558042862838814, 3.68993860514634], [30.55795649336059, 3.689762570548656], [30.557853301177005, 3.689595839508959], [30.557734278167885, 3.6894400146404327], [30.55760056837842, 3.689296593726506], [30.55745345702263, 3.6891669553242123], [30.55729435812996, 3.6890523455135424], [30.557124800953645, 3.6889538659201677], [30.5569464152716, 3.6888724631266485], [30.556760915721043, 3.688808919573917], [30.556570085317453, 3.6887638460404784], [30.556375758316292, 3.6887376757716304], [30.556179802582207, 3.6887306603151226], [30.555984101635165, 3.6887428671032887], [30.555790536546127, 3.6887741788048887], [30.555600967856265, 3.6888242944528926], [30.55541721769349, 3.688892732337367], [30.55524105225823, 3.688978834635652], [30.555074164846758, 3.6890817737353343], [30.554918159575298, 3.6892005601892266], [30.55477453596131, 3.6893340522259037], [30.327529896541616, 3.9223298903707646], [30.327399716251428, 3.9224772034554243], [30.32728462758323, 3.922636585547637], [30.327185742525252, 3.9228064966955194], [30.327104016506237, 3.9229852952153164], [30.327040239164056, 3.9231712535533663], [30.326995026716236, 3.923362574977749], [30.326968816006044, 3.9235574109383333], [30.326961860281706, 3.923753878927494], [30.326974226749527, 3.923950080668922], [30.327005795924524, 3.924144120458799], [30.32705626278492, 3.9243341234821107], [30.327125139719236, 3.924518253927135], [30.327211761237628, 3.9246947327230783], [30.327315290401835, 3.9248618547294813], [30.327434726911708, 3.9250180052113106], [30.327568916770105, 3.925161675440546], [30.327716563432848, 3.9252914772735337], [30.327876240335925, 3.9254061565632483], [30.32804640467899, 3.9255046052768767], [30.32822541233191, 3.9255858722016472], [30.328411533720377, 3.925649172135458], [30.328602970537077, 3.9256938934735124], [30.328797873116958, 3.925719604117651], [30.328994358308712, 3.92572605565129], [30.329190527669827, 3.9257131857396264], [30.329384485809335, 3.9256811187319167], [30.329574358701137, 3.9256301644600136], [30.329758311790837, 3.9255608152447654], [30.42149964135327, 3.8857214924514043], [30.421667069398467, 3.8856393042529582], [30.509265069398467, 3.837445304252958], [30.509446593488207, 3.8373323948760985], [30.50961502930909, 3.837200755608465], [30.509768452501962, 3.8370518904129787], [30.509905110225162, 3.8368875000567284], [30.51002344118052, 3.8367094626799116], [30.53863644118052, 3.7882234626799116], [30.53872376009576, 3.7880583333047624], [30.53879529233637, 3.7878857776846013], [30.53885041392119, 3.7877073010351956], [30.555452413921188, 3.7234493010351954], [30.555487818165638, 3.7232835640770525], [30.555509063671245, 3.723115424764841], [30.558199373528506, 3.6908969094133415]]], [[[28.907616661134757, 4.458447111539577], [28.736381403593377, 4.4637388591218565], [28.49853555649866, 4.297525702023478], [28.382864738957725, 4.188883268218877], [28.3827105343608, 4.188752457987212], [28.382543909050916, 4.188637887569882], [28.3823665663709, 4.188540728173703], [28.3821803192229, 4.188461973019698], [28.381987071535818, 4.188402427189799], [28.381788798802226, 4.188362699396827], [28.3815875278837, 4.188343195761865], [28.223281406057527, 4.181051878775781], [28.22306707569903, 4.181053504287294], [28.222854150089475, 4.181078056876856], [28.22264507468719, 4.181125254557087], [28.222442250730744, 4.1811945552609195], [28.22224800766062, 4.181285163067261], [28.05729668319773, 4.269283553265015], [28.05715422344586, 4.269367290188981], [28.057019162698108, 4.269462501783626], [28.05689242296873, 4.269568538071447], [27.820817975336894, 4.484267329575355], [27.820665761360615, 4.4844216368647025], [27.8205311396113, 4.484591509813497], [27.663845830916163, 4.705967357101145], [27.306565525459007, 5.053278297569485], [27.306445904594298, 5.0534051828746875], [27.306337791153272, 5.053542005810704], [27.306242007042204, 5.0536877262142745], [27.245027148923178, 5.156299777440803], [27.24493660269409, 5.156469636121648], [27.24486280452477, 5.156647412445342], [27.244806437981676, 5.15683145973242], [27.24476802516824, 5.157020073217687], [27.24474792188882, 5.157211505840866], [27.244746314353012, 5.157403984428998], [27.244763217450856, 5.15759572612072], [27.24479847461491, 5.157784954880277], [27.24485175927048, 5.157969917948324], [27.244922577860574, 5.158148902077112], [27.245010274417535, 5.158320249399701], [27.245114036639045, 5.158482372786194], [27.245232903412195, 5.15863377054477], [27.245365773715932, 5.158773040331318], [27.24551141681944, 5.158898892138859], [27.245668483681946, 5.159010160246433], [27.245835519448434, 5.1591058140167485], [27.246010976925426, 5.159184967442626], [27.24619323091212, 5.159246887353761], [27.24638059325403, 5.159291000207827], [27.246571328479785, 5.159316897402995], [27.246763669876167, 5.159324339062668], [27.24695583585257, 5.1593132562573745], [27.24714604644325, 5.159283751643235], [27.247332539794492, 5.159236098511098], [27.40390780834516, 5.111091669780417], [27.40409526147686, 5.111023629475382], [27.404275006928007, 5.110937259732498], [27.40444525766215, 5.110833419243197], [27.40460432103969, 5.110713140393771], [27.40475061564618, 5.110577619001341], [27.404882687014798, 5.110428202425002], [27.40499922208673, 5.110266376170322], [27.405099062265634, 5.1100937491203835], [27.440967836519583, 5.04025753109703], [27.492440313352674, 4.96902168372984], [27.665309341942066, 4.847632769104122], [27.665454580489158, 4.847520487243992], [27.6655889117258, 4.8473953610255665], [27.66571120386257, 4.847258444682646], [27.720789203862573, 4.779582444682646], [27.720891505811448, 4.779445130450888], [27.720981687196062, 4.779299568763432], [27.76316968719606, 4.704202568763432], [27.76324616289559, 4.704051858874309], [27.789727929058415, 4.645898257973987], [27.842661445031222, 4.599484992716721], [27.917341234146317, 4.569778368337257], [27.917578486518146, 4.569665415159749], [27.981640486518145, 4.533825415159749], [27.98181866559476, 4.533713017870165], [27.981984033386972, 4.533582501865982], [27.98213475510051, 4.533435315252744], [27.982269158442772, 4.533273091100293], [28.021319548775388, 4.480735557528437], [28.079851200099217, 4.426384525094347], [28.192716329942108, 4.352225559434205], [28.247327917529805, 4.350534041325111], [28.247590877973817, 4.350508437179677], [28.311359877973818, 4.340010437179677], [28.311525514328853, 4.3399759161129845], [28.311687640182445, 4.339927518656945], [28.367434145156626, 4.32068284786599], [28.426981209724207, 4.326127342609804], [28.523771557928516, 4.37457127709135], [28.63839154834158, 4.456121623223874], [28.638551447690123, 4.456224309204449], [28.72605144769012, 4.506712309204449], [28.726231676749034, 4.506804475105455], [28.72642029917388, 4.50687795059681], [28.72661538266623, 4.50693198297598], [28.72681492873874, 4.50696601872086], [28.727016893188225, 4.5069797091602], [28.72721920703699, 4.506972914045488], [28.939523207036988, 4.489053914045488], [28.93968909272562, 4.489032898083241], [28.93985264312845, 4.488998098685329], [28.940012715039114, 4.488949759097218], [29.058079715039113, 4.447835759097218], [29.05827921566085, 4.447753981270183], [29.058468753698374, 4.447651202656653], [29.151983368740414, 4.3902127467516605], [29.224251607721648, 4.39386468562252], [29.383467470314567, 4.4998626105602915], [29.468026939672384, 4.613013247972093], [29.468143556484485, 4.613155200344315], [29.46827270671022, 4.6132858532280805], [29.468413300645956, 4.613404104241093], [29.468564152031878, 4.613508955641705], [29.468723988061036, 4.613599522747355], [29.46889146011867, 4.613675041399067], [29.469065155161093, 4.613734874409032], [29.55148715516109, 4.637953874409032], [29.551670527591558, 4.637998476698719], [29.551857287635396, 4.6380255967747885], [29.55204577243662, 4.638034993168134], [29.55223430378252, 4.638026582216057], [29.552421203045956, 4.638000438807179], [29.552604806131374, 4.637956795714651], [29.55278347829141, 4.637896041523613], [29.67758747829141, 4.588775041523613], [29.67778046706219, 4.588686994843987], [29.677963045049584, 4.588579003353777], [29.678133158393496, 4.588452281873108], [29.678288893451345, 4.588308255919904], [29.781316893451347, 4.482351255919904], [29.781473706413944, 4.482169292499624], [29.781607573042198, 4.481969841459523], [29.834777390312418, 4.391437179451425], [29.834867949500765, 4.391264156416113], [29.83494120233929, 4.3910831261451895], [29.83499645039996, 4.390895814668938], [29.835033166920994, 4.390704007905695], [29.835051001829306, 4.39050953463404], [29.83504978507824, 4.390314249056335], [29.83502952826889, 4.390120013119862], [29.834990424539487, 4.389928678764114], [29.834932846723927, 4.389742070263509], [29.834857343796987, 4.389561966833873], [29.834764635640145, 4.389390085668535], [29.834655606177872, 4.389228065565773], [29.834531294949862, 4.38907745130372], [29.834392887199577, 4.388939678911697], [29.834241702573543, 4.388816061978418], [29.834079182539206, 4.388707779127597], [29.83390687664129, 4.388615862780379], [29.833726427727676, 4.388541189311737], [29.83353955628571, 4.388484470694688], [29.833348044038225, 4.388446247711998], [29.833153716955742, 4.388426884800095], [29.83295842784679, 4.388426566574362], [29.832764038692318, 4.388445296068914], [29.832572402892673, 4.388482894707682], [29.832385347596386, 4.388539004007031], [29.83220465627925, 4.388613088993727], [29.83203205173979, 4.388704443305624], [29.831869179673298, 4.388812195926467], [29.83171759298093, 4.388935319490579], [29.692004532797657, 4.514218028417523], [29.600016071027653, 4.5512868119860865], [29.48554409737701, 4.481405917718147], [29.28973158859955, 4.219961555096786], [29.28961347395021, 4.219818235359657], [29.28948257428641, 4.219686489788742], [29.289340018343427, 4.2195674544135], [29.289187035367522, 4.219462155664587], [29.216957649991546, 4.174540757501745], [29.21678248563703, 4.174443628614007], [29.216598484826964, 4.1743645067218305], [29.216407492931783, 4.174304185349984], [29.21621142543651, 4.17426326947013], [29.21601224873009, 4.174242169433479], [29.215811960384194, 4.174241096855315], [29.215612569119276, 4.174260062492678], [29.21541607465884, 4.174298876136478], [29.21522444767393, 4.174357148519134], [29.215039610018973, 4.174434295218586], [29.214863415457238, 4.174529542519557], [29.214697631069182, 4.174641935173245], [29.214543919530133, 4.174770345977656], [28.907616661134757, 4.458447111539577]]]]}}, {"type": "Feature", "properties": {"NAME": "Central African Republic", "FUENTE": "Natural Earth 1:50m Admin 0 (dominio público), commit ca96624: tierra que el mapa base asignaba a Sudán y que Natural Earth da a este vecino de Sudán del Sur"}, "geometry": {"type": "MultiPolygon", "coordinates": [[[[27.24201013448361, 5.161357079699382], [27.241903244495955, 5.16156240196722], [27.227666794300642, 5.193263966756038], [27.227600024446364, 5.1934327557676685], [27.22754883272894, 5.193606903268238], [27.227513640813825, 5.193784974807228], [27.22749473857634, 5.19396550361187], [27.227492281713943, 5.194147002668933], [27.22750629046378, 5.194327976973229], [27.246010751359766, 5.3444454277148905], [27.24604448869032, 5.3446396841990955], [27.246097189034426, 5.344829674890603], [27.246168340226568, 5.345013553374894], [27.246257250787636, 5.345189532638614], [27.24636305664503, 5.3453559024365624], [27.2464847295301, 5.345511045912632], [27.24662108697133, 5.345653455313127], [27.246770803786116, 5.345781746639798], [27.246932424959486, 5.345894673100148], [27.247104379784584, 5.345991137224328], [27.24728499712751, 5.34607020153083], [27.24747252166814, 5.346131097637361], [27.24766513095911, 5.346173233728319], [27.247860953137177, 5.346196200306325], [27.24805808511483, 5.346199774171904], [27.248254611075335, 5.346183920592629], [27.24844862109151, 5.346148793640674], [27.24863822968723, 5.346094734695473], [27.248821594161363, 5.346022269126032], [27.24899693249593, 5.345932101185169], [27.249162540674572, 5.345825107165264], [27.249316809242934, 5.345702326882058], [27.249458238950066, 5.3455649535692595], [27.24958545531882, 5.34541432228217], [27.249697222003615, 5.34525189692301], [27.24979245280582, 5.34507925601407], [27.249870222229905, 5.344898077356922], [27.249929774477824, 5.344710121726795], [27.249970530794194, 5.344517215760572], [27.258636477598568, 5.290440748714678], [27.333969781760022, 5.187599501080291], [27.404792605177224, 5.110533304840757], [27.404916449174788, 5.11038471989787], [27.40502536045733, 5.110224866360155], [27.405118320300815, 5.110055239450484], [27.405194459186266, 5.109877425808975], [27.405253064932996, 5.109693088652016], [27.40529358936012, 5.109503952215042], [27.40531565341409, 5.109311785624534], [27.40531905071425, 5.109118386350139], [27.405303749483263, 5.108925563391664], [27.405269892844323, 5.108735120358227], [27.405217797482454, 5.108548838597828], [27.40514795068232, 5.10836846053515], [27.405061005770296, 5.10819567337342], [27.404957776003467, 5.108032093312822], [27.404839226962643, 5.107879250433026], [27.404706467520604, 5.107738574381279], [27.40456073947005, 5.107611380999903], [27.4044034059082, 5.107498860018298], [27.404235938486824, 5.107402063924559], [27.40405990364682, 5.1073218981208175], [27.403876947966193, 5.107259112454371], [27.403688782758454, 5.107214294203837], [27.40349716806549, 5.1071878625859215], [27.403303896194664, 5.107180064834187], [27.403110774954083, 5.107190973886506], [27.402919610742916, 5.107220487702818], [27.40273219165484, 5.107268330219584], [27.246156923104174, 5.1554127589502645], [27.245959909678266, 5.15548484867326], [27.245771531492903, 5.15557717893606], [27.245593861236436, 5.155688733846827], [27.24542885377997, 5.155818285988684], [27.245278324668295, 5.155964409924737], [27.2451439301438, 5.156125497881878], [27.245027148923178, 5.156299777440803], [27.24201013448361, 5.161357079699382]]], [[[27.188115436377945, 5.667143261065181], [27.188205572467865, 5.666965053691178], [27.1882774868763, 5.666778745611067], [27.18833046257376, 5.666586194427394], [27.18836397136098, 5.666389319990166], [27.188377679135392, 5.666190085254801], [27.188371449222316, 5.665990476710299], [27.1883453437377, 5.665792484572758], [27.188299622968778, 5.6655980829417345], [27.18823474277885, 5.6654092101173], [27.18815135006206, 5.665227749274027], [27.18805027629347, 5.665055509684621], [27.18793252923877, 5.664894208680396], [27.187799282906234, 5.66474545452845], [27.187651865841175, 5.664610730396297], [27.18749174787955, 5.6644913795637875], [27.187320525492822, 5.664388592029823], [27.187139905870186, 5.664303392647349], [27.18695168989688, 5.664236630904962], [27.186757754198272, 5.664188972457006], [27.186560032428815, 5.6641608924865965], [27.186360495992336, 5.664152670967766], [27.18616113438597, 5.664164389873957], [27.185963935363695, 5.664195932360691], [27.18577086511724, 5.664246983930587], [27.185583848671975, 5.664317035569081], [27.18540475069327, 5.664405388819604], [27.18523535689466, 5.664511162747618], [27.185077356233226, 5.664633302724048], [27.00765968109626, 5.816521623282986], [27.00751731883147, 5.816656123922324], [27.007388794362786, 5.816803903817329], [27.00727534015749, 5.816963545853519], [27.0071780441687, 5.817133519166084], [27.007097839402594, 5.8173121938198875], [27.007035494971472, 5.8174978564395134], [27.006991608718476, 5.817688726639431], [27.006966601484642, 5.817882974096748], [27.00696071307332, 5.818078736102843], [27.006973999950596, 5.818274135425541], [27.007006334703835, 5.8184672983105665], [27.007057407263478, 5.81865637244965], [27.007126727876404, 5.818839544742973], [27.007213631802372, 5.819015058685639], [27.00731728568842, 5.819181231211423], [27.007436695560216, 5.819336468832302], [27.007570716353616, 5.819479282918982], [27.00771806289511, 5.819608303975902], [27.00787732222579, 5.819722294773815], [27.008046967150754, 5.8198201622140235], [27.00822537088389, 5.819900967810501], [27.008410822647733, 5.819963936689363], [27.00860154407873, 5.820008465019419], [27.008795706280583, 5.820034125802522], [27.00899144736222, 5.820040672968207], [27.009186890292114, 5.820028043733352], [27.009380160897823, 5.819996359204225], [27.009569405838114, 5.819945923215153], [27.009752810375286, 5.819877219414948], [27.009928615777376, 5.819790906629022], [27.08436626035142, 5.778604991969086], [27.084554209517755, 5.778486925105834], [27.084727918613044, 5.778348759178274], [27.145274918613044, 5.724442759178274], [27.14540426358842, 5.7243166804376395], [27.14552170609074, 5.724179446221264], [27.18282670609074, 5.676376446221264], [27.182987405815023, 5.676136666964183], [27.188115436377945, 5.667143261065181]]], [[[26.07204524150517, 6.806322645835585], [25.74946399168982, 7.0013651558033345], [25.749376328171333, 7.001421326722823], [25.498518021286568, 7.171530121888838], [25.498404111851816, 7.171613377729851], [25.297884550084238, 7.32931773106237], [25.297736351540422, 7.3294465493008145], [25.297601499334032, 7.32958927921841], [25.29748129333741, 7.3297445450076895], [25.29737689224461, 7.329910850024954], [25.297289302402486, 7.330086591216772], [25.236536463959435, 7.468629875222846], [25.23646572667116, 7.468815827999117], [25.236413814388644, 7.469007888702748], [25.236381240812467, 7.4692041567874945], [25.236368328276065, 7.469402690072761], [25.236375204556083, 7.46960152396255], [25.236401801607958, 7.469798690886213], [25.236447856239238, 7.469992239768652], [25.236512912714023, 7.470180255337272], [25.236596327262735, 7.470360877074664], [25.236697274452556, 7.4705323176294405], [25.236814755355553, 7.470692880503064], [25.236947607433603, 7.470840976837634], [25.23709451604236, 7.470975141138505], [25.237254027440382, 7.471094045776164], [25.23742456317469, 7.4711965141238545], [25.23760443570045, 7.471281532200947], [25.237791865080133, 7.471348258706829], [25.23798499659699, 7.4713960333460445], [25.238181919108488, 7.471424383362273], [25.238380683958123, 7.471433028216521], [25.23857932425844, 7.4714218823632015], [25.23877587435446, 7.47139105609666], [25.238968389274937, 7.471340854459752], [25.2391549639789, 7.471271774225272], [25.239333752207088, 7.471184498980116], [25.239502984751695, 7.471079892360813], [25.239660986963653, 7.470958989507368], [25.23980619532422, 7.4708229868199805], [25.280305060789562, 7.428920309111209], [25.381849601112673, 7.335025687675236], [25.567545968534976, 7.230474731892454], [25.889870863097652, 7.0667240905889255], [25.890018383246918, 7.066641112859521], [25.890158359197567, 7.0665459591351745], [26.037716359197567, 6.956829959135175], [26.0378655812332, 6.956707388488981], [26.038002286793738, 6.9565709979873205], [26.03812520141497, 6.956422059157213], [26.03823317920139, 6.956261960509919], [26.088523120475468, 6.8733226288927], [26.17067254042868, 6.783240530365715], [26.285736254439204, 6.700647761700385], [26.285842671427865, 6.70056582449964], [26.363088671427867, 6.63684582449964], [26.363232646347466, 6.636714776585094], [26.363363197716527, 6.636570351263849], [26.363479088484674, 6.636413917050077], [26.363579220519274, 6.636246956249207], [26.363662645010887, 6.636071050912223], [26.363728571463792, 6.635887867844808], [26.36377637518639, 6.635699142813384], [26.36380560321052, 6.635506664097714], [26.363815978583602, 6.635312255545912], [26.363807402992933, 6.635117759292414], [26.363779957697226, 6.634925018302679], [26.363733902756675, 6.6347358589100205], [26.310672600279812, 6.455298290214966], [26.326474818419715, 6.397001277905131], [26.35494295945941, 6.346117363660595], [26.42195826905633, 6.2755472144583395], [26.422081651595583, 6.27540435029701], [26.422191015487936, 6.275250490105169], [26.422285386481033, 6.275087004524009], [26.422363923884564, 6.274915349941107], [26.422425928059475, 6.274737055516409], [26.44930956702119, 6.183809652443366], [26.515744213051928, 6.070656821044991], [26.594374921537682, 6.0194449498067355], [26.726654631417, 6.000221208975312], [26.7268509869093, 6.000182555763596], [26.72704249653711, 6.000124472955544], [26.72722724283181, 6.0000475420987405], [26.727403376041902, 5.999952533454736], [26.727569132653436, 5.999840398286893], [26.79761499637737, 5.947159898869948], [26.9000190472922, 5.8835433988756956], [26.900182532165864, 5.883430199551818], [26.90033396805048, 5.883301325335265], [26.90047185794968, 5.883158050192474], [26.90059483877386, 5.883001790448053], [26.90070169481481, 5.882834090783907], [26.900791369763414, 5.882656608969528], [26.900862977151622, 5.882471099474363], [26.900915809115507, 5.882279396124275], [26.90094934339273, 5.882083393973538], [26.9009632484853, 5.8818850305715635], [26.900957386936547, 5.881686266809552], [26.900931816689916, 5.881489067536406], [26.90088679051619, 5.881295382135506], [26.900822753514742, 5.881107125254387], [26.90074033871361, 5.880926157877779], [26.900640360811753, 5.880754268931123], [26.90052380812549, 5.880593157596425], [26.900391832818663, 5.880444416515248], [26.90024573951306, 5.880309516044898], [26.900086972391808, 5.880189789723431], [26.89991710092311, 5.8800864210871655], [26.899737804345488, 5.880000431971013], [26.899550855067968, 5.879932672407286], [26.899358101149154, 5.879883812222832], [26.89916144802856, 5.879854334417564], [26.898962839690665, 5.879844530389837], [26.89876423944794, 5.879854497055875], [26.89856761053284, 5.879884135891716], [26.578254459473026, 5.9445953021128926], [26.57808526262678, 5.944637233988335], [26.577920359643, 5.9446937393942525], [26.577761003201218, 5.944764389089379], [26.577608403846874, 5.944848646385865], [26.41261321036543, 6.045573343498902], [26.412466065677734, 6.045672386001818], [26.412328274718856, 6.045784075876705], [26.412200921248324, 6.045907534655432], [26.41208500693228, 6.046041791304565], [26.41198144346511, 6.046185789862781], [26.28363786131179, 6.242449103156238], [26.283537454119973, 6.2426207017843325], [26.28345458020517, 6.24280142147772], [26.283390058521057, 6.242989476378248], [26.28334452666597, 6.243183008141803], [26.28331843458221, 6.2433801043023385], [26.256761867970646, 6.566939448957457], [26.164725994079475, 6.730922562647382], [26.07204524150517, 6.806322645835585]]], [[[24.004909091773367, 8.617798745149543], [23.88287922492967, 8.617072659374204], [23.522205748526115, 8.608577742957477], [23.522015803254487, 8.608582296678735], [23.521827147224407, 8.60860485426958], [23.521641483053834, 8.608645212148073], [23.521460486359246, 8.608703006084943], [23.52128579063321, 8.608777714490737], [23.52111897250215, 8.608868663123168], [23.520961537497307, 8.608975031172132], [23.520814906467336, 8.609095858667516], [23.520680402755175, 8.609230055142904], [23.520559240254904, 8.609376409477035], [23.449302602681662, 8.704288938468734], [23.44918570460776, 8.704462942001534], [23.449087661263313, 8.70464822527579], [23.44900954971302, 8.704842752844069], [23.448952228058914, 8.705044387704843], [23.448916326013606, 8.70525091477874], [23.4489022379825, 8.705460065242494], [23.44447337445711, 9.004148000117983], [23.444479864305308, 9.00434134004867], [23.44450500260387, 9.004533148580474], [23.44454855416863, 9.004721631227246], [23.46243427206235, 9.068001402123716], [23.46249693768543, 9.068187627738329], [23.462577574219416, 9.068366805608727], [23.46267540338145, 9.068537206356702], [23.4627894809499, 9.068697185318538], [23.462918705877737, 9.0688451984189], [23.463061830919568, 9.068979817073833], [23.463217474669698, 9.069099741979084], [23.463384134895126, 9.069203815650651], [23.4635602030347, 9.069291033596521], [23.463743979724512, 9.06936055401176], [23.46393369119975, 9.069411705903397], [23.464127506414577, 9.069443995566676], [23.464323554714948, 9.069457111350163], [23.464519943893638, 9.069450926663727], [23.46471477845337, 9.069425501200353], [23.46490617790164, 9.069381080360001], [23.46509229490073, 9.069318092881073], [23.46527133309778, 9.069237146702335], [23.465441564462655, 9.069139023095255], [23.465601345966494, 9.069024669123374], [23.465749135439772, 9.068895188501493], [23.46588350645692, 9.068751830942903], [23.46600316210382, 9.06859598009748], [23.466106947495287, 9.068429140197061], [23.46619386092171, 9.06825292153698], [23.466263063517296, 9.068069024933916], [23.46631388735659, 9.067879225310067], [23.466345841901113, 9.067685354562045], [23.466358618733903, 9.067489283879897], [23.466352094536298, 9.067292905686863], [23.464830579181502, 9.048858894458329], [23.490603378145217, 8.994728168047098], [23.52903398090251, 8.972333001580434], [23.52921610996699, 8.972213109911173], [23.5293841049706, 8.972074103842068], [23.529535969082374, 8.971917635634304], [23.553363969082373, 8.944525635634303], [23.553491746329637, 8.94436237437435], [23.553601936220414, 8.944186762723564], [23.553693354729504, 8.944000687684627], [23.55376501953614, 8.943806148692621], [23.553816160579334, 8.943605236130493], [23.553846228332414, 8.943400108867202], [23.553854899707876, 8.943192971060009], [23.553842081529048, 8.942986048470107], [23.539395668174187, 8.816500004723304], [23.58433525502271, 8.767544073257307], [23.679724368837363, 8.734439700907267], [23.922159706836002, 8.711708266068959], [23.922261735375162, 8.71169604822658], [24.048433735375163, 8.69328804822658], [24.04864620776872, 8.693245179426752], [24.147863634958764, 8.66756132770681], [24.19532406206227, 8.655305475647634], [24.19551349465076, 8.65524639104253], [24.19569613990629, 8.655168825542617], [24.195870199882833, 8.655073542696785], [24.1960339611472, 8.654961480462129], [24.19618581164595, 8.654833741970776], [24.196324256574307, 8.654691584670731], [24.19644793309091, 8.654536407947655], [24.196555623733527, 8.654369739349423], [24.222629623733525, 8.609252739349424], [24.222720396121783, 8.609075937118538], [24.222793172960973, 8.608890998785588], [24.222847235604277, 8.608699750554445], [24.222882050201267, 8.608504080937097], [24.222897272969497, 8.608305922105238], [24.22289275358925, 8.608107230810717], [24.222868536687887, 8.607909969063272], [24.22282486139917, 8.607716084756346], [24.182064130735164, 8.461162540239057], [24.21015231413041, 8.370238190640361], [24.29249307054607, 8.293128048244796], [24.376085422268677, 8.260360983707493], [24.456453086214474, 8.241413977998127], [24.73705546840253, 8.193524494107042], [24.73722788487648, 8.193487175840634], [24.737396342214193, 8.193434809640976], [24.73755952981365, 8.193367802918328], [24.85416052981365, 8.139363802918327], [24.854341445519097, 8.139268490928012], [24.854511683322162, 8.139155203866164], [24.85466946360503, 8.139025126003665], [24.85481313697728, 8.138879617137675], [25.008613051906256, 7.966294781439442], [25.082631112157923, 7.90615960993991], [25.082778275249996, 7.906027446692442], [25.082911663808165, 7.90588139330426], [25.08302997315562, 7.905722878327193], [25.083132046105685, 7.905553452200179], [25.08321688428029, 7.905374772084388], [25.083283657875143, 7.905188585654483], [25.08333171377604, 7.904996714004574], [25.083360581947026, 7.9048010338360495], [25.083369980027793, 7.904603459101511], [25.083359816095484, 7.9044059222843615], [25.083330189563775, 7.904210355497128], [25.08328139021051, 7.90401867158343], [25.083213895343373, 7.903832745408402], [25.083128365131348, 7.903654395520595], [25.083025636147568, 7.903485366364704], [25.082906713186784, 7.903327311219114], [25.082772759437432, 7.90318177602514], [25.08262508510448, 7.903050184266141], [25.082465134594248, 7.902933823044392], [25.082294472386668, 7.902833830491899], [25.082114767733042, 7.902751184638309], [25.081927778329067, 7.902686693844777], [25.081735333122758, 7.90264098889736], [25.081539314425473, 7.902614516837287], [25.081341639500973, 7.902607536588438], [25.08114424181262, 7.9026201164248], [25.08094905211212, 7.90265213330268], [25.0807579795548, 7.902703274064199], [25.0805728930261, 7.902773038500293], [25.08039560286197, 7.902860744243275], [25.02952935202437, 7.931237788816778], [24.670227371249375, 8.03709977262406], [24.670015779220908, 8.037175268444352], [24.669813989044513, 8.037274018280321], [24.311112283111896, 8.238529816620165], [24.310954348834258, 8.23862836249548], [24.31080626127509, 8.238741165866061], [24.310669303410425, 8.238867249445093], [24.210625052922143, 8.339965310053003], [24.210488507074206, 8.340118232534278], [24.21036833349939, 8.34028432999297], [24.21026579492315, 8.340461857157797], [24.097168084530583, 8.561735145925457], [24.004909091773367, 8.617798745149543]]]]}}, {"type": "Feature", "properties": {"NAME": "Uganda", "FUENTE": "Natural Earth 1:50m Admin 0 (dominio público), commit ca96624: tierra que el mapa base asignaba a Sudán y que Natural Earth da a este vecino de Sudán del Sur"}, "geometry": {"type": "MultiPolygon", "coordinates": [[[[32.226824668880205, 3.5566878583262898], [32.22663024506269, 3.556626114327437], [32.22643054310188, 3.5565844961936173], [32.226227640544316, 3.5565634368880805], [32.17034201607774, 3.5536323647148618], [32.17014284023216, 3.5536318498529544], [32.16994460087114, 3.553651148513232], [32.169749264097106, 3.553690069295043], [32.169558767225155, 3.5537482261890547], [32.16937499956909, 3.5538250424056237], [32.16919978370355, 3.5539197560952913], [32.16903485738808, 3.5540314279046727], [32.168881856332284, 3.5541589502927917], [32.168742297973196, 3.5543010585154757], [32.16861756642559, 3.5544563431688614], [32.16850889875458, 3.5546232641676085], [32.168417372706635, 3.5548001660191915], [32.16834389602069, 3.554985294242776], [32.168289197425324, 3.555176812769846], [32.168253819411404, 3.555372822154001], [32.168238112851725, 3.555571378409326], [32.168242233521134, 3.555770512290495], [32.16826614055156, 3.555968248823391], [32.16830959683737, 3.5561626268925477], [32.16837217138691, 3.55635171869114], [32.168453243597035, 3.556533648840625], [32.19489597893471, 3.608716029224413], [32.19498816185594, 3.6088786225641187], [32.19509512056617, 3.6090319004796414], [32.1952159209339, 3.6091745243073823], [32.1953495079405, 3.609305248431975], [32.2441775079405, 3.652811248431975], [32.244318208342655, 3.6529256056146058], [32.24446868709764, 3.6530267506228165], [32.33470268709764, 3.7079097506228167], [32.33489659317255, 3.7080135361502866], [32.33510072254121, 3.7080954031304993], [32.33531260671812, 3.7081543615664976], [32.534336606718114, 3.7519043615664973], [32.5345806657526, 3.7519423942896224], [32.67670375042212, 3.7651694458444886], [32.73670441977987, 3.7746658613800155], [32.83737312274719, 3.800368148348339], [32.99635284250941, 3.8819553660099513], [32.99652932140814, 3.882035382868667], [32.99671271541661, 3.882097945933107], [32.99690130303823, 3.882142467931615], [32.997093314024575, 3.882168530941765], [32.99728694599256, 3.8821758903133414], [32.99748038134314, 3.8821644769648445], [32.99767180432288, 3.882134398031948], [32.997859418068224, 3.882085935861831], [32.99804146147244, 3.8820195453628195], [32.99821622571686, 3.881935849734217], [32.99838207031141, 3.881835634616417], [33.15481811488509, 3.7766355964546316], [33.32443077500897, 3.756346528735277], [33.488767189616965, 3.757075412547546], [33.53835920422663, 3.7887209982508323], [33.567098600362854, 3.813189154997266], [33.74018619640443, 3.9866666217394493], [33.97465831404461, 4.221627739634795], [33.97480001464825, 4.221756739706808], [33.974953410462795, 4.221871586577611], [33.97511709331161, 4.221971225950644], [33.97528956058287, 4.2220547431344775], [33.9754692290236, 4.222121371439702], [33.97565444927395, 4.222170499217148], [33.9758435210083, 4.22220167547284], [33.9760347085444, 4.222214614008132], [33.97622625677683, 4.222209196047009], [33.97641640728903, 4.222185471326464], [33.97660341449549, 4.222143657639904], [33.97678556166634, 4.222084138837804], [33.97696117668693, 4.222007461303953], [33.97712864740786, 4.221914328939637], [33.97728643644459, 4.2218055967018175], [33.97743309529061, 4.221682262754601], [33.977567277614796, 4.221545459306078], [33.97768775162075, 4.221396442214633], [33.97779341135469, 4.221236579460132], [33.97788328685815, 4.221067338585844], [34.04208127166645, 4.0847921867125105], [34.04215433685314, 4.084615681522757], [34.042210229058114, 4.084433010602963], [34.04224843836836, 4.08424584048749], [34.042268616194576, 4.084055878757542], [34.04227057845141, 4.083864858462641], [34.04225430723688, 4.083674522309759], [34.04221995099575, 4.083486606764338], [34.04216782316518, 4.083302826208249], [34.04209839931524, 4.083124857299236], [34.04201231281019, 4.082954323674505], [34.041910349030196, 4.082792781138047], [34.04179343820621, 4.082641703466796], [33.99293746386471, 4.025381453150679], [33.99279997829911, 4.0252357719764875], [33.739256124539345, 3.782203316532151], [33.739105932238836, 3.7820730401023432], [33.73894354725178, 3.7819583196103803], [33.73877057433464, 3.781860288772209], [33.45733746886589, 3.640357669982536], [33.4571445043294, 3.6402730706820674], [33.45694371061207, 3.640209240931436], [33.45673731614036, 3.640166889118864], [33.456527611498366, 3.6401464852685157], [33.29105748820735, 3.632812252938194], [33.2908512099511, 3.632813758633567], [33.290646184007905, 3.63283650393508], [33.290444591494314, 3.632880246872607], [33.290248577001165, 3.6329445220979952], [33.29006022577897, 3.6330286458355507], [33.28988154155447, 3.633131723156214], [33.1540119904555, 3.721148826506989], [33.01832788330187, 3.7646101420796354], [32.62303229226089, 3.705153001048565], [32.226824668880205, 3.5566878583262898]]], [[[30.890307485646474, 3.573620810108483], [30.890121941483656, 3.5735462669954527], [30.889929881216315, 3.5734906237949247], [30.889733224645852, 3.5734544367067618], [30.88953393751752, 3.5734380674508737], [30.889334011871185, 3.573441679651526], [30.88913544612922, 3.573465237201783], [30.88894022512063, 3.5735085046244244], [30.888750300241046, 3.573571049425734], [30.888567569946897, 3.573652246418635], [30.888393860778777, 3.573751283971951], [30.88823090910365, 3.5738671721233324], [30.888080343758446, 3.5739987524747487], [30.88794366976845, 3.5741447097716375], [30.887822253303366, 3.5743035850499614], [30.887717308021294, 3.5744737902197627], [30.887629882937226, 3.574653623939437], [30.887560851937266, 3.5748412886220517], [30.887510905043417, 3.5750349084037145], [30.88748054151624, 3.575232547894388], [30.88747006486433, 3.5754322315237146], [30.887479579810503, 3.5756319632884783], [30.887508991244985, 3.5758297467043096], [30.88755800517614, 3.5760236047621996], [30.88762613166914, 3.576211599690343], [30.88771268974328, 3.5763918523237703], [30.887816814178937, 3.576562560888159], [30.927741755112, 3.6352075138116886], [30.927870656634646, 3.635376749900369], [30.928016804752, 3.6355313370409936], [30.928178545927594, 3.63566952621702], [31.046830545927595, 3.7265875262170205], [31.04704227699852, 3.7267293153819634], [31.15133927699852, 3.7873253153819633], [31.151524752337888, 3.787420509048518], [31.151719129404363, 3.787495878085223], [31.151920296148464, 3.7875506035521798], [31.152126066745875, 3.787584090817027], [31.152334205348037, 3.7875959760160542], [31.221963205348036, 3.7879369760160544], [31.22213686535989, 3.787930275732012], [31.222309288077934, 3.787908524873959], [31.22247917159454, 3.78787188767552], [31.22264523317476, 3.7878206407722153], [31.35809423317476, 3.7394816407722153], [31.35826698461656, 3.7394107330188913], [31.480463805751874, 3.68245009238638], [31.54692397475606, 3.6796003015472265], [31.628099244488403, 3.703312918878201], [31.79702034190813, 3.8043533837456693], [31.797198173593383, 3.804447937252206], [31.797384613327786, 3.8045241258295275], [31.7975777704039, 3.804581176840245], [31.797775685992942, 3.8046185117232993], [31.79797635300947, 3.8046357518612197], [31.7981777364655, 3.804632722419724], [31.798377794107545, 3.804609454120737], [31.798574497127355, 3.8045661829308366], [31.798765850736306, 3.804503347668285], [31.798949914394775, 3.804421585552924], [31.799124821491404, 3.804321725744052], [31.799288798272595, 3.804204780931821], [31.839913798272594, 3.772026780931821], [31.8400792156124, 3.7718801770544927], [31.840227445363844, 3.7717162150651706], [31.889836445363844, 3.710339215065171], [31.8899512268535, 3.7101821555607466], [31.890050206962293, 3.710014687903089], [31.94323906860782, 3.6091212335887906], [32.04904098118513, 3.5630154745882634], [32.04917403402739, 3.5629515515171333], [32.049302009796534, 3.562877989160123], [32.06694260184994, 3.5518524467610786], [32.06710239553741, 3.5517414116887465], [32.067250642928045, 3.551615373912605], [32.06738594075615, 3.5514755264687414], [32.06750700833273, 3.5513231931114495], [32.06761269966815, 3.551159815782965], [32.06770201431966, 3.550986940964467], [32.06777410686134, 3.5508062050375515], [32.06782829488665, 3.5506193187947264], [32.067864065467866, 3.5504280512455604], [32.067881080011304, 3.550234212871764], [32.06787917746236, 3.550039638489709], [32.06785837583, 3.549846169882603], [32.067818872016275, 3.549655638366717], [32.06776103995255, 3.549469847456688], [32.067685427059914, 3.549290555793992], [32.06759274906753, 3.5491194605001612], [32.06748388323768, 3.5489581811123396], [32.06735986006193, 3.5488082442532254], [32.06722185350675, 3.548671069180515], [32.06707116990114, 3.5485479543526313], [32.06690923557127, 3.548440065137904], [32.06673758333933, 3.548348422783539], [32.06655783801427, 3.5482738947487946], [32.06637170101185, 3.548217186493873], [32.066180934249566, 3.5481788348022425], [32.06598734346882, 3.548159202699605], [31.816170572673226, 3.5350568889602245], [31.81597301964279, 3.535056298056652], [31.81577637206725, 3.535075199909341], [31.815582548614827, 3.5351134100950463], [31.392029385242086, 3.640584680929465], [31.169526698884145, 3.6456000908304396], [30.961198885143983, 3.6063072619571406], [30.890307485646474, 3.573620810108483]]]]}}, {"type": "Feature", "properties": {"NAME": "Ethiopia", "FUENTE": "Natural Earth 1:50m Admin 0 (dominio público), commit ca96624: tierra que el mapa base asignaba a Sudán y que Natural Earth da a este vecino de Sudán del Sur"}, "geometry": {"type": "MultiPolygon", "coordinates": [[[[35.82409144006932, 4.732880016797944], [35.82410503507659, 4.732680923823734], [35.82409872198826, 4.732481467107832], [35.82407256365559, 4.73228363238329], [35.824026820503335, 4.732089389235086], [35.823961947937015, 4.731900671491507], [35.82387859180903, 4.731719357971521], [35.82377758198874, 4.731547253779796], [35.82365992410056, 4.73138607233561], [35.82352678951218, 4.731237418314541], [35.823379503672854, 4.731102771672787], [35.82321953291755, 4.730983472913152], [35.82304846986859, 4.730880709739389], [35.82286801757992, 4.730795505231766], [35.822679972582065, 4.73072870766158], [35.82248620699632, 4.730680982046013], [35.822288649896485, 4.730652803527411], [35.82208926810361, 4.73064445264291], [35.82189004660482, 4.730656012531487], [35.821692968791425, 4.730687368106254], [35.82149999671281, 4.730738207200227], [35.82131305154286, 4.730808023674175], [35.82113399445331, 4.730896122455589], [35.82096460808448, 4.731001626458624], [35.82080657879778, 4.731123485316111], [35.82066147988683, 4.731260485836709], [35.82053075591419, 4.731411264083082], [35.76151138709011, 4.806774876249523], [35.76139334608401, 4.806942672481966], [35.76129311571338, 4.807121678424735], [35.76121175063361, 4.807310010521144], [35.761150106993604, 4.8075056870818], [35.76110883342707, 4.807706649136549], [35.76108836422743, 4.807910782099614], [35.75415436422743, 4.950390782099614], [35.754154475834646, 4.950587484716524], [35.754173909459126, 4.950783225019464], [35.776519251209564, 5.1005032901728375], [35.776558189900626, 5.100697646712857], [35.77661617624345, 5.100887194254007], [35.77669264065723, 5.1010700709330425], [35.77678683205715, 5.101244480412407], [35.776897825232005, 5.101408709525065], [35.77702452993231, 5.101561145102377], [35.777165701579406, 5.101700289819732], [35.777319953490554, 5.10182477690427], [35.7774857704999, 5.101933383560244], [35.77766152384142, 5.10202504298014], [35.77784548714775, 5.10209885482358], [35.778035853407765, 5.102154094061067], [35.778230752716205, 5.102190218095714], [35.77842827064118, 5.102206872092991], [35.77862646702897, 5.102203892466155], [35.77882339506156, 5.102181308483099], [35.77901712037956, 5.102139341978873], [35.77920574008279, 5.102078405176665], [35.77938740142185, 5.10199909663867], [35.77956031999708, 5.101902195386609], [35.7797227972861, 5.101788653249659], [35.779873237327855, 5.1016595855149385], [35.780010162399236, 5.101516259972419], [35.780132227530224, 5.101360084461832], [35.780238233715124, 5.101192593043928], [35.780327139690016, 5.101015430931895], [35.780398072160686, 5.100830338330978], [35.78045033438078, 5.1006391333450045], [35.78048341299567, 5.100443694117758], [35.82409144006932, 4.732880016797944]]], [[[35.37851064197035, 5.386690301400528], [35.37867123632111, 5.386581922550126], [35.3788205906296, 5.386458513428718], [35.37895730333555, 5.386321232123565], [35.37908009150912, 5.386171366900306], [35.37918780289011, 5.386010324113704], [35.37927942670089, 5.385839615010234], [35.37935410313171, 5.385660841546343], [35.37941113140921, 5.3854756813554925], [35.37944997637262, 5.385285872005014], [35.37947027349574, 5.385093194690563], [35.37947183230772, 5.384899457521139], [35.37945463818047, 5.3847064785515615], [35.37941885246592, 5.384516068721601], [35.37936481098187, 5.384330014861892], [35.37929302086064, 5.3841500629260715], [35.379204155790084, 5.3839779016065314], [35.37909904969158, 5.383815146487507], [35.37897868889445, 5.383663324884221], [35.378844202880074, 5.383523861510363], [35.37869685368272, 5.383398065108388], [35.378538024046435, 5.383287116168108], [35.37836920444921, 5.383192055848823], [35.37819197911611, 5.3831137762089405], [35.32601151414504, 5.363026522723581], [35.32583479011565, 5.36296778222775], [35.32565336851831, 5.3629257342500285], [35.32546882236119, 5.362900743365601], [35.32528275174382, 5.362893026256861], [35.325096769983524, 5.362902649834669], [35.32491248962717, 5.362929530658206], [35.324731508469675, 5.362973435658444], [35.324555395700415, 5.363033984158963], [35.32438567829759, 5.363110651176585], [35.28669067829759, 5.382299651176585], [35.286511828274165, 5.382402645665148], [35.286344544675, 5.382523523260285], [35.28619060886952, 5.382660996760796], [35.286051660089136, 5.382813602239021], [35.263101660089134, 5.41079260223902], [35.262987529015255, 5.410946174404309], [35.262888595531564, 5.411109950097812], [35.2628057651345, 5.41128243034972], [35.26273979593572, 5.411462036521078], [35.26269129172348, 5.411647124752392], [35.26266069643634, 5.411836001009189], [35.26264829010007, 5.412026936586798], [35.261936572500304, 5.453808678240188], [35.26194266673375, 5.454002418121084], [35.261967487139266, 5.454194658149698], [35.26201080057704, 5.4543835926019275], [35.262072200200905, 5.454567446803185], [35.262151109279884, 5.454744493798036], [35.26224678661545, 5.454913070571615], [35.26235833350366, 5.455071593670439], [35.26248470217677, 5.4552185740759], [35.26262470564493, 5.45535263119072], [35.26277702884574, 5.455472505806995], [35.262940240996656, 5.455577071934031], [35.26311280903448, 5.455665347374848], [35.26329311201551, 5.455736502952026], [35.263479456341166, 5.4557898702962255], [35.26367009166611, 5.455824948124235], [35.263863227339314, 5.455841406947548], [35.264057049223844, 5.455839092167281], [35.26424973673711, 5.455818025526328], [35.26443947995177, 5.4557784049051286], [35.264624496596454, 5.455720602462962], [35.26480304879682, 5.455645161142228], [35.26497345939951, 5.455552789568558], [35.37851064197035, 5.386690301400528]]], [[[35.09798455111815, 5.658128910896118], [35.098059321836104, 5.657947241172375], [35.09811590841315, 5.657759112205743], [35.09815376486594, 5.657566339184369], [35.098172525931304, 5.657370782105196], [35.09817201059052, 5.6571743278275335], [35.09815222381592, 5.656978871867433], [35.09811335652293, 5.65678630010854], [35.09805578372794, 5.656598470605891], [35.09798006092998, 5.6564171956582125], [35.09788691875083, 5.656244224321707], [35.09777725588561, 5.656081225534046], [35.097652130431506, 5.655929772011395], [35.097512749678636, 5.655791325073846], [35.09736045846131, 5.655667220545672], [35.09719672618223, 5.655558655866438], [35.09702313263477, 5.655466678537347], [35.09684135276007, 5.655392176014278], [35.09665314048621, 5.6553358671450455], [35.09646031180512, 5.655298295233502], [35.09626472725079, 5.655279822797388], [35.09606827394763, 5.655280628070539], [35.09587284740228, 5.655300703283166], [35.09568033321459, 5.655339854736827], [35.09549258888409, 5.655397704673348], [35.095311425887736, 5.6554736949196815], [35.095138592201536, 5.655567092273508], [35.09497575543502, 5.655676995577648], [35.09482448674109, 5.655802344414991], [35.094686245656476, 5.655941929340082], [35.08044555690699, 5.671809134303577], [35.0803296383225, 5.671950837696207], [35.08022716307346, 5.672102547264277], [35.08013898982481, 5.672262991796541], [35.03016924782155, 5.7739584125370715], [34.98186365476635, 5.857298051660157], [34.981773351723255, 5.857473207844685], [34.98170072459351, 5.85765640071735], [34.98164647848357, 5.8578458517350995], [34.98161114004624, 5.858039721597167], [34.97458612369247, 5.911353058831832], [34.97457009396971, 5.911547703450901], [34.97457312539893, 5.911742983481066], [34.97459518907281, 5.911937036757356], [34.97463607459501, 5.912128012812971], [34.97469539208653, 5.912314090525081], [34.97477257590348, 5.912493495480827], [34.97486689003101, 5.912664516897884], [34.97497743510187, 5.912825523938262], [34.97510315697265, 5.912974981259768], [34.97524285677594, 5.91311146365682], [34.97539520235259, 5.913233669651033], [34.97555874095497, 5.913340433901941], [34.975731913100276, 5.913430738319533], [34.97591306744143, 5.913503721772626], [34.9761004765142, 5.913558688300507], [34.97629235321005, 5.913595113749515], [34.976486867817755, 5.913612650771304], [34.97668216547132, 5.913611132135117], [34.97687638383772, 5.9135905723224695], [34.977067670875876, 5.913551167389062], [34.97725420249748, 5.913493293095214], [34.97743419996123, 5.913417501322664], [34.977605946834736, 5.913324514811897], [34.97776780536215, 5.913215220270187], [34.977918232081606, 5.913090659916067], [34.978055792543465, 5.912952021540874], [34.978179174989066, 5.912800627182121], [34.97828720285945, 5.912637920516723], [34.97837884601489, 5.912465453094279], [35.09798455111815, 5.658128910896118]]], [[[34.21873877407216, 9.760538450624708], [34.218729714900746, 9.760474028777463], [34.12873879446892, 9.188188972449995], [34.146227259414886, 8.953364695885064], [34.146232555305495, 8.953185984418456], [34.14622187009776, 8.95300751408173], [34.146195289182074, 8.952830711113213], [34.10356524481615, 8.735779387151972], [34.103518017949966, 8.735588895660072], [34.1034523481952, 8.735403950077034], [34.10336886790867, 8.73522633130793], [34.10326838095097, 8.735057749705406], [34.10315185494583, 8.734899828600101], [34.10302041196249, 8.734754088669032], [34.102875317710975, 8.73462193329247], [34.10271796935409, 8.73450463504031], [34.102549882053644, 8.734403323418045], [34.102372674380476, 8.734318973990376], [34.10218805272866, 8.734252398987156], [34.101997794884, 8.734204239482146], [34.10180373290519, 8.734174959219905], [34.10160773548223, 8.734164840150214], [34.101411689942196, 8.734173979713104], [34.10121748407549, 8.734202289900555], [34.10102698795767, 8.734249498103967], [34.10084203594182, 8.734315149739203], [34.10066440899496, 8.734398612623924], [34.100495817548484, 8.73449908306511], [34.10033788502782, 8.734615593598084], [34.10019213221992, 8.734747022302573], [34.100059962629025, 8.734892103606057], [34.09994264896193, 8.735049440470423], [34.09984132087255, 8.735217517844507], [34.09975695408416, 8.735394717253063], [34.099690360993776, 8.735579332381615], [34.09964218284934, 8.735769585507148], [34.099612883574885, 8.735963644616422], [34.09960274530327, 8.736159641047067], [34.099562094581195, 8.751815976294374], [34.089017326573185, 9.041187167775403], [34.082571331672156, 9.218433027423517], [34.07514934213872, 9.42092274187048], [34.07514858091283, 9.421044200766111], [34.07612554360242, 9.461569653090711], [34.07729750868804, 9.513522105358925], [34.07730801815251, 9.51368664543963], [34.07733204468143, 9.51384976077585], [34.11834804468143, 9.73005976077585], [34.118404493177664, 9.730284998084516], [34.15717349317766, 9.854015998084515], [34.15722620026719, 9.854163659004975], [34.18339820026719, 9.919300659004975], [34.18347613949912, 9.919471085170386], [34.25075000070479, 10.05003049650658], [34.25084992025425, 10.050202765214088], [34.250966476766074, 10.050364242777544], [34.25109851457011, 10.050513328129792], [34.25124472449753, 10.050648543073766], [34.25140365686141, 10.050768546938961], [34.25157373583051, 10.050872149874339], [34.25175327505384, 10.05095832464581], [34.25194049438095, 10.051026216821388], [34.252133537512385, 10.05107515324295], [34.252330490405036, 10.051104648700694], [34.25252940025009, 10.05111441074403], [34.25272829483536, 10.05110434258126], [34.25292520209994, 10.051074544039288], [34.25311816968745, 10.051025310573815], [34.253305284303785, 10.05095713033987], [34.25348469068771, 10.0508706793517], [34.25365461000592, 10.050766814780012], [34.253813357490344, 10.050646566453045], [34.25395935914286, 10.050511126645706], [34.254091167341606, 10.050361838258038], [34.25420747519433, 10.050200181500228], [34.25430712949633, 10.050027759216164], [34.254389142164655, 10.049846280991067], [34.254452700034996, 10.049657546200772], [34.25449717292434, 10.04946342617073], [34.25452211987926, 10.049265845621612], [34.25452729354807, 10.049066763585504], [34.2545126426333, 10.048868153981894], [34.21873877407216, 9.760538450624708]]], [[[33.23247053810839, 8.397245309637697], [33.2325676234474, 8.397425283102738], [33.23268257861367, 8.397594402353324], [33.23281420186556, 8.397750899416337], [33.232961117213236, 8.397893138271042], [33.27973911721324, 8.438762138271041], [33.27990597824479, 8.4388929938931], [33.28008575594628, 8.43900544733111], [33.28027642935578, 8.439098234445437], [33.280475855027795, 8.439170312174427], [33.280681791128714, 8.43922087025994], [33.28089192263829, 8.439249340355808], [33.409211922638285, 8.449747340355808], [33.40943890826194, 8.449752978672736], [33.54537690826194, 8.445406978672736], [33.54552958412209, 8.445396238244793], [33.64494301702479, 8.434566866490261], [33.78499582011425, 8.433104768556628], [33.95260153374411, 8.445458469416824], [34.018420610024236, 8.493612338767848], [34.060572364262896, 8.535880944947467], [34.06071754758357, 8.536012903181131], [34.06087496134323, 8.536130001773365], [34.06104309078185, 8.536231113908658], [34.061220318024645, 8.536315266605857], [34.061404937650536, 8.53638165008098], [34.061595173103086, 8.536429625539585], [34.061789193785906, 8.536458731323764], [34.061985132678124, 8.53646868735458], [34.06218110430034, 8.536459397827212], [34.06237522285821, 8.536430952132855], [34.06256562038901, 8.53638362399854], [34.06275046473673, 8.536317868853109], [34.06292797718246, 8.536234319444713], [34.063096449560696, 8.536133779752015], [34.063254260696596, 8.536017217247668], [34.063399892006274, 8.535885753588524], [34.063531942109776, 8.535740653822161], [34.06364914031629, 8.535583314213598], [34.06375035885175, 8.53541524880932], [34.06383462371112, 8.535238074867927], [34.063901124031105, 8.535053497297579], [34.0639492198929, 8.53486329225003], [34.06397844847997, 8.534669290029084], [34.06398852853168, 8.534473357477957], [34.063979363049775, 8.534277380015029], [34.06395104023179, 8.534083243490862], [34.04372107653559, 8.431082168327569], [34.04367213035596, 8.430885989911696], [34.0436036267794, 8.430695755952176], [34.04351626594159, 8.430513410720895], [34.04341094070739, 8.43034081786358], [34.04328872754544, 8.430179741352562], [34.04315087552618, 8.430031827458214], [34.04299879355582, 8.429898587923372], [34.04283403597669, 8.429781384512692], [33.831602804287236, 8.295059628531247], [33.83142586974781, 8.294959062593868], [33.83123963106675, 8.294876998639065], [33.831046016714815, 8.294814286425527], [33.83084703153662, 8.294771575327864], [33.83064473599082, 8.294749307612435], [33.83044122481435, 8.294747713857749], [33.700745332480366, 8.300337199026206], [33.70057148523566, 8.30035231117271], [33.283409395993445, 8.355039186162847], [33.21260531004486, 8.348390375250077], [33.212404823350546, 8.348381660685314], [33.21220447257672, 8.348393081090913], [33.21200627479779, 8.348424521489488], [33.211812225412416, 8.348475665348078], [33.211624278054416, 8.348545997764917], [33.21144432492416, 8.348634810653307], [33.211274177738375, 8.348741209870438], [33.21111554949037, 8.348864124219364], [33.21097003720407, 8.349002316233502], [33.21083910585564, 8.349154394635102], [33.21072407362451, 8.349318828342225], [33.21062609862236, 8.349493961883244], [33.210546167233545, 8.34967803206366], [33.21048508418447, 8.349869185717433], [33.21044346444184, 8.350065498364144], [33.210421727021334, 8.350264993584101], [33.2104200907691, 8.350465662916372], [33.210438572158466, 8.350665486079402], [33.210476985124075, 8.35086245131062], [33.210534942935155, 8.351054575620301], [33.210611862089, 8.351239924755738], [33.23247053810839, 8.397245309637697]]], [[[33.01066373437741, 7.952022543509712], [33.010718899414435, 7.952198821866867], [33.010790091883116, 7.952369259165937], [33.01087670456081, 7.9525324016943415], [33.063466368928275, 8.041419085531484], [33.06948294266137, 8.054089688984686], [33.06957511978007, 8.054261627283946], [33.06968360997919, 8.05442376696651], [33.06980738099073, 8.054574565297623], [33.069945255152106, 8.054712587453782], [33.070095920611344, 8.054836520174879], [33.0702579438092, 8.054945184259662], [33.07042978311925, 8.055037545785664], [33.07060980351625, 8.055112725946824], [33.07079629213311, 8.055170009415182], [33.07098747455862, 8.055208851147132], [33.07118153172068, 8.055228881569418], [33.07137661719452, 8.055229910095582], [33.07157087477109, 8.055211926939347], [33.07176245611871, 8.05517510320775], [33.071949538369594, 8.055119789273071], [33.07213034146419, 8.055046511439102], [33.07230314508817, 8.054955966933441], [33.07246630504097, 8.054849017273476], [33.07261826888013, 8.05472668006918], [33.0727575906925, 8.0545901193407], [33.07288294485194, 8.05444063444288], [33.07299313863243, 8.0542796477021], [33.073087123556675, 8.05410869088305], [33.07316400537222, 8.053929390614217], [33.07322305256013, 8.053743452910764], [33.07326370329526, 8.053552646942045], [33.073285570791974, 8.05335878819823], [33.07328844698431, 8.053163721216187], [33.07327230450573, 8.05296930202899], [33.0732372969495, 8.052777380506036], [33.05634327328501, 7.980368371504393], [33.041267996402695, 7.8516209553284755], [33.0412358686648, 7.851428453522246], [33.04118513151591, 7.851239999605687], [33.04111626808958, 7.851057388090558], [33.041029934122925, 7.850882357855609], [33.04092695171252, 7.850716575588488], [33.04080830148615, 7.850561619915065], [33.040675113264996, 7.850418966367305], [33.040528655305145, 7.850289973332837], [33.04037032222093, 7.850175869119999], [33.04020162170498, 7.850077740261541], [33.04002416017156, 7.849996521168341], [33.039839627459834, 7.8499329852316935], [33.03964978074273, 7.849887737458844], [33.03945642779465, 7.849861208711949], [33.03926140977732, 7.849853651605274], [33.039066583707736, 7.849865138099738], [33.03887380477511, 7.849895558817677], [33.038684908675236, 7.849944624084366], [33.03850169413046, 7.850011866686391], [33.03832590576176, 7.8500966463205835], [33.03815921747594, 7.8501981556911655], [33.013525649956925, 7.866899605672109], [33.013364437087105, 7.867021224837652], [33.01321631040137, 7.867158481151878], [33.0130827800813, 7.867309975258844], [33.012965207495576, 7.867474162645419], [33.01286479132055, 7.867649369387916], [32.99714279132055, 7.898606369387916], [32.99705851104752, 7.898796119414716], [32.99699435681363, 7.898993584529015], [32.99695102001285, 7.899196636637574], [32.996928967688454, 7.899403087435782], [32.99692843749965, 7.89961071199115], [32.99694943516031, 7.899817272721538], [32.99699173437741, 7.9000205435097115], [33.01066373437741, 7.952022543509712]]]]}}]}